{
"type": "FeatureCollection",
"name": "p15_camadas_uniao_21s",
"crs": { "type": "name", "properties": { "name": "urn:ogc:def:crs:EPSG::31981" } },
"features": [
{ "type": "Feature", "properties": { "id": 1, "pagina": 15, "classe": "Area matriculada em nome da Uniao Federal", "rotulo": "Area matriculada em nome da Uniao Federal", "seq_pdf": "739-900;8305-8307", "metodo": "COMP_PDF", "situacao": "DERIV_PDF", "recortado": 1, "area_m2": 967102.616, "area_ha": 96.710262, "id_layer": "p15_camadas_uniao", "doc_fonte": "Resposta SECT_autos.pdf", "doc_pagina": 15, "doc_folha": 108, "doc_escala": "1:15.000", "doc_metodo": "Reconstituição Vetorial Afim", "doc_rms_m": 0.68 }, "geometry": { "type": "Polygon", "coordinates": [ [ [ 173446.23292011563899, 9658032.311579780653119 ], [ 173117.317093006306095, 9658478.348704708740115 ], [ 173116.679834309295984, 9658478.621827144175768 ], [ 173065.935577282245504, 9658547.220061328262091 ], [ 173065.935577288793866, 9658548.159725520759821 ], [ 173078.151690153259551, 9658560.375837951898575 ], [ 173086.080731568072224, 9658569.890122726559639 ], [ 173084.729817716433899, 9658572.591950392350554 ], [ 173346.083214848447824, 9658861.051572494208813 ], [ 173360.407083016179968, 9658877.69164888933301 ], [ 173653.249615512962919, 9659202.192648559808731 ], [ 173657.008272377366666, 9659202.192648559808731 ], [ 173660.767407211009413, 9659200.313200673088431 ], [ 173984.964943616010714, 9659008.613938918337226 ], [ 174022.552945892326534, 9658968.206705858930945 ], [ 174320.438926089176675, 9658457.948259014636278 ], [ 174319.49926184641663, 9658454.189482761546969 ], [ 173827.09465616918169, 9657934.534035507589579 ], [ 173815.645315280969953, 9657951.708774263039231 ], [ 173809.614634127734462, 9657948.304480943828821 ], [ 173819.915275762468809, 9657926.414635386317968 ], [ 173801.253136382700177, 9657907.752348342910409 ], [ 173801.722766230144771, 9657907.282698599621654 ], [ 173782.930747507343767, 9657888.490539971739054 ], [ 173767.893420299282297, 9657871.574025478214025 ], [ 173767.230180011334596, 9657872.237293869256973 ], [ 173749.098196308332263, 9657851.838596783578396 ], [ 173727.016446250898298, 9657829.757342988625169 ], [ 173727.486424784554401, 9657829.287344541400671 ], [ 173717.149640359915793, 9657818.950679967179894 ], [ 173693.573841521021677, 9657830.738586319610476 ], [ 173691.565651458222419, 9657826.065260034054518 ], [ 173579.952929503284395, 9657868.754913398995996 ], [ 173579.354572283977177, 9657869.267775479704142 ], [ 173563.978159884631168, 9657874.393137531355023 ], [ 173562.09883146759239, 9657876.272465908899903 ], [ 173558.340174637181917, 9657881.910690033808351 ], [ 173562.098822995903902, 9657885.669338261708617 ], [ 173549.882240875333082, 9657897.885698214173317 ], [ 173533.907471344515216, 9657914.800370596349239 ], [ 173514.174044998711906, 9657941.111923865973949 ], [ 173514.337211463018321, 9657941.438360553234816 ], [ 173502.89759654836962, 9657956.147267850115895 ], [ 173507.595917648490286, 9657956.147267850115895 ], [ 173523.382849929039367, 9657950.884622598066926 ], [ 173515.583690881059738, 9657966.483932415023446 ], [ 173498.199195884139044, 9657966.483932415023446 ], [ 173494.440140720253112, 9657968.36338028870523 ], [ 173446.23292011563899, 9658032.311579780653119 ] ] ] } },
{ "type": "Feature", "properties": { "id": 2, "pagina": 15, "classe": "Area matriculada em nome da Uniao Federal", "rotulo": "Area matriculada em nome da Uniao Federal", "seq_pdf": "739-900;8305-8307", "metodo": "COMP_PDF", "situacao": "DERIV_PDF", "recortado": 1, "area_m2": 4417353.389, "area_ha": 441.735339, "id_layer": "p15_camadas_uniao", "doc_fonte": "Resposta SECT_autos.pdf", "doc_pagina": 15, "doc_folha": 108, "doc_escala": "1:15.000", "doc_metodo": "Reconstituição Vetorial Afim", "doc_rms_m": 0.68 }, "geometry": { "type": "Polygon", "coordinates": [ [ [ 174752.701669592846883, 9658043.53950279392302 ], [ 174746.123542232235195, 9658060.454175168648362 ], [ 174740.485079051926732, 9658071.730742905288935 ], [ 174740.485079299221979, 9658107.102764597162604 ], [ 174738.298301545641152, 9658107.457458520308137 ], [ 174736.726900353911333, 9658102.740856092423201 ], [ 174739.849370670533972, 9658135.861966671422124 ], [ 174741.961291563406121, 9658135.756690612062812 ], [ 174743.304550190281589, 9658147.846529612317681 ], [ 174751.762006266537355, 9658171.339090304449201 ], [ 174763.977880267455475, 9658199.530091430991888 ], [ 174803.445450961618917, 9658301.95767037384212 ], [ 174809.083914329734398, 9658316.993014378473163 ], [ 174809.083914336311864, 9658317.932559069246054 ], [ 174814.721899703261442, 9658327.329678932204843 ], [ 174818.480795603682054, 9658334.847231440246105 ], [ 174823.17935572101851, 9658342.364903435111046 ], [ 174836.335132828360656, 9658358.33979213424027 ], [ 174840.093789725535316, 9658362.098687874153256 ], [ 174844.792349820432719, 9658365.857464127242565 ], [ 174844.792349826981081, 9658366.797247808426619 ], [ 174849.490909913729411, 9658370.556024057790637 ], [ 174856.069037420442328, 9658374.314800312742591 ], [ 174870.164478708204115, 9658385.591248555108905 ], [ 174881.44068834205973, 9658391.229472687467933 ], [ 174889.897905284306034, 9658393.108801066875458 ], [ 174894.596704332099762, 9658393.108801066875458 ], [ 174902.114257056236966, 9658394.048584748059511 ], [ 174919.02892990669352, 9658394.988248940557241 ], [ 174963.195059976482298, 9658398.747025195509195 ], [ 174982.92872548836749, 9658400.626473063603044 ], [ 175001.722726783686085, 9658403.445585131645203 ], [ 175039.310729403048754, 9658410.963257120922208 ], [ 175059.984298129100353, 9658415.661697572097182 ], [ 175106.969420916342642, 9658428.817474195733666 ], [ 175178.386769360397011, 9658456.068930629640818 ], [ 175238.527908229094464, 9658484.260051254183054 ], [ 175243.494775522820419, 9658484.260051254183054 ], [ 175259.201238024455961, 9658496.476163696497679 ], [ 175259.201238031033427, 9658497.415827883407474 ], [ 175284.573127914802171, 9658511.511388199403882 ], [ 175338.136139338777866, 9658545.340613454580307 ], [ 175377.603709504619474, 9658571.652405695989728 ], [ 175444.322736961737974, 9658612.999183461070061 ], [ 175477.211940628476441, 9658634.612415766343474 ], [ 175588.097098340338562, 9658706.029762027785182 ], [ 175718.715682651847601, 9658789.66328046284616 ], [ 175734.690691347495886, 9658799.060340587049723 ], [ 175776.037589964194922, 9658828.191065657883883 ], [ 175794.831591344758635, 9658843.226290162652731 ], [ 175816.44458541093627, 9658862.020350661128759 ], [ 175836.178490019636229, 9658880.81447090767324 ], [ 175837.118154249881627, 9658880.81447090767324 ], [ 175874.706396010937169, 9658913.703972226008773 ], [ 175895.379725860373583, 9658932.498032728210092 ], [ 175932.028303404833423, 9658964.447929603978992 ], [ 175953.641297459602356, 9658982.302266165614128 ], [ 175977.133858953980962, 9659002.975714793428779 ], [ 176021.299989252525847, 9659040.563835790380836 ], [ 176057.008663616783451, 9659073.453396858647466 ], [ 176122.787787991488585, 9659130.775302294641733 ], [ 176146.280349488311913, 9659153.328079301863909 ], [ 176168.833007795881713, 9659175.880975805222988 ], [ 176181.98902388397255, 9659190.916200304403901 ], [ 176204.541921201511286, 9659218.1675969902426 ], [ 176215.818130908708554, 9659235.082209624350071 ], [ 176225.215251129382523, 9659248.238105740398169 ], [ 176241.190259926544968, 9659272.670330619439483 ], [ 176252.466708619438577, 9659291.464391123503447 ], [ 176263.743157323886408, 9659311.19811580888927 ], [ 176283.47682312305551, 9659353.484737001359463 ], [ 176297.572503536328441, 9659385.434633878991008 ], [ 176304.15039217507001, 9659405.168358568102121 ], [ 176315.426841000182321, 9659442.75644969381392 ], [ 176324.823722431407077, 9659482.22395882755518 ], [ 176328.582618416810874, 9659501.957713391631842 ], [ 176331.40185019391356, 9659522.631162011995912 ], [ 176332.34151449505589, 9659534.847289394587278 ], [ 177945.810694661864545, 9659534.847289392724633 ], [ 177954.267672570189461, 9659528.269386138767004 ], [ 177968.363591695117066, 9659521.691467953845859 ], [ 177996.554473947559018, 9659495.37979519739747 ], [ 178003.132123365736334, 9659481.284264758229256 ], [ 178007.830922298569931, 9659465.309316318482161 ], [ 178026.625162355136126, 9659436.178531507030129 ], [ 178046.358588780596619, 9659422.083030937239528 ], [ 178046.358588774019154, 9659421.143307011574507 ], [ 178054.816044623818016, 9659412.685970820486546 ], [ 178064.21316471073078, 9659406.108082504943013 ], [ 178065.152828893216792, 9659401.409522572532296 ], [ 177936.413571959128603, 9659167.423639614135027 ], [ 177931.714806804637192, 9659159.906081661581993 ], [ 177931.708902403624961, 9658886.492871228605509 ], [ 177933.594568808301119, 9657665.779083898290992 ], [ 177931.714762391231488, 9657662.020427135750651 ], [ 177784.181744316359982, 9657593.422073449939489 ], [ 177742.834606831136625, 9657579.326632624492049 ], [ 177698.66847676972975, 9657576.507401077076793 ], [ 177682.693707147001987, 9657581.205961007624865 ], [ 177678.935050296859117, 9657583.08528938703239 ], [ 177636.648726745828753, 9657597.180969187989831 ], [ 177603.758567401033361, 9657610.336745822802186 ], [ 177601.879238978639478, 9657612.216074205935001 ], [ 177600.939574765507132, 9657612.216074205935001 ], [ 177600.939574776450172, 9657613.782420162111521 ], [ 177594.361925274395617, 9657615.974969945847988 ], [ 177588.723462035064586, 9657619.733626712113619 ], [ 177571.809028233430581, 9657629.130746576935053 ], [ 177564.291236565128202, 9657632.889642318710685 ], [ 177553.954452239442617, 9657636.648299081251025 ], [ 177548.316466966323787, 9657640.407194823026657 ], [ 177530.461891725368332, 9657755.050766717642546 ], [ 177548.721130905265454, 9657745.921147352084517 ], [ 177550.014043170784134, 9657747.714967232197523 ], [ 177528.58256338670617, 9657769.146446522325277 ], [ 177527.642899210157339, 9657774.784670641645789 ], [ 177528.179826780222356, 9657774.784670641645789 ], [ 177522.004906242567813, 9657818.010999834164977 ], [ 177521.065249994018814, 9657818.950679961591959 ], [ 177514.529126567824278, 9657867.969529155641794 ], [ 177513.547458654502407, 9657868.754913400858641 ], [ 177510.893811298825312, 9657891.639413893222809 ], [ 177507.908995682984823, 9657911.041474845260382 ], [ 177514.72145294182701, 9657904.229017728939652 ], [ 177501.331346457940526, 9657953.328155780211091 ], [ 177499.452107689226978, 9657968.362783286720514 ], [ 177470.321472802810604, 9658160.062522694468498 ], [ 177464.123006200679811, 9658207.019300939515233 ], [ 177455.200453188910615, 9658266.505257949233055 ], [ 177454.346225962945027, 9658267.188661439344287 ], [ 177447.455726694082841, 9658318.869597766548395 ], [ 177426.155344904633239, 9658458.88792297616601 ], [ 177426.417794138833415, 9658458.677956914529204 ], [ 177415.323500349739334, 9658529.996259050443769 ], [ 177408.300769260444213, 9658525.606828996911645 ], [ 177408.079685029224493, 9658525.938483444973826 ], [ 177381.989215176989092, 9658509.631940316408873 ], [ 177381.445000458334107, 9658510.176178090274334 ], [ 177350.583362217817921, 9658492.173120308667421 ], [ 177350.978862014482729, 9658491.777603756636381 ], [ 177328.425964787660632, 9658478.621707631275058 ], [ 177328.191058939963114, 9658478.856633387506008 ], [ 177301.174746424920158, 9658462.646818917244673 ], [ 177301.024240302649559, 9658462.872530257329345 ], [ 177270.708349220862146, 9658445.188207484781742 ], [ 177271.104057543794625, 9658444.792482392862439 ], [ 177243.394997075578431, 9658429.275335740298033 ], [ 177243.852839212748222, 9658428.817474205046892 ], [ 177221.299942005221965, 9658415.661697583273053 ], [ 177189.943288297654362, 9658398.327418485656381 ], [ 177190.290066767018288, 9658397.80736100487411 ], [ 177163.582502451172331, 9658382.227901812642813 ], [ 177163.978034694300732, 9658381.832352813333273 ], [ 177141.42513746212353, 9658368.676576176658273 ], [ 177140.881131266010925, 9658369.220605416223407 ], [ 177110.019252074474934, 9658351.217788621783257 ], [ 177110.41478431437281, 9658350.822239624336362 ], [ 177002.893488790665288, 9658288.257810464128852 ], [ 177003.289239487581654, 9658287.862110087648034 ], [ 176980.736342225660337, 9658274.706333434209228 ], [ 176980.501319383329246, 9658274.941356271505356 ], [ 176953.484645977208856, 9658258.731325270608068 ], [ 176953.334301234048326, 9658258.956851944327354 ], [ 176923.018684218637645, 9658241.272689048200846 ], [ 176923.414434921636712, 9658240.876988673582673 ], [ 176899.921873440383933, 9658227.721212016418576 ], [ 176899.700651927298168, 9658228.052959898486733 ], [ 176873.609841428580694, 9658211.746203860267997 ], [ 176842.142124105332186, 9658194.349728845059872 ], [ 176842.599966240959475, 9658193.891867311671376 ], [ 176828.504524961754214, 9658185.43453112244606 ], [ 176832.733024009387009, 9658161.472140040248632 ], [ 176833.202845875814091, 9658161.002306237816811 ], [ 176855.322165620018495, 9658054.309721933677793 ], [ 176855.755742251029005, 9658053.876167362555861 ], [ 176856.736366575030843, 9658047.380201952531934 ], [ 176854.816077964496799, 9658043.53950279019773 ], [ 176837.901644066907465, 9658035.082166621461511 ], [ 176837.703728994645644, 9658035.280056528747082 ], [ 176808.771575554797892, 9658021.92671182192862 ], [ 176780.579258866724558, 9658007.830829674378037 ], [ 176780.381517683970742, 9658008.028579235076904 ], [ 176746.948219684592914, 9657992.597776491194963 ], [ 176747.690055221348302, 9657991.855940969660878 ], [ 176723.257829585083527, 9657980.579492725431919 ], [ 176722.944443420157768, 9657980.892892170697451 ], [ 176690.368147946428508, 9657964.604484526440501 ], [ 176665.93592230201466, 9657953.328155763447285 ], [ 176665.62258582591312, 9657953.64143910817802 ], [ 176633.046240757626947, 9657937.353267084807158 ], [ 176603.470560800022213, 9657923.70276453346014 ], [ 176603.915694020484807, 9657923.257706781849265 ], [ 176579.477253841439961, 9657911.978270754218102 ], [ 176551.292107879678952, 9657897.885698217898607 ], [ 176551.104176407447085, 9657898.073629686608911 ], [ 176522.537560563388979, 9657884.918016854673624 ], [ 176469.760354332509451, 9657846.449104079976678 ], [ 176449.50745304179145, 9657823.945976620540023 ], [ 176449.804309263447067, 9657823.649120405316353 ], [ 176427.828504393430194, 9657800.516741488128901 ], [ 176412.216067431174451, 9657782.302342645823956 ], [ 176411.573181982239475, 9657782.945228081196547 ], [ 176388.426909515983425, 9657757.22693046182394 ], [ 176388.72122932045022, 9657756.932610662654042 ], [ 176366.079246086301282, 9657733.127400094643235 ], [ 176348.019573721627239, 9657713.060928082093596 ], [ 176348.314017241937108, 9657712.766459608450532 ], [ 176325.671414813259616, 9657688.960636056959629 ], [ 176297.572491465776693, 9657658.261531393975019 ], [ 176253.908280665054917, 9657640.403021590784192 ], [ 176225.215239820652641, 9657629.130746582522988 ], [ 176224.931602741562529, 9657629.556238263845444 ], [ 176171.652228475752054, 9657608.457417441532016 ], [ 176161.315443536499515, 9657524.823719725012779 ], [ 176154.93043151195161, 9657482.157632153481245 ], [ 176155.677218949276721, 9657481.597494112327695 ], [ 176149.596748912095791, 9657440.248445246368647 ], [ 176141.581776985898614, 9657374.471474738791585 ], [ 176137.822880960913608, 9657348.159682502970099 ], [ 176134.064224065019516, 9657345.340450944378972 ], [ 176118.715538806776749, 9657347.533598149195313 ], [ 176119.968782864423702, 9657346.280354117974639 ], [ 176073.110540605994174, 9657350.851981975138187 ], [ 176073.92332440710743, 9657350.039249865338206 ], [ 176027.064989138540113, 9657354.610596148297191 ], [ 176027.877627014706377, 9657353.797906618565321 ], [ 175981.139928569027688, 9657358.249237159267068 ], [ 175981.832407398236683, 9657357.556802377104759 ], [ 175935.09462085578707, 9657362.007831357419491 ], [ 175935.786949079745682, 9657361.315459128469229 ], [ 175896.319379121181555, 9657364.134690681472421 ], [ 175895.813478906697128, 9657364.640623053535819 ], [ 175850.273920656443806, 9657367.893586423248053 ], [ 175849.768224772735266, 9657368.399282295256853 ], [ 175804.228701188258128, 9657371.652243189513683 ], [ 175803.722469373315107, 9657372.158474992960691 ], [ 175758.183242744707968, 9657375.411138931289315 ], [ 175757.677230821194826, 9657375.917118676006794 ], [ 175712.137545338599011, 9657379.169795697554946 ], [ 175711.717024601064622, 9657379.590396650135517 ], [ 175620.046867390628904, 9657386.687587179243565 ], [ 175619.626536804134957, 9657387.107917757704854 ], [ 175574.001647927274462, 9657390.446482928469777 ], [ 175573.567944030161016, 9657390.880159242078662 ], [ 175527.016525260376511, 9657394.205139689147472 ], [ 175526.510590403107926, 9657394.711074536666274 ], [ 175480.971066825761227, 9657397.964035427197814 ], [ 175480.43406220342149, 9657398.500971768051386 ], [ 175446.202056918351445, 9657400.783028000965714 ], [ 175443.383064299938269, 9657405.481587937101722 ], [ 175463.11673026176868, 9657455.799091575667262 ], [ 175476.02617408518563, 9657487.485635463148355 ], [ 175485.669388714857632, 9657514.487174684181809 ], [ 175427.803335905307904, 9657530.066452652215958 ], [ 175428.347481030243216, 9657529.522279882803559 ], [ 175379.483269716467476, 9657541.738392135128379 ], [ 175378.592683304857928, 9657542.628933236002922 ], [ 175320.082786523475079, 9657557.542768320068717 ], [ 175291.868348343443358, 9657539.141926279291511 ], [ 175292.090912797750207, 9657538.919399559497833 ], [ 175265.489950316783506, 9657522.29365760833025 ], [ 175265.778880738129374, 9657522.004727194085717 ], [ 175244.165886704198783, 9657507.909286368638277 ], [ 175243.790068809292279, 9657508.285104256123304 ], [ 175217.85433260674472, 9657490.994614012539387 ], [ 175217.588594992965227, 9657491.39316974952817 ], [ 175188.500845400849357, 9657472.423094665631652 ], [ 175188.723546886845725, 9657472.200374299660325 ], [ 175162.190766279061791, 9657455.617527527734637 ], [ 175162.411992738227127, 9657455.285701904445887 ], [ 175140.798759680066723, 9657441.190261051058769 ], [ 175140.509699630667455, 9657441.479345597326756 ], [ 175110.507265151914908, 9657422.727784920483828 ], [ 175110.728309684403939, 9657422.396260289475322 ], [ 175085.133845264732372, 9657405.703923512250185 ], [ 175085.356180845905328, 9657405.481587937101722 ], [ 175062.803283620334696, 9657391.386147117242217 ], [ 175062.537641967472155, 9657391.784609587863088 ], [ 175036.93772194054327, 9657375.08918240852654 ], [ 175007.360704822698608, 9657364.134690683335066 ], [ 175008.30084702509339, 9657367.893586428835988 ], [ 175010.180175489629619, 9657372.59214636310935 ], [ 175015.818160922499374, 9657390.446482928469777 ], [ 175028.825776247686008, 9657426.303043432533741 ], [ 175028.372855584981153, 9657426.755956141278148 ], [ 175040.565318998531438, 9657458.109332395717502 ], [ 175046.994394467183156, 9657477.396230878308415 ], [ 175046.828514565713704, 9657477.838598374277353 ], [ 175048.238979117042618, 9657481.12992132268846 ], [ 175050.822398743854137, 9657488.880048440769315 ], [ 175050.58741050309618, 9657489.115046637132764 ], [ 175059.04462760585011, 9657513.54751049913466 ], [ 175059.044627676485106, 9657523.649129580706358 ], [ 175058.547414750704775, 9657523.441955776885152 ], [ 175056.225396055349847, 9657525.763383954763412 ], [ 175052.466500278474996, 9657536.100168019533157 ], [ 175066.506782809679862, 9657522.05988578312099 ], [ 175083.400765646714717, 9657541.065481539815664 ], [ 175068.780727450706763, 9657556.172705288976431 ], [ 175051.526836095523322, 9657538.91939957626164 ], [ 175044.949186687619658, 9657558.653064578771591 ], [ 175045.285895676264772, 9657558.765305666252971 ], [ 175034.38002908101771, 9657589.923848859965801 ], [ 175033.672738365043188, 9657590.602841891348362 ], [ 175030.853267805592623, 9657598.120633386075497 ], [ 175031.187358851981116, 9657598.240904664620757 ], [ 175016.758065839996561, 9657639.467530678957701 ], [ 175017.046877958287951, 9657639.539729118347168 ], [ 175011.589853012003005, 9657655.912191702052951 ], [ 175011.119841694744537, 9657656.382203008979559 ], [ 175002.301209977304097, 9657682.838378304615617 ], [ 175001.722721754136728, 9657682.693756254389882 ], [ 174994.204930211271858, 9657705.246652776375413 ], [ 174999.373651003086707, 9657710.414716215804219 ], [ 174998.903490313823568, 9657710.884876895695925 ], [ 175006.922442680282984, 9657717.901268800720572 ], [ 174991.385937750193989, 9657733.437773387879133 ], [ 174985.747713432298042, 9657727.799549268558621 ], [ 174983.868146065797191, 9657734.377437578514218 ], [ 174976.35083234377089, 9657736.256765965372324 ], [ 174966.114248289726675, 9657731.139775805175304 ], [ 174966.953712155693211, 9657728.739213451743126 ], [ 174966.196379471279215, 9657728.156657844781876 ], [ 174980.109727863920853, 9657690.211308777332306 ], [ 174979.883854395360686, 9657690.437182240188122 ], [ 174997.964064563217107, 9657637.587963279336691 ], [ 174997.024400341353612, 9657636.648299090564251 ], [ 174991.385937128652586, 9657643.226187407970428 ], [ 174976.350859164638678, 9657628.191109968349338 ], [ 174991.385936913255136, 9657613.155738394707441 ], [ 175001.722721336846007, 9657623.492522455751896 ], [ 175003.602288738038624, 9657622.552858268842101 ], [ 175012.99916969879996, 9657596.241066044196486 ], [ 175012.313129411631962, 9657595.955228051170707 ], [ 175020.516961239278316, 9657573.688408525660634 ], [ 175040.25062634749338, 9657517.306167261675 ], [ 175031.792965590982931, 9657517.306167261675 ], [ 175044.009522113512503, 9657505.09005481749773 ], [ 175040.250626304390607, 9657494.753271067515016 ], [ 175039.928319755126722, 9657495.666475266218185 ], [ 175035.552066044940148, 9657482.537158308550715 ], [ 175025.215281498618424, 9657454.34603769890964 ], [ 175024.980440124403685, 9657454.58087906986475 ], [ 175016.758064301713603, 9657429.914051758125424 ], [ 175005.481376640673261, 9657397.964035466313362 ], [ 174992.729885678243591, 9657363.063986269757152 ], [ 174990.446270916901994, 9657358.496466562151909 ], [ 174970.842945206415607, 9657350.424457412213087 ], [ 174946.280379732808797, 9657341.581794187426567 ], [ 174944.400812332751229, 9657343.461361546069384 ], [ 174943.461148170084925, 9657350.978914052248001 ], [ 174943.461148202914046, 9657355.677235007286072 ], [ 174942.521484033117304, 9657362.255362305790186 ], [ 174942.521484190801857, 9657384.808019822463393 ], [ 174941.581819974526297, 9657384.808019822463393 ], [ 174939.389274499553721, 9657424.901949809864163 ], [ 174938.762588622659678, 9657425.21525289863348 ], [ 174937.823163578956155, 9657452.466709315776825 ], [ 174936.883021449641092, 9657459.984261872246861 ], [ 174937.641960332286544, 9657459.225419502705336 ], [ 174934.064029038476292, 9657493.813606573268771 ], [ 174935.003693256498082, 9657493.813606573268771 ], [ 174933.494497357110959, 9657515.697716418653727 ], [ 174941.617293161310954, 9657516.501148344948888 ], [ 174939.702492547425209, 9657529.52227970212698 ], [ 174939.702492619719123, 9657539.859063759446144 ], [ 174937.822925217478769, 9657540.798727948218584 ], [ 174934.064678258204367, 9657572.74526185169816 ], [ 174928.823239903606009, 9657598.953786827623844 ], [ 174930.275887299503665, 9657599.28041928075254 ], [ 174925.526348841289291, 9657634.901203710585833 ], [ 174926.218997884803684, 9657635.016518050804734 ], [ 174924.666584102116758, 9657645.106319459155202 ], [ 174923.727245756861521, 9657646.045418951660395 ], [ 174913.390461603034055, 9657673.296875383704901 ], [ 174913.390461695002159, 9657686.45313011854887 ], [ 174909.632043783931294, 9657682.693756254389882 ], [ 174888.958475438907044, 9657733.437773397192359 ], [ 174873.923131294432096, 9657771.965678077191114 ], [ 174823.183473134267842, 9657886.599772648885846 ], [ 174801.565880968992133, 9657933.594371344894171 ], [ 174801.56588098211796, 9657935.474058238789439 ], [ 174799.68679155225982, 9657938.292931279167533 ], [ 174790.289671586913755, 9657962.725156161934137 ], [ 174788.41034317901358, 9657965.544148728251457 ], [ 174779.952887408056995, 9657986.217716852203012 ], [ 174780.892551634082338, 9657988.097045224159956 ], [ 174778.073559010023018, 9657990.916276779025793 ], [ 174768.61553353475756, 9658012.983933635056019 ], [ 174766.797110592102399, 9658012.52927010692656 ], [ 174752.701669592846883, 9658043.53950279392302 ] ] ] } },
{ "type": "Feature", "properties": { "id": 3, "pagina": 15, "classe": "Area matriculada em nome da Uniao Federal", "rotulo": "Area matriculada em nome da Uniao Federal", "seq_pdf": "739-900;8305-8307", "metodo": "COMP_PDF", "situacao": "DERIV_PDF", "recortado": 1, "area_m2": 1163098.047, "area_ha": 116.309805, "id_layer": "p15_camadas_uniao", "doc_fonte": "Resposta SECT_autos.pdf", "doc_pagina": 15, "doc_folha": 108, "doc_escala": "1:15.000", "doc_metodo": "Reconstituição Vetorial Afim", "doc_rms_m": 0.68 }, "geometry": { "type": "Polygon", "coordinates": [ [ [ 173596.867832521995297, 9656609.553517090156674 ], [ 173588.410376541723963, 9656600.156397219747305 ], [ 173587.814080432232004, 9656600.752743868157268 ], [ 173561.159158127440605, 9656571.96551557444036 ], [ 173554.581030669360189, 9656574.78450814448297 ], [ 173563.038487154582981, 9656657.47830256447196 ], [ 173563.387503719772212, 9656657.012917561456561 ], [ 173567.294613293081056, 9656697.38803512044251 ], [ 173566.79714431570028, 9656697.885535717010498 ], [ 173569.616137165983673, 9656727.0163204818964 ], [ 173570.117292470880784, 9656726.515197044238448 ], [ 173571.495465733081801, 9656745.810321286320686 ], [ 173571.49546589734382, 9656769.30288191139698 ], [ 173570.26667350315256, 9656812.312500238418579 ], [ 173592.408995260717347, 9656828.919241005554795 ], [ 173589.22133468784159, 9656834.077277366071939 ], [ 173570.555324113054667, 9656824.745459023863077 ], [ 173570.55532427073922, 9656847.298116557300091 ], [ 173568.675996324105654, 9656917.775798747316003 ], [ 173568.675996646023123, 9656963.821255953982472 ], [ 173567.736332653643331, 9656995.771272283047438 ], [ 173567.736332969012437, 9657040.87682612426579 ], [ 173565.642000366409775, 9657119.819904571399093 ], [ 173579.952446736773709, 9657181.45627686008811 ], [ 173579.952446745999623, 9657182.772093491628766 ], [ 173583.711581676412607, 9657197.807198507711291 ], [ 173585.590910120343324, 9657199.310756808146834 ], [ 173585.590910175524186, 9657207.204318379983306 ], [ 173586.379005207825685, 9657206.810270875692368 ], [ 173599.686351828568149, 9657269.224544757977128 ], [ 173600.404838778893463, 9657268.506057823076844 ], [ 173608.143807991989888, 9657304.933217884972692 ], [ 173616.013491222867742, 9657336.413378685712814 ], [ 173615.661121934681432, 9657336.883234266191721 ], [ 173635.846411272272235, 9657330.154804674908519 ], [ 173638.561624711350305, 9657336.709909535944462 ], [ 173617.541406375967199, 9657347.220018332824111 ], [ 173622.615597264084499, 9657367.517748614773154 ], [ 173622.239727601408958, 9657367.893586413934827 ], [ 173630.172156852902845, 9657398.489027189090848 ], [ 173629.757519520528149, 9657398.903699655085802 ], [ 173635.395982951245969, 9657424.275588693097234 ], [ 173635.908525751205161, 9657423.763045903295279 ], [ 173644.109239802433876, 9657460.667647378519177 ], [ 173643.852961161290295, 9657460.923926014453173 ], [ 173649.491424590378301, 9657486.296054013073444 ], [ 173650.028366896498483, 9657485.893313147127628 ], [ 173658.204685407748912, 9657522.688130548223853 ], [ 173657.948402817972237, 9657522.944391407072544 ], [ 173665.880839287856361, 9657553.539860026910901 ], [ 173665.466194729029667, 9657553.954504577443004 ], [ 173672.044322418776574, 9657584.96485672518611 ], [ 173679.749587423575576, 9657615.787034844979644 ], [ 173685.200099821900949, 9657642.286523211747408 ], [ 173685.918659122660756, 9657641.567963926121593 ], [ 173700.000427808845416, 9657707.596328504383564 ], [ 173702.114534180873306, 9657711.824541091918945 ], [ 173716.868988877598895, 9657731.1189383007586 ], [ 173716.20997553691268, 9657731.558206038549542 ], [ 173719.969110384292435, 9657735.317101774737239 ], [ 173723.727647710591555, 9657731.558564526960254 ], [ 173738.385974687203998, 9657746.218754956498742 ], [ 173733.124409555195598, 9657754.111102532595396 ], [ 173734.064073785411892, 9657755.990430919453502 ], [ 173748.159515112289228, 9657775.724334802478552 ], [ 173757.5566353550239, 9657787.94044728204608 ], [ 173763.628372036007931, 9657785.916277742013335 ], [ 173768.981449354439974, 9657792.416449690237641 ], [ 173765.074427126557566, 9657798.277231339365244 ], [ 173779.169868454278912, 9657815.191903706640005 ], [ 173779.169868460856378, 9657816.131567910313606 ], [ 173779.304033054533647, 9657815.930312491953373 ], [ 173800.11989458987955, 9657839.347659595310688 ], [ 173799.843437315459596, 9657839.624128583818674 ], [ 173812.059550209611189, 9657853.719688907265663 ], [ 173836.961717606231105, 9657878.621735947206616 ], [ 173836.491775967559079, 9657879.091697489842772 ], [ 173839.310768628318328, 9657881.910690052434802 ], [ 173839.448313165892614, 9657881.635592237114906 ], [ 173840.155127904494293, 9657882.291922019794583 ], [ 173844.635505825688597, 9657864.369840402156115 ], [ 173865.996497407089919, 9657843.008849397301674 ], [ 173866.938632422417868, 9657843.660306850448251 ], [ 173846.719672556209844, 9657888.387587456032634 ], [ 173859.984337442641845, 9657900.704810285940766 ], [ 173893.813683339045383, 9657929.835595095530152 ], [ 173920.125237479049247, 9657949.569379528984427 ], [ 173948.316598005534615, 9657969.303044475615025 ], [ 173948.316598012082977, 9657970.242828156799078 ], [ 173969.929353053536033, 9657983.398604787886143 ], [ 173992.482250289729564, 9657998.433829287067056 ], [ 174079.874846488848561, 9658046.358614860102534 ], [ 174126.859969349636231, 9658070.790959225967526 ], [ 174177.603749105619499, 9658098.981960358098149 ], [ 174295.066556279751239, 9658161.942089919000864 ], [ 174301.644683792197611, 9658166.640649855136871 ], [ 174319.498781895963475, 9658169.459642428904772 ], [ 174349.569470708083827, 9658167.580314051359892 ], [ 174358.966590826486936, 9658166.640649856999516 ], [ 174372.122367808478884, 9658163.821418307721615 ], [ 174382.459152138180798, 9658161.002425728365779 ], [ 174396.554593318956904, 9658155.364201607182622 ], [ 174397.494257533166092, 9658155.364201607182622 ], [ 174415.835723228665302, 9658144.574878431856632 ], [ 174413.41976316520595, 9658142.15891988016665 ], [ 174462.333955924637849, 9658106.499512866139412 ], [ 174462.333955904934555, 9658103.680520292371511 ], [ 174466.092612772306893, 9658103.680520292371511 ], [ 174473.646372544491896, 9658097.805439157411456 ], [ 174504.620757351949578, 9658081.127623800188303 ], [ 174513.077735284867231, 9658077.368728052824736 ], [ 174525.293848031200469, 9658072.670287612825632 ], [ 174533.75130392741994, 9658069.851175550371408 ], [ 174546.907080909004435, 9658067.971847167238593 ], [ 174553.485208384372527, 9658067.971847167238593 ], [ 174583.555419263750082, 9658069.851175550371408 ], [ 174625.842220924823778, 9658077.368728052824736 ], [ 174645.576125418359879, 9658079.248175922781229 ], [ 174654.97276758425869, 9658078.308511732146144 ], [ 174667.189358307310613, 9658076.429063862189651 ], [ 174678.464213611121522, 9658072.200993221253157 ], [ 174686.343962835875573, 9658068.261285696178675 ], [ 174685.914255046460312, 9658069.407227763906121 ], [ 174695.240508815360954, 9658065.909882690757513 ], [ 174694.20903189262026, 9658062.996354177594185 ], [ 174706.656689141207607, 9658052.936503171920776 ], [ 174706.656689134659246, 9658051.996838986873627 ], [ 174718.872801830759272, 9658039.780726546421647 ], [ 174722.63145863317186, 9658030.383606679737568 ], [ 174743.305027009395417, 9657985.277933169156313 ], [ 174757.400467989064055, 9657951.448707910254598 ], [ 174788.410820527322358, 9657879.091577971354127 ], [ 174808.144485728698783, 9657836.805016530677676 ], [ 174826.938486686442047, 9657790.759559342637658 ], [ 174846.672151867940556, 9657744.714221645146608 ], [ 174872.983944403968053, 9657681.754092084243894 ], [ 174879.561832761362894, 9657659.201195523142815 ], [ 174888.019049458263908, 9657629.130746619775891 ], [ 174887.455509994266322, 9657629.694314736872911 ], [ 174893.657273566059303, 9657602.818954339250922 ], [ 174896.476505059370538, 9657583.08528939448297 ], [ 174896.16326596858562, 9657583.398528479039669 ], [ 174899.295497482031351, 9657550.195847814902663 ], [ 174899.295497376908315, 9657535.16050379909575 ], [ 174900.235161507269368, 9657522.944391384720802 ], [ 174875.950425614049891, 9657516.873207591474056 ], [ 174876.475544988468755, 9657512.607607325538993 ], [ 174900.234922457369976, 9657512.607607325538993 ], [ 174901.174825611378765, 9657506.969383200630546 ], [ 174901.174825532536488, 9657495.692935029044747 ], [ 174902.114489520346979, 9657462.803254391998053 ], [ 174901.508263988478575, 9657463.409479910507798 ], [ 174904.357572169566993, 9657416.39407928660512 ], [ 174904.933481845044298, 9657415.818133009597659 ], [ 174906.238573662907584, 9657370.50367777608335 ], [ 174907.752474010601873, 9657346.280115142464638 ], [ 174908.69237718815566, 9657341.581794111058116 ], [ 174910.571705448324792, 9657319.028897691518068 ], [ 174907.75247379267239, 9657315.270001946017146 ], [ 174858.888022688013734, 9657308.692113632336259 ], [ 174838.000892706244485, 9657306.603471517562866 ], [ 174762.098784483299823, 9657296.476001190021634 ], [ 174761.586212719645118, 9657297.159473640844226 ], [ 174694.440093044220703, 9657288.018784489482641 ], [ 174693.927543000521837, 9657288.702184531837702 ], [ 174621.143416278675431, 9657278.621664622798562 ], [ 174586.972160323522985, 9657275.204712934792042 ], [ 174587.314074650814291, 9657274.862769428640604 ], [ 174553.484724873938831, 9657270.164447927847505 ], [ 174551.60539642101503, 9657270.164447927847505 ], [ 174505.559937792655546, 9657248.551215622574091 ], [ 174505.311200253257994, 9657248.7999531570822 ], [ 174474.79835477823508, 9657234.206824261695147 ], [ 174475.489248855621554, 9657233.515871629118919 ], [ 174448.776503963774303, 9657221.901596548035741 ], [ 174449.177694836864248, 9657221.299759220331907 ], [ 174402.192571891966509, 9657198.746862675994635 ], [ 174401.943848612252623, 9657198.995607029646635 ], [ 174350.509127956494922, 9657174.314637804403901 ], [ 174350.260218220064417, 9657174.563568633049726 ], [ 174298.825206094741588, 9657149.882412945851684 ], [ 174298.576482823234983, 9657150.131157301366329 ], [ 174272.513651995162945, 9657137.666300494223833 ], [ 174272.200448298273841, 9657137.979530736804008 ], [ 174247.141762126120739, 9657125.450188048183918 ], [ 174246.893024586548563, 9657125.698925582692027 ], [ 174220.830208033788949, 9657113.234075618907809 ], [ 174220.516780853417004, 9657113.547502793371677 ], [ 174181.394111489120405, 9657093.985546890646219 ], [ 174181.06927863965393, 9657094.504030954092741 ], [ 174164.15870990374242, 9657086.416538612917066 ], [ 174164.447965015540831, 9657085.982619173824787 ], [ 174138.250165784702403, 9657074.592486137524247 ], [ 174139.076075172692072, 9657073.766506746411324 ], [ 174117.462842202949105, 9657063.42972269654274 ], [ 174117.214118932461133, 9657063.67846705019474 ], [ 174065.779398247657809, 9657038.997497810050845 ], [ 174065.530491803743644, 9657039.246383154764771 ], [ 174014.09547634673072, 9657014.565272931009531 ], [ 174013.846753067598911, 9657014.814017293974757 ], [ 173987.783922238973901, 9657002.34916047938168 ], [ 173987.470700832636794, 9657002.662381879985332 ], [ 173971.809152539208299, 9656994.831607973203063 ], [ 173942.208271010051249, 9656965.231015669181943 ], [ 173942.678127720224438, 9656964.761158969253302 ], [ 173923.414418388449121, 9656945.497162133455276 ], [ 173923.884365297883051, 9656945.027255062013865 ], [ 173907.909117555624107, 9656929.052485838532448 ], [ 173903.398791118088411, 9656935.81797537393868 ], [ 173887.235548797907541, 9656919.655365979298949 ], [ 173888.175212903181091, 9656918.715701892971992 ], [ 173887.235393323964672, 9656917.775822645053267 ], [ 173892.874012021959061, 9656914.017380833625793 ], [ 173885.825947834731778, 9656906.969764966517687 ], [ 173886.295884490653407, 9656906.499828319996595 ], [ 173867.496863111678977, 9656887.700526373460889 ], [ 173851.522095657652244, 9656870.786095442250371 ], [ 173829.443784550850978, 9656848.708115397021174 ], [ 173829.913641261548037, 9656848.238258695229888 ], [ 173791.855657552048797, 9656810.180374730378389 ], [ 173792.325594658730552, 9656809.710397792980075 ], [ 173759.435956717206864, 9656776.820912437513471 ], [ 173755.651091875508428, 9656782.497728308662772 ], [ 173754.737635660130763, 9656781.518994433805346 ], [ 173751.918540636979742, 9656785.27826570905745 ], [ 173736.412968557240674, 9656769.772694170475006 ], [ 173742.52247892646119, 9656763.663701765239239 ], [ 173745.340037438756553, 9656761.785329468548298 ], [ 173735.473284295323538, 9656751.918218184262514 ], [ 173735.94291725079529, 9656751.448545422405005 ], [ 173719.968147466017399, 9656735.473537217825651 ], [ 173719.398655903904, 9656736.043077042326331 ], [ 173682.380144672060851, 9656696.94587155431509 ], [ 173681.716999484488042, 9656697.609016738831997 ], [ 173663.585904260340612, 9656677.21196761354804 ], [ 173663.016412699536886, 9656677.781507445499301 ], [ 173625.997901415714296, 9656638.684301901608706 ], [ 173625.385083251341712, 9656639.297120053321123 ], [ 173611.902460101118777, 9656624.588861078023911 ], [ 173601.565936529339524, 9656634.925384433940053 ], [ 173596.867832654534141, 9656629.287421012297273 ], [ 173596.397821321152151, 9656629.757432334125042 ], [ 173586.530570284114219, 9656619.89054011926055 ], [ 173594.518319483409869, 9656611.902791088446975 ], [ 173594.9880261629296, 9656612.372509652748704 ], [ 173596.867832521995297, 9656609.553517090156674 ] ] ] } }
]
}
