{
"type": "FeatureCollection",
"name": "p15_auxiliares_verde_sem_id_21s",
"crs": { "type": "name", "properties": { "name": "urn:ogc:def:crs:EPSG::31981" } },
"features": [
{ "type": "Feature", "properties": { "id": 1, "pagina": 15, "classe": "Mancha verde sem classe identificada na legenda", "rotulo": "Mancha verde sem classe identificada na legenda", "seq_pdf": "4,6,8,10,12,14,16,18,20,22,24,26,28,30,32,34,36,38,40,42,44", "metodo": "PREENCH_PDF", "situacao": "DERIV_PDF", "recortado": 1, "area_m2": 730990.304, "area_ha": 73.09903, "id_layer": "p15_auxiliares_verde_sem_id", "doc_fonte": "Resposta SECT_autos.pdf", "doc_pagina": 15, "doc_folha": 108, "doc_escala": "1:15.000", "doc_metodo": "Reconstituição Vetorial Afim", "doc_rms_m": 0.68 }, "geometry": { "type": "MultiPolygon", "coordinates": [ [ [ [ 178519.029038579406915, 9659537.666405633091927 ], [ 178519.029037967586191, 9659450.161328675225377 ], [ 178488.958597767312312, 9659462.490204259753227 ], [ 178462.647043486882467, 9659422.08300106972456 ], [ 178394.988352100248449, 9659422.08300106972456 ], [ 178328.269325009692693, 9659433.359419446438551 ], [ 178156.30408215089119, 9659476.5857645701617 ], [ 178135.943779484776314, 9659537.666405633091927 ], [ 178519.029038579406915, 9659537.666405633091927 ] ] ], [ [ [ 172800.939605138235493, 9659281.525086926296353 ], [ 172800.9396069291397, 9659537.666405638679862 ], [ 173159.937576128402725, 9659537.666405638679862 ], [ 173206.335385056794621, 9659537.666405638679862 ], [ 173632.696400491462555, 9659537.666405636817217 ], [ 173625.058734439342516, 9659396.711022384464741 ], [ 173618.480606159602758, 9659282.067331001162529 ], [ 173623.178927068482153, 9659256.695382187142968 ], [ 173680.500833897705888, 9659226.624933181330562 ], [ 173082.798282359872246, 9658584.961037272587419 ], [ 173069.694233030895703, 9658387.470576947554946 ], [ 172800.939598270546412, 9658299.276135453954339 ], [ 172800.939598270546412, 9658299.276173340156674 ], [ 172800.939600409008563, 9658605.127100650221109 ], [ 172800.939600409881677, 9658605.254099877551198 ], [ 172841.346748841344379, 9658644.00941614434123 ], [ 173016.131461698241765, 9658513.39083606749773 ], [ 172841.346748841344379, 9658644.009535634890199 ], [ 172800.939600409881677, 9658605.254203209653497 ], [ 172800.939603994134814, 9659117.890406860038638 ], [ 172800.939603994134814, 9659117.8904666043818 ], [ 172800.939603994134814, 9659117.890883212909102 ], [ 172800.939605138235493, 9659281.52453576028347 ], [ 172800.939605138235493, 9659281.524711467325687 ], [ 172800.939605138235493, 9659281.525086926296353 ] ] ] ] } }
]
}
