{
"type": "FeatureCollection",
"name": "p15_camadas_terras_dest",
"crs": { "type": "name", "properties": { "name": "urn:ogc:def:crs:OGC:1.3:CRS84" } },
"features": [
{ "type": "Feature", "properties": { "id": 1, "pagina": 15, "classe": "Terras Destacadas do Patrimonio Publico Estadual", "rotulo": "Terras Destacadas do Patrimonio Publico Estadual", "seq_pdf": "2160", "metodo": "CONTORNO_PDF", "situacao": "DERIV_PDF", "recortado": 1, "area_m2": 496563.694, "area_ha": 49.656369, "id_layer": "p15_camadas_terras_dest", "doc_fonte": "Resposta SECT_autos.pdf", "doc_pagina": 15, "doc_folha": 108, "doc_escala": "1:15.000", "doc_metodo": "Reconstituição Vetorial Afim", "doc_rms_m": 0.68 }, "geometry": { "type": "Polygon", "coordinates": [ [ [ -59.897972956646178, -3.094532392187817 ], [ -59.894949591076141, -3.095387931058835 ], [ -59.894946605765718, -3.095387939253678 ], [ -59.893594925876158, -3.095289760430988 ], [ -59.893591429963898, -3.095289770022659 ], [ -59.892161884420972, -3.094710800889993 ], [ -59.89208494854234, -3.095836753669551 ], [ -59.892868866465768, -3.096782266400026 ], [ -59.892873478758908, -3.096796050370589 ], [ -59.892685573752011, -3.09927199470326 ], [ -59.894457366778305, -3.101885400532153 ], [ -59.894464652983096, -3.101892684981769 ], [ -59.895462699762291, -3.103758309748891 ], [ -59.895574123229352, -3.103781050495406 ], [ -59.897563507710963, -3.103775571709645 ], [ -59.898029580487155, -3.103321715888853 ], [ -59.898087684799471, -3.102561035206083 ], [ -59.897972956646178, -3.094532392187817 ] ] ] } },
{ "type": "Feature", "properties": { "id": 2, "pagina": 15, "classe": "Terras Destacadas do Patrimonio Publico Estadual", "rotulo": "Terras Destacadas do Patrimonio Publico Estadual", "seq_pdf": "2161", "metodo": "CONTORNO_PDF", "situacao": "DERIV_PDF", "recortado": 1, "area_m2": 404324.694, "area_ha": 40.432469, "id_layer": "p15_camadas_terras_dest", "doc_fonte": "Resposta SECT_autos.pdf", "doc_pagina": 15, "doc_folha": 108, "doc_escala": "1:15.000", "doc_metodo": "Reconstituição Vetorial Afim", "doc_rms_m": 0.68 }, "geometry": { "type": "Polygon", "coordinates": [ [ [ -59.938040626896978, -3.098461458881443 ], [ -59.938039768365186, -3.103544418339936 ], [ -59.94292514797668, -3.103530760668971 ], [ -59.942951121043123, -3.112897053248052 ], [ -59.943474778977546, -3.11289696897487 ], [ -59.943434247977244, -3.098271027367339 ], [ -59.938040626896978, -3.098461458881443 ] ] ] } },
{ "type": "Feature", "properties": { "id": 3, "pagina": 15, "classe": "Terras Destacadas do Patrimonio Publico Estadual", "rotulo": "Terras Destacadas do Patrimonio Publico Estadual", "seq_pdf": "2162", "metodo": "CONTORNO_PDF", "situacao": "DERIV_PDF", "recortado": 1, "area_m2": 1911309.12, "area_ha": 191.130912, "id_layer": "p15_camadas_terras_dest", "doc_fonte": "Resposta SECT_autos.pdf", "doc_pagina": 15, "doc_folha": 108, "doc_escala": "1:15.000", "doc_metodo": "Reconstituição Vetorial Afim", "doc_rms_m": 0.68 }, "geometry": { "type": "Polygon", "coordinates": [ [ [ -59.904613142929826, -3.09623145353868 ], [ -59.904613508287852, -3.105921228920567 ], [ -59.915895563666183, -3.105889989648452 ], [ -59.915915301969065, -3.1130711037125 ], [ -59.919760122820762, -3.111666232747905 ], [ -59.919757496824438, -3.098372128209538 ], [ -59.904613142929826, -3.09623145353868 ] ] ] } }
]
}
