{
"type": "FeatureCollection",
"name": "p15_auxiliares_verde_sem_id",
"crs": { "type": "name", "properties": { "name": "urn:ogc:def:crs:OGC:1.3:CRS84" } },
"features": [
{ "type": "Feature", "properties": { "id": 1, "pagina": 15, "classe": "Mancha verde sem classe identificada na legenda", "rotulo": "Mancha verde sem classe identificada na legenda", "seq_pdf": "4,6,8,10,12,14,16,18,20,22,24,26,28,30,32,34,36,38,40,42,44", "metodo": "PREENCH_PDF", "situacao": "DERIV_PDF", "recortado": 1, "area_m2": 730990.304, "area_ha": 73.09903, "id_layer": "p15_auxiliares_verde_sem_id", "doc_fonte": "Resposta SECT_autos.pdf", "doc_pagina": 15, "doc_folha": 108, "doc_escala": "1:15.000", "doc_metodo": "Reconstituição Vetorial Afim", "doc_rms_m": 0.68 }, "geometry": { "type": "MultiPolygon", "coordinates": [ [ [ [ -59.891979802740266, -3.076298060800934 ], [ -59.891981935314362, -3.077088708781235 ], [ -59.892251910815226, -3.076976575005961 ], [ -59.892489386611494, -3.077341027451505 ], [ -59.89309750925522, -3.077339369053593 ], [ -59.893696910754507, -3.077235845959748 ], [ -59.895241493214925, -3.076841060123704 ], [ -59.895423002728656, -3.076288671156316 ], [ -59.891979802740266, -3.076298060800934 ] ] ], [ [ [ -59.943379684287713, -3.078470996073203 ], [ -59.943373329776236, -3.076156749858479 ], [ -59.940146767481551, -3.076165694738951 ], [ -59.939729757691538, -3.076166850084592 ], [ -59.935897743566535, -3.076177459198077 ], [ -59.935969876437177, -3.077450814857344 ], [ -59.936031836646656, -3.07848646801926 ], [ -59.935990237412639, -3.078715822954353 ], [ -59.935475786258088, -3.078988938999027 ], [ -59.940863711534917, -3.084771520623527 ], [ -59.940986396478628, -3.086555530432276 ], [ -59.943404097036954, -3.087345650341856 ], [ -59.943404097036009, -3.087345649999552 ], [ -59.943396487867211, -3.084582276155214 ], [ -59.943396484709055, -3.084581128712711 ], [ -59.943032351856246, -3.084231982992121 ], [ -59.941464676252551, -3.085416495647237 ], [ -59.943032351853269, -3.084231981912519 ], [ -59.94339648470649, -3.084581127779102 ], [ -59.943383746351152, -3.079949441353289 ], [ -59.943383746349667, -3.079949440813497 ], [ -59.943383746339322, -3.079949437049424 ], [ -59.943379684301391, -3.078471001053008 ], [ -59.943379684297042, -3.078470999465488 ], [ -59.943379684287713, -3.078470996073203 ] ] ] ] } }
]
}
