{
"type": "FeatureCollection",
"name": "p15_aeis_quar",
"crs": { "type": "name", "properties": { "name": "urn:ogc:def:crs:OGC:1.3:CRS84" } },
"features": [
{ "type": "Feature", "properties": { "id": 1, "pagina": 15, "classe": "AEIS Igarape do quarenta", "rotulo": "AEIS Igarape do quarenta", "seq_pdf": "1426", "metodo": "CONTORNO_PDF", "situacao": "DERIV_PDF", "recortado": 1, "area_m2": 848685.083, "area_ha": 84.868508, "documento": "Resposta SECT_autos.pdf", "origem": "AEIS Igarapé do Quarenta" }, "geometry": { "type": "Polygon", "coordinates": [ [ [ -59.942826035608974, -3.095391489910527 ], [ -59.943426986078968, -3.095643176552433 ], [ -59.943416067245572, -3.091687772233942 ], [ -59.942775217447547, -3.09139213936189 ], [ -59.939401112419311, -3.092666312836667 ], [ -59.939380037495958, -3.092655792380345 ], [ -59.938436209758201, -3.091001768053705 ], [ -59.930283163478663, -3.093125917324924 ], [ -59.930260645971025, -3.093114677470858 ], [ -59.929367903751945, -3.091366279869586 ], [ -59.92651392905065, -3.092098486594232 ], [ -59.927105099643349, -3.094670089724913 ], [ -59.927481468298687, -3.094727873605134 ], [ -59.92748966807109, -3.094731966614964 ], [ -59.928215021821607, -3.095212357772923 ], [ -59.929814206716998, -3.096277674330185 ], [ -59.930587398509665, -3.096792742328726 ], [ -59.931139914355747, -3.096782389869057 ], [ -59.933088910077231, -3.096165770680984 ], [ -59.933105399022772, -3.09616572480891 ], [ -59.934332361033611, -3.096769622881461 ], [ -59.936918106562793, -3.095656827246833 ], [ -59.936944382970836, -3.095664295526838 ], [ -59.937328163501213, -3.096337241334604 ], [ -59.940016212551051, -3.096708250714747 ], [ -59.94281121669195, -3.095391531263182 ], [ -59.942826035608974, -3.095391489910527 ] ] ] } },
{ "type": "Feature", "properties": { "id": 2, "pagina": 15, "classe": "AEIS Igarape do quarenta", "rotulo": "AEIS Igarape do quarenta", "seq_pdf": "1427", "metodo": "CONTORNO_PDF", "situacao": "DERIV_PDF", "recortado": 1, "area_m2": 468810.825, "area_ha": 46.881082, "documento": "Resposta SECT_autos.pdf", "origem": "AEIS Igarapé do Quarenta" }, "geometry": { "type": "Polygon", "coordinates": [ [ [ -59.942036988591617, -3.086521639985786 ], [ -59.943398825297812, -3.085431410725345 ], [ -59.943391730063667, -3.082853149912108 ], [ -59.943381542936393, -3.082854641774116 ], [ -59.943228045254294, -3.082906552217394 ], [ -59.943146251799043, -3.082925063065758 ], [ -59.943084445431296, -3.082966734102297 ], [ -59.942977039427468, -3.083084353474281 ], [ -59.94293433184761, -3.08315346596823 ], [ -59.942808278179449, -3.083308212416409 ], [ -59.94280829340277, -3.083313746852804 ], [ -59.94259142848334, -3.0835248399575 ], [ -59.942543512304731, -3.083592673869787 ], [ -59.942506960972587, -3.083694587312572 ], [ -59.942488624996336, -3.08377863496276 ], [ -59.942488638232675, -3.08378344682085 ], [ -59.94246157104979, -3.083852023665488 ], [ -59.942453148938355, -3.083860537048926 ], [ -59.942433030898329, -3.08391150769285 ], [ -59.942427286554583, -3.083926061069566 ], [ -59.942423732511998, -3.083926070949321 ], [ -59.942379439805897, -3.084000751688163 ], [ -59.942379446394227, -3.084003146687528 ], [ -59.942358656425313, -3.084024160624454 ], [ -59.942354067600277, -3.084028801537261 ], [ -59.942318018369221, -3.084050680110122 ], [ -59.942310109932322, -3.084054682653935 ], [ -59.94222752204616, -3.084062461336967 ], [ -59.942222463378201, -3.084062475399034 ], [ -59.942076807731659, -3.084053730994504 ], [ -59.941995151388845, -3.084095056801767 ], [ -59.941955753986285, -3.084124933059351 ], [ -59.941908341146267, -3.084172857247918 ], [ -59.941847012984219, -3.084265893814226 ], [ -59.941821869687942, -3.084274396737531 ], [ -59.941796927403047, -3.084269454604986 ], [ -59.941788878261256, -3.084265436785842 ], [ -59.941756388643306, -3.084241084238219 ], [ -59.941673230538278, -3.084191238543332 ], [ -59.941607223845011, -3.084133503491491 ], [ -59.94153292964792, -3.084077809241917 ], [ -59.94144297614848, -3.084045208952571 ], [ -59.94143862827795, -3.084040864512904 ], [ -59.941323558093728, -3.083961251230485 ], [ -59.941239485682111, -3.083914604082927 ], [ -59.941142553186864, -3.083895395286604 ], [ -59.941004359841152, -3.083904463088545 ], [ -59.940861465102927, -3.083896412122312 ], [ -59.940308237377451, -3.083914803700437 ], [ -59.940292249326539, -3.083910832300468 ], [ -59.940051351212787, -3.083670003072944 ], [ -59.940051335040948, -3.083664118961731 ], [ -59.939447601609793, -3.082922674686331 ], [ -59.938844686049052, -3.082241333644717 ], [ -59.936406227883523, -3.082848474913682 ], [ -59.931460877865057, -3.083761075572866 ], [ -59.931946549869288, -3.087001517172421 ], [ -59.939003488677052, -3.086460447873512 ], [ -59.940697560114565, -3.085726232910047 ], [ -59.940718431926072, -3.085726174889469 ], [ -59.942036988591617, -3.086521639985786 ] ] ] } }
]
}
