{
"type": "FeatureCollection",
"name": "p15_aeis_lula_21s",
"crs": { "type": "name", "properties": { "name": "urn:ogc:def:crs:EPSG::31981" } },
"features": [
{ "type": "Feature", "properties": { "id": 1, "pagina": 15, "classe": "AEIS Conjunto Habitacional Presidente Lula", "rotulo": "AEIS Conjunto Habitacional Presidente Lula", "seq_pdf": "62", "metodo": "CONTORNO_PDF", "situacao": "DERIV_PDF", "recortado": 1, "area_m2": 280015.96, "area_ha": 28.001596, "documento": "Resposta SECT_autos.pdf", "origem": "AEIS Conjunto Habitacional Presidente Lula" }, "geometry": { "type": "Polygon", "coordinates": [ [ [ 174790.380290964298183, 9658015.645988224074244 ], [ 174790.891791679110611, 9658015.645988224074244 ], [ 174839.553726718149846, 9658042.272357827052474 ], [ 174864.057165782724041, 9658055.99434807524085 ], [ 174886.026005078456365, 9658056.9928854778409 ], [ 174905.773275998915778, 9658056.9928854778409 ], [ 174929.265837351616938, 9658057.932549668475986 ], [ 174951.757613813620992, 9658057.932549668475986 ], [ 174980.76973492387333, 9658059.804341590031981 ], [ 175000.596735103754327, 9658060.748450128361583 ], [ 175035.353259153460385, 9658061.687896324321628 ], [ 175053.108945286192466, 9658062.622368568554521 ], [ 175095.657967989478493, 9658065.458978017792106 ], [ 175114.579689445818076, 9658064.463137958198786 ], [ 175130.582477215386461, 9658058.462124491110444 ], [ 175131.352503686066484, 9658058.077062305063009 ], [ 175161.170648134342628, 9658061.691445410251617 ], [ 175162.26951791162719, 9658061.691445410251617 ], [ 175172.192437227902701, 9658066.201769292354584 ], [ 175199.026706145319622, 9658070.993672523647547 ], [ 175228.426820219203364, 9658077.424925381317735 ], [ 175236.577306652296102, 9658052.973926862701774 ], [ 175237.182908759190468, 9658051.762645656242967 ], [ 175260.729606739769224, 9658018.797293037176132 ], [ 175270.218515703891171, 9657997.921379864215851 ], [ 175289.569290216051741, 9657965.025383593514562 ], [ 175289.569290212617489, 9657964.534027138724923 ], [ 175297.663259526307229, 9657954.821099478751421 ], [ 175298.392217220680322, 9657954.092049103230238 ], [ 175314.718512356193969, 9657938.672847582027316 ], [ 175315.447757631423883, 9657938.308271313086152 ], [ 175349.276989023666829, 9657929.850903943181038 ], [ 175369.286639522702899, 9657919.846078937873244 ], [ 175373.659881620871602, 9657915.472836932167411 ], [ 175393.835480858484516, 9657894.336408048868179 ], [ 175410.73215533272014, 9657865.512825822457671 ], [ 175411.722678685851861, 9657842.729903977364302 ], [ 175413.627360555867199, 9657816.06665656529367 ], [ 175409.801558971492341, 9657776.85310635343194 ], [ 175404.00456633255817, 9657748.834269378334284 ], [ 175394.023207014979562, 9657725.877296261489391 ], [ 175393.544898252002895, 9657725.398987514898181 ], [ 175388.237854788836557, 9657693.556728962808847 ], [ 175388.237854787323158, 9657693.341582855209708 ], [ 175391.745552416250575, 9657665.280670063570142 ], [ 175392.153464445844293, 9657664.872758043929935 ], [ 175397.791688636061735, 9657651.71698141284287 ], [ 175398.603127050271723, 9657650.905543014407158 ], [ 175407.793106842436828, 9657645.057509401813149 ], [ 175409.798493192647584, 9657644.556067205965519 ], [ 175465.05522650538478, 9657652.844694066792727 ], [ 175492.470813349209493, 9657658.556383430957794 ], [ 175498.183108342404012, 9657627.710106382146478 ], [ 175498.183108338504098, 9657627.151990024372935 ], [ 175509.27985577043728, 9657595.095277348533273 ], [ 175440.479745406075381, 9657610.145190028473735 ], [ 175435.708568731672131, 9657611.099376803264022 ], [ 175424.425056378444424, 9657613.920434167608619 ], [ 175364.283959013293497, 9657626.136538235470653 ], [ 175335.195302825944964, 9657633.408644298091531 ], [ 175332.834975716046756, 9657632.936602899804711 ], [ 175300.776216439437121, 9657606.373432159423828 ], [ 175231.966353057854576, 9657557.358319977298379 ], [ 175141.660405317816185, 9657497.15435678139329 ], [ 175051.027005239389837, 9657438.620367830619216 ], [ 174952.519504952360876, 9657398.413257397711277 ], [ 174919.671221799653722, 9657644.774158583953977 ], [ 174919.671221801749198, 9657645.076633688062429 ], [ 174869.320355480886064, 9657770.021884098649025 ], [ 174797.984126020717667, 9657931.466574454680085 ], [ 174797.097626865870552, 9657933.239572739228606 ], [ 174794.202848930435721, 9657939.029373930767179 ], [ 174765.782102261582622, 9658007.036528604105115 ], [ 174790.380290964298183, 9658015.645988224074244 ] ] ] } }
]
}
