{
"type": "FeatureCollection",
"name": "p15_camadas_aeis_quar_21s",
"crs": { "type": "name", "properties": { "name": "urn:ogc:def:crs:EPSG::31981" } },
"features": [
{ "type": "Feature", "properties": { "id": 1, "pagina": 15, "classe": "AEIS Igarape do quarenta", "rotulo": "AEIS Igarape do quarenta", "seq_pdf": "1426", "metodo": "CONTORNO_PDF", "situacao": "DERIV_PDF", "recortado": 1, "area_m2": 848685.083, "area_ha": 84.868508, "id_layer": "p15_camadas_aeis_quar", "doc_fonte": "Resposta SECT_autos.pdf", "doc_pagina": 15, "doc_folha": 108, "doc_escala": "1:15.000", "doc_metodo": "Reconstituição Vetorial Afim", "doc_rms_m": 0.68 }, "geometry": { "type": "Polygon", "coordinates": [ [ [ 172867.724342165834969, 9657408.945852372795343 ], [ 172800.939591849484714, 9657380.903693627566099 ], [ 172800.939594910392771, 9657818.68893207795918 ], [ 172872.150445769133512, 9657851.607099760323763 ], [ 173247.946653274091659, 9657711.62297778762877 ], [ 173250.288233955070609, 9657712.793867344036698 ], [ 173354.792088415386388, 9657896.15036141872406 ], [ 174262.550502755941125, 9657663.560805346816778 ], [ 174265.052354187122546, 9657664.811731023713946 ], [ 174363.844230310322018, 9657858.595230164006352 ], [ 174681.599443641782273, 9657778.432092059403658 ], [ 174616.611572838533903, 9657493.631306910887361 ], [ 174574.754799952817848, 9657487.120311362668872 ], [ 174573.843751423119102, 9657486.664787111803889 ], [ 174493.288366603112081, 9657433.273257412016392 ], [ 174315.690240120748058, 9657314.874510288238525 ], [ 174229.82318847370334, 9657257.629891935735941 ], [ 174168.347542239906034, 9657258.605656426399946 ], [ 173951.314684911136283, 9657326.252057865262032 ], [ 173949.480119049170753, 9657326.252057865262032 ], [ 173813.153934073256096, 9657259.035640323534608 ], [ 173525.123397419287357, 9657381.401493640616536 ], [ 173522.202176155900816, 9657380.566813535988331 ], [ 173479.709181759390049, 9657305.967651939019561 ], [ 173180.750668855354888, 9657264.075379000976682 ], [ 172869.373115721100476, 9657408.945852372795343 ], [ 172867.724342165834969, 9657408.945852372795343 ] ] ] } },
{ "type": "Feature", "properties": { "id": 2, "pagina": 15, "classe": "AEIS Igarape do quarenta", "rotulo": "AEIS Igarape do quarenta", "seq_pdf": "1427", "metodo": "CONTORNO_PDF", "situacao": "DERIV_PDF", "recortado": 1, "area_m2": 468810.825, "area_ha": 46.881082, "id_layer": "p15_camadas_aeis_quar", "doc_fonte": "Resposta SECT_autos.pdf", "doc_pagina": 15, "doc_folha": 108, "doc_escala": "1:15.000", "doc_metodo": "Reconstituição Vetorial Afim", "doc_rms_m": 0.68 }, "geometry": { "type": "Polygon", "coordinates": [ [ [ 172952.793562386272242, 9658390.898134116083384 ], [ 172800.939599751902279, 9658511.144670106470585 ], [ 172800.939601747086272, 9658796.5072284899652 ], [ 172802.073497664474417, 9658796.345244344323874 ], [ 172819.167829789948883, 9658790.647053275257349 ], [ 172828.273989467386855, 9658788.623447995632887 ], [ 172835.163435146241682, 9658784.030338304117322 ], [ 172847.149623277247883, 9658771.045343762263656 ], [ 172851.922498581669061, 9658763.409156072884798 ], [ 172865.994818734645378, 9658746.320699984207749 ], [ 172865.994818730367115, 9658745.708147499710321 ], [ 172890.188201189914253, 9658722.411221845075488 ], [ 172895.540199665498221, 9658714.918151888996363 ], [ 172899.638154963759007, 9658703.649686731398106 ], [ 172901.703970456524985, 9658694.352991595864296 ], [ 172901.703970452799695, 9658693.820414366200566 ], [ 172904.736500396364136, 9658686.238703966140747 ], [ 172905.67616460705176, 9658685.299039773643017 ], [ 172907.930132379464339, 9658679.663833783939481 ], [ 172908.573712140467251, 9658678.054843479767442 ], [ 172908.969144021510147, 9658678.054843479767442 ], [ 172913.920083066564985, 9658669.802858825773001 ], [ 172913.920083064731443, 9658669.537779934704304 ], [ 172916.23964189880644, 9658667.218368610367179 ], [ 172916.751622763025807, 9658666.706127490848303 ], [ 172920.769217374559958, 9658664.295713813975453 ], [ 172921.650348430383019, 9658663.855148296803236 ], [ 172930.841596196842147, 9658663.019618976861238 ], [ 172931.404436375887599, 9658663.019618976861238 ], [ 172947.607650495250709, 9658664.032255446538329 ], [ 172956.705517628637608, 9658659.483466593548656 ], [ 172961.098080641328124, 9658656.188904767856002 ], [ 172966.38797727128258, 9658650.899277290329337 ], [ 172973.239920650114072, 9658640.62092674896121 ], [ 172976.040006600116612, 9658639.687564790248871 ], [ 172978.813612985308282, 9658640.242229625582695 ], [ 172979.707943896151846, 9658640.689395066350698 ], [ 172983.315338584710844, 9658643.394711660221219 ], [ 172992.552389499353012, 9658648.937176952138543 ], [ 172999.878733103338163, 9658655.347552716732025 ], [ 173008.127782835828839, 9658661.534602051600814 ], [ 173018.126178347039968, 9658665.17044516839087 ], [ 173018.608600102801574, 9658665.652621649205685 ], [ 173031.387134119140683, 9658674.499548746272922 ], [ 173040.726893270562869, 9658679.688274342566729 ], [ 173051.505880151875317, 9658681.844099067151546 ], [ 173066.884263870073482, 9658680.882980665192008 ], [ 173082.780493086553179, 9658681.817996993660927 ], [ 173144.339080871577607, 9658679.952538574114442 ], [ 173146.116720776626607, 9658680.397005047649145 ], [ 173172.845757165749092, 9658707.125821229070425 ], [ 173172.845757170318393, 9658707.777074173092842 ], [ 173239.791375036729733, 9658790.024961488321424 ], [ 173306.664469641662436, 9658865.620306773111224 ], [ 173578.156114847282879, 9658799.171306556090713 ], [ 174128.658794821210904, 9658699.682903556153178 ], [ 174075.611305001017172, 9658340.887554455548525 ], [ 173290.285828494117595, 9658398.604316415265203 ], [ 173101.576686343149049, 9658479.345408733934164 ], [ 173099.254442648612894, 9658479.345408733934164 ], [ 172952.793562386272242, 9658390.898134116083384 ] ] ] } }
]
}
