{
"type": "FeatureCollection",
"name": "p15_sobreposicoes_intersecoes",
"crs": { "type": "name", "properties": { "name": "urn:ogc:def:crs:OGC:1.3:CRS84" } },
"features": [
{ "type": "Feature", "properties": { "id": 1, "pagina": 15, "camada_a": "titulo_cosme", "camada_b": "terras_dest", "situacao": "INTERSECAO", "area_m2": 180623.636, "area_ha": 18.062364, "perc_a": 2.4717, "perc_b": 6.4229, "nucleo_m2": 164833.823, "faixa_m": 5, "id_layer": "p15_sobreposicoes_intersecoes", "doc_fonte": "Resposta SECT_autos.pdf", "doc_pagina": 15, "doc_folha": 108, "doc_escala": "1:15.000", "doc_metodo": "Reconstituição Vetorial Afim", "doc_rms_m": 0.68 }, "geometry": { "type": "MultiPolygon", "coordinates": [ [ [ [ -59.898022354981002, -3.097989773830698 ], [ -59.898020109665637, -3.102483750976512 ], [ -59.898086448323433, -3.102474528725581 ], [ -59.898022354981002, -3.097989773830698 ] ] ], [ [ [ -59.904613142984978, -3.096233102347552 ], [ -59.904613388069833, -3.102965101295409 ], [ -59.904613586622737, -3.102965154733031 ], [ -59.90462076577429, -3.096239574704357 ], [ -59.904613142984978, -3.096233102347552 ] ] ], [ [ [ -59.910402577717228, -3.099692558910497 ], [ -59.912886937200064, -3.100919663339012 ], [ -59.915349459643807, -3.097923856804941 ], [ -59.915358015565992, -3.097915208502247 ], [ -59.915673387488454, -3.097794859121823 ], [ -59.908305333183883, -3.096753373177498 ], [ -59.910400003317896, -3.098487673721549 ], [ -59.910407897734927, -3.098503435972397 ], [ -59.910402577717228, -3.099692558910497 ] ] ], [ [ [ -59.919757496824438, -3.098372128209538 ], [ -59.916409657899464, -3.097898928757947 ], [ -59.917118851692948, -3.098417567890069 ], [ -59.91975750516621, -3.098415649700587 ], [ -59.919757496824438, -3.098372128209538 ] ] ] ] } },
{ "type": "Feature", "properties": { "id": 2, "pagina": 15, "camada_a": "titulo_cosme", "camada_b": "dom_part", "situacao": "INTERSECAO", "area_m2": 1365635.886, "area_ha": 136.563589, "perc_a": 18.6878, "perc_b": 51.9731, "nucleo_m2": 1301278.582, "faixa_m": 5, "id_layer": "p15_sobreposicoes_intersecoes", "doc_fonte": "Resposta SECT_autos.pdf", "doc_pagina": 15, "doc_folha": 108, "doc_escala": "1:15.000", "doc_metodo": "Reconstituição Vetorial Afim", "doc_rms_m": 0.68 }, "geometry": { "type": "MultiPolygon", "coordinates": [ [ [ [ -59.931169986212112, -3.099829888067664 ], [ -59.931167975150629, -3.099827878641141 ], [ -59.929882360275428, -3.099169207130088 ], [ -59.929879690979106, -3.099166538635874 ], [ -59.928855787267857, -3.097572295623596 ], [ -59.92412362015429, -3.096979274126331 ], [ -59.923542096925402, -3.097386373898704 ], [ -59.927264833648096, -3.103523206306471 ], [ -59.927478906471066, -3.103478592216705 ], [ -59.927808138226737, -3.103213446501515 ], [ -59.927824938164257, -3.103213399742782 ], [ -59.927960099866553, -3.103378308420142 ], [ -59.929397818212117, -3.103078677516874 ], [ -59.929401663870358, -3.103078666808041 ], [ -59.935459098700555, -3.103079742952776 ], [ -59.932234277505806, -3.099758984694414 ], [ -59.931169986212112, -3.099829888067664 ] ] ], [ [ [ -59.937966703206207, -3.099200398445054 ], [ -59.937510194653726, -3.098814274085265 ], [ -59.937562024792072, -3.100301395303187 ], [ -59.937511890200938, -3.098905765626409 ], [ -59.937224650287334, -3.098643960122256 ], [ -59.936812530596761, -3.098105954888962 ], [ -59.936338929964698, -3.097207443217687 ], [ -59.936258908841232, -3.098437456641882 ], [ -59.936335902796962, -3.101828251204127 ], [ -59.936528761637099, -3.103079929355211 ], [ -59.938036072926764, -3.10308019017367 ], [ -59.938038367255956, -3.099232110654406 ], [ -59.937970718437938, -3.099200387245212 ], [ -59.937966703206207, -3.099200398445054 ] ] ], [ [ [ -59.898024161267443, -3.100741223011855 ], [ -59.898020871169471, -3.100955632019982 ], [ -59.898020109665637, -3.102483750976512 ], [ -59.899224228683231, -3.102316356469073 ], [ -59.89922498621543, -3.102315725837419 ], [ -59.899942485586223, -3.102214292822879 ], [ -59.899939911497334, -3.102216862910463 ], [ -59.90118303359958, -3.10204404418234 ], [ -59.901191054265929, -3.102044022070375 ], [ -59.904176598149071, -3.102847545515901 ], [ -59.904176775975955, -3.10284580803229 ], [ -59.904613588304514, -3.102963574848729 ], [ -59.904616595417622, -3.100141923395884 ], [ -59.904615813750326, -3.096235370040632 ], [ -59.901331978848624, -3.093447112523963 ], [ -59.89997406167064, -3.094130005836849 ], [ -59.899963082710457, -3.094130036014841 ], [ -59.89802409358002, -3.094534086856028 ], [ -59.898022447762258, -3.097804832238584 ], [ -59.898024161267443, -3.100741223011855 ] ] ], [ [ [ -59.938039283948747, -3.097700760353323 ], [ -59.937397244965545, -3.098005596873342 ], [ -59.938039068181723, -3.098060889624456 ], [ -59.938039283948747, -3.097700760353323 ] ] ], [ [ [ -59.937703953230802, -3.095645960932088 ], [ -59.936792928160763, -3.095990503730321 ], [ -59.937256260796403, -3.097260377747186 ], [ -59.938039722979362, -3.096968582693732 ], [ -59.938040883639715, -3.095036746282364 ], [ -59.936641106214559, -3.09556613071663 ], [ -59.936777310109569, -3.095991079423725 ], [ -59.937703953230802, -3.095645960932088 ] ] ], [ [ [ -59.936625191646968, -3.095088878964898 ], [ -59.93696462938361, -3.09496071441297 ], [ -59.936487020858394, -3.095142276448151 ], [ -59.936634721904142, -3.095564151362264 ], [ -59.938040884154404, -3.095035890856509 ], [ -59.938041650159292, -3.093763945633925 ], [ -59.937847925124309, -3.093181159147595 ], [ -59.9361618121034, -3.093810029098847 ], [ -59.936625191646968, -3.095088878964898 ] ] ], [ [ [ -59.902723116449664, -3.093092854029472 ], [ -59.905498926124416, -3.095394736349466 ], [ -59.90566154522714, -3.09537891057703 ], [ -59.9030893508777, -3.093238951430839 ], [ -59.902723116449664, -3.093092854029472 ] ] ], [ [ [ -59.936591524283884, -3.091054337343928 ], [ -59.934966781369994, -3.091841413616166 ], [ -59.935757364105918, -3.092942246784324 ], [ -59.935755766357943, -3.092943024950043 ], [ -59.936019091152339, -3.093313402889081 ], [ -59.936830595431985, -3.093008070550552 ], [ -59.936034745357851, -3.093353565180882 ], [ -59.936191129080001, -3.093782185330855 ], [ -59.937031663506176, -3.093462660521449 ], [ -59.937030196550161, -3.093458735525799 ], [ -59.93782376794907, -3.093075279537034 ], [ -59.937646890340616, -3.092555062220594 ], [ -59.937660608385912, -3.092551574098763 ], [ -59.937371182184101, -3.092156253172983 ], [ -59.937073976506525, -3.09230100433043 ], [ -59.937374252116157, -3.092154637207468 ], [ -59.936591524283884, -3.091054337343928 ] ], [ [ -59.936866982115568, -3.093008843002682 ], [ -59.936956308465945, -3.093261040062814 ], [ -59.936861186675003, -3.093006531276073 ], [ -59.936866982115568, -3.093008843002682 ] ] ], [ [ [ -59.937871205158579, -3.092027203717768 ], [ -59.938042280199035, -3.092719554352922 ], [ -59.938043673368661, -3.09041583467105 ], [ -59.937098766480005, -3.090416243296462 ], [ -59.936965726639045, -3.090464172922025 ], [ -59.937871194322923, -3.09202326892588 ], [ -59.937871205158579, -3.092027203717768 ] ] ] ] } },
{ "type": "Feature", "properties": { "id": 3, "pagina": 15, "camada_a": "titulo_cosme", "camada_b": "aeis_lula", "situacao": "INTERSECAO", "area_m2": 247443.221, "area_ha": 24.744322, "perc_a": 3.3861, "perc_b": 88.3675, "nucleo_m2": 235740.049, "faixa_m": 5, "id_layer": "p15_sobreposicoes_intersecoes", "doc_fonte": "Resposta SECT_autos.pdf", "doc_pagina": 15, "doc_folha": 108, "doc_escala": "1:15.000", "doc_metodo": "Reconstituição Vetorial Afim", "doc_rms_m": 0.68 }, "geometry": { "type": "Polygon", "coordinates": [ [ [ -59.923902172074179, -3.092568577378569 ], [ -59.924698159803548, -3.090251517152343 ], [ -59.924719960709197, -3.089588888645404 ], [ -59.924669655413339, -3.089586729649653 ], [ -59.924492168102873, -3.08958722093929 ], [ -59.924280995052072, -3.089579315324318 ], [ -59.924078840215721, -3.089579874816137 ], [ -59.923818034517637, -3.089563684444541 ], [ -59.923639807115052, -3.089555647365585 ], [ -59.923327393981047, -3.08954802365345 ], [ -59.923167783616883, -3.089540022045281 ], [ -59.922785284809329, -3.089515450680787 ], [ -59.922615241841996, -3.089524918735973 ], [ -59.922471557880357, -3.089579536966819 ], [ -59.922464646437533, -3.089583035226001 ], [ -59.92219655278933, -3.08955111979726 ], [ -59.922186676191515, -3.089551147113258 ], [ -59.922097377855465, -3.089510642062653 ], [ -59.921856073997574, -3.089468013208085 ], [ -59.92159166785671, -3.08941063617583 ], [ -59.921519016063002, -3.08963175869396 ], [ -59.921513602878441, -3.089642717928071 ], [ -59.921302780919554, -3.089941152136951 ], [ -59.921218011015682, -3.090130006327568 ], [ -59.921044900099169, -3.090427709704699 ], [ -59.921044912248291, -3.090432149216431 ], [ -59.920972403992977, -3.090520108800021 ], [ -59.920965870163386, -3.090526714046864 ], [ -59.92081951100824, -3.090666435682952 ], [ -59.920812965580161, -3.090669747834766 ], [ -59.92050911815344, -3.090747002812615 ], [ -59.920329519068169, -3.090837895921596 ], [ -59.92029032054684, -3.090877517820894 ], [ -59.92010950505118, -3.091068991584662 ], [ -59.919958350497879, -3.091329839045828 ], [ -59.919950010974802, -3.091535712483408 ], [ -59.919933550980453, -3.091776668260196 ], [ -59.919968906974951, -3.092130876392301 ], [ -59.920021703293543, -3.092383888746657 ], [ -59.9201119835855, -3.092591061958267 ], [ -59.920116294456889, -3.092595371691399 ], [ -59.920164781847895, -3.092882941630746 ], [ -59.920164787170158, -3.092884885523757 ], [ -59.920133954155304, -3.093138509356802 ], [ -59.920130297930719, -3.093142205077465 ], [ -59.920079947000573, -3.09326121067752 ], [ -59.920072673860325, -3.093268562385311 ], [ -59.919990218918649, -3.093321629232265 ], [ -59.919972206892147, -3.093326209748437 ], [ -59.919475353696484, -3.093252694215724 ], [ -59.919228800746424, -3.093201769444223 ], [ -59.919178221479214, -3.093480614693238 ], [ -59.919178235283866, -3.093485657403265 ], [ -59.919079290429551, -3.093775573128955 ], [ -59.919697294740615, -3.093637882814702 ], [ -59.919740154539006, -3.093629142861981 ], [ -59.919841501108742, -3.093603373345366 ], [ -59.920381747669282, -3.093491502249232 ], [ -59.920643016752308, -3.093425073580742 ], [ -59.920664243065971, -3.093429279861739 ], [ -59.920953044756324, -3.093668486307406 ], [ -59.921572721475926, -3.094109635971667 ], [ -59.922385882528928, -3.094651343099165 ], [ -59.923201945834357, -3.095177952100821 ], [ -59.924088327607521, -3.095538776606839 ], [ -59.924377461506772, -3.093312040759689 ], [ -59.924377454012344, -3.093309307840088 ], [ -59.924486193549093, -3.093035882404388 ], [ -59.923902172074179, -3.092568577378569 ] ] ] } },
{ "type": "Feature", "properties": { "id": 4, "pagina": 15, "camada_a": "titulo_cosme", "camada_b": "aeis_quar", "situacao": "INTERSECAO", "area_m2": 299774.738, "area_ha": 29.977474, "perc_a": 4.1022, "perc_b": 22.7534, "nucleo_m2": 287694.52, "faixa_m": 5, "id_layer": "p15_sobreposicoes_intersecoes", "doc_fonte": "Resposta SECT_autos.pdf", "doc_pagina": 15, "doc_folha": 108, "doc_escala": "1:15.000", "doc_metodo": "Reconstituição Vetorial Afim", "doc_rms_m": 0.68 }, "geometry": { "type": "Polygon", "coordinates": [ [ [ -59.938043256619096, -3.091104147137937 ], [ -59.9335368304722, -3.092278231645445 ], [ -59.931624365992427, -3.096629120367759 ], [ -59.933088910077231, -3.096165770680984 ], [ -59.933105399022772, -3.09616572480891 ], [ -59.934332361033611, -3.096769622881461 ], [ -59.936918106562793, -3.095656827246833 ], [ -59.936944382970836, -3.095664295526838 ], [ -59.937328163501213, -3.096337241334604 ], [ -59.938040042929522, -3.096435497000596 ], [ -59.938043256619096, -3.091104147137937 ] ] ] } },
{ "type": "Feature", "properties": { "id": 5, "pagina": 15, "camada_a": "titulo_cosme", "camada_b": "aeis_maua", "situacao": "INTERSECAO", "area_m2": 1289302.776, "area_ha": 128.930278, "perc_a": 17.6432, "perc_b": 50.688, "nucleo_m2": 1258810.365, "faixa_m": 5, "id_layer": "p15_sobreposicoes_intersecoes", "doc_fonte": "Resposta SECT_autos.pdf", "doc_pagina": 15, "doc_folha": 108, "doc_escala": "1:15.000", "doc_metodo": "Reconstituição Vetorial Afim", "doc_rms_m": 0.68 }, "geometry": { "type": "Polygon", "coordinates": [ [ [ -59.929401663870358, -3.103078666808041 ], [ -59.938036072926764, -3.10308019017367 ], [ -59.938036828197248, -3.101811001209148 ], [ -59.937906909759462, -3.101660623622513 ], [ -59.937216520310194, -3.101200728629031 ], [ -59.935177343439001, -3.099847995014454 ], [ -59.933865679519442, -3.098968581041774 ], [ -59.932562552064034, -3.098114628990844 ], [ -59.931330990781376, -3.097296554446962 ], [ -59.930944037353257, -3.098176880942688 ], [ -59.930919215170967, -3.098183192074995 ], [ -59.928734365664461, -3.096435024872991 ], [ -59.927342585550676, -3.09565346905215 ], [ -59.927335895643459, -3.095643444152877 ], [ -59.927241727117554, -3.095240708398604 ], [ -59.926450222066869, -3.094607392299688 ], [ -59.924309997596858, -3.094445931343734 ], [ -59.924268342815076, -3.095046762302848 ], [ -59.924235844116339, -3.095531461830872 ], [ -59.924220110443088, -3.095928921934026 ], [ -59.924154553410879, -3.09639094084537 ], [ -59.924103497335373, -3.096572471095909 ], [ -59.92410352515342, -3.096582605461414 ], [ -59.923818681510184, -3.09702707065643 ], [ -59.923816153443518, -3.097029625408572 ], [ -59.922817192396074, -3.097742634568114 ], [ -59.92209545533953, -3.09819252585878 ], [ -59.921876376150358, -3.098294911423741 ], [ -59.921791466174916, -3.098346443816661 ], [ -59.921779621420477, -3.098352438392013 ], [ -59.921586858436633, -3.098409536746832 ], [ -59.921158945771623, -3.098410723284574 ], [ -59.918878774395111, -3.097882549880933 ], [ -59.918558937125844, -3.097857371228838 ], [ -59.918308263680437, -3.097884141798393 ], [ -59.91776437399102, -3.09798821438581 ], [ -59.916875405301411, -3.09823953375159 ], [ -59.917118851692948, -3.098417567890069 ], [ -59.919757722619387, -3.098415649542239 ], [ -59.919763965067418, -3.103793064115249 ], [ -59.925970589073188, -3.103792933996586 ], [ -59.929397818212117, -3.103078677516874 ], [ -59.929401663870358, -3.103078666808041 ] ] ] } },
{ "type": "Feature", "properties": { "id": 6, "pagina": 15, "camada_a": "titulo_cosme", "camada_b": "rvs_sauim", "situacao": "INTERSECAO", "area_m2": 380322.405, "area_ha": 38.03224, "perc_a": 5.2045, "perc_b": 39.8449, "nucleo_m2": 360645.363, "faixa_m": 5, "id_layer": "p15_sobreposicoes_intersecoes", "doc_fonte": "Resposta SECT_autos.pdf", "doc_pagina": 15, "doc_folha": 108, "doc_escala": "1:15.000", "doc_metodo": "Reconstituição Vetorial Afim", "doc_rms_m": 0.68 }, "geometry": { "type": "MultiPolygon", "coordinates": [ [ [ [ -59.932188098084048, -3.098110180028896 ], [ -59.932196195592887, -3.098110157494587 ], [ -59.932877039474313, -3.09848329323823 ], [ -59.932877054058579, -3.098488587227061 ], [ -59.934804625349187, -3.100466491398155 ], [ -59.936560511942922, -3.102273696599747 ], [ -59.936346648593208, -3.100729174540038 ], [ -59.936346628888089, -3.100722035356418 ], [ -59.936390568353019, -3.098285805010156 ], [ -59.936456144137082, -3.097343321693712 ], [ -59.936085957549629, -3.097033519134206 ], [ -59.936081306048884, -3.097028871422599 ], [ -59.935962946684988, -3.096583443363935 ], [ -59.93544265950004, -3.094851820398969 ], [ -59.934727279153876, -3.093085187194669 ], [ -59.933988644108368, -3.092046578801162 ], [ -59.933982589703596, -3.092052698762754 ], [ -59.933737661071781, -3.091821339037458 ], [ -59.931191921957911, -3.097612938667008 ], [ -59.932188098084048, -3.098110180028896 ] ] ], [ [ [ -59.924823098271595, -3.093550021036563 ], [ -59.924649784364121, -3.095633013368418 ], [ -59.925519537093159, -3.095725794131571 ], [ -59.927671784848805, -3.096016668640623 ], [ -59.928741601360933, -3.096440814408914 ], [ -59.924896103610735, -3.093363871431724 ], [ -59.924823098271595, -3.093550021036563 ] ] ] ] } },
{ "type": "Feature", "properties": { "id": 7, "pagina": 15, "camada_a": "titulo_cosme", "camada_b": "uniao", "situacao": "INTERSECAO", "area_m2": 3845486.34, "area_ha": 384.548634, "perc_a": 52.6228, "perc_b": 58.7316, "nucleo_m2": 3754782.236, "faixa_m": 5, "id_layer": "p15_sobreposicoes_intersecoes", "doc_fonte": "Resposta SECT_autos.pdf", "doc_pagina": 15, "doc_folha": 108, "doc_escala": "1:15.000", "doc_metodo": "Reconstituição Vetorial Afim", "doc_rms_m": 0.68 }, "geometry": { "type": "MultiPolygon", "coordinates": [ [ [ [ -59.924724833794208, -3.093226830168578 ], [ -59.92466233802174, -3.09345259349828 ], [ -59.924667389133774, -3.093447487517267 ], [ -59.924612313846737, -3.093690465902291 ], [ -59.924587463711788, -3.093868833483684 ], [ -59.92459027133453, -3.093865995506218 ], [ -59.924562941809349, -3.094166065966938 ], [ -59.924563314475016, -3.094301913110178 ], [ -59.924555171590313, -3.094412311382782 ], [ -59.924773592839905, -3.094466560516047 ], [ -59.924768978819912, -3.094505114090209 ], [ -59.924555429963497, -3.094505706152972 ], [ -59.924547121891266, -3.09455667198283 ], [ -59.924547401421336, -3.094658556800325 ], [ -59.924539771081662, -3.09495574463079 ], [ -59.924545204799436, -3.094950252161731 ], [ -59.924520760908166, -3.095375116111635 ], [ -59.9245155989179, -3.095380334248484 ], [ -59.924504992393906, -3.095789791361018 ], [ -59.924491986178687, -3.096008693522471 ], [ -59.924483654849368, -3.096051167164213 ], [ -59.92446732277665, -3.096254983660208 ], [ -59.924492755252572, -3.096288875698564 ], [ -59.924932111942162, -3.096347089746072 ], [ -59.925119897167072, -3.096365440144741 ], [ -59.925802355949223, -3.096455050561105 ], [ -59.92580694597882, -3.096448862481064 ], [ -59.92641068127633, -3.096529775076561 ], [ -59.926415271106379, -3.096523587651702 ], [ -59.927069703798495, -3.096612850636883 ], [ -59.927376919170818, -3.09664287051227 ], [ -59.927373854542466, -3.096645968561803 ], [ -59.927678028624541, -3.096687574248663 ], [ -59.927694919983473, -3.096687527336044 ], [ -59.928109312173483, -3.096881656806895 ], [ -59.92811154164211, -3.096879403213675 ], [ -59.928386152768432, -3.09701049253298 ], [ -59.928379960194739, -3.097016752649719 ], [ -59.928620342135943, -3.097121022336597 ], [ -59.9286167511953, -3.097126470048527 ], [ -59.92903961248237, -3.097329065367014 ], [ -59.929041841818879, -3.097326811711568 ], [ -59.929504748877491, -3.097548522982083 ], [ -59.929506979883335, -3.097546267636674 ], [ -59.929969889608984, -3.097767980195606 ], [ -59.929972118941627, -3.097765726539191 ], [ -59.930206680677301, -3.097877696919729 ], [ -59.930209487953512, -3.097874859012439 ], [ -59.930435026085995, -3.097987437031895 ], [ -59.930437255545151, -3.097985183436275 ], [ -59.930671817173739, -3.098097153558342 ], [ -59.930674626451328, -3.098094313865557 ], [ -59.931026746079098, -3.098270080658259 ], [ -59.931029652768174, -3.098265387963411 ], [ -59.931181845484765, -3.098338036691342 ], [ -59.931179256464645, -3.09834196444393 ], [ -59.931415004611864, -3.098444220666831 ], [ -59.93140760191929, -3.098451704153122 ], [ -59.931602117969305, -3.098544557801199 ], [ -59.931604347295291, -3.098542304143116 ], [ -59.93206725459337, -3.098764013267408 ], [ -59.932069485560298, -3.098761758330395 ], [ -59.932532395553935, -3.098983468331866 ], [ -59.93253462487619, -3.098981214672746 ], [ -59.932769186731718, -3.099093183966415 ], [ -59.932771994154187, -3.099090346135249 ], [ -59.932912954393025, -3.099160706161595 ], [ -59.933179742782123, -3.09942741009606 ], [ -59.933175531431054, -3.099431667067009 ], [ -59.933349152493115, -3.099605237276119 ], [ -59.933344940333882, -3.099609494705129 ], [ -59.933488922987145, -3.099753428620117 ], [ -59.933529293095567, -3.099692188732739 ], [ -59.933674970137162, -3.099837815037573 ], [ -59.93366654788457, -3.099846328535928 ], [ -59.933675018350698, -3.099854796918073 ], [ -59.933624432318034, -3.099888896046252 ], [ -59.933687955548379, -3.099952395566231 ], [ -59.933683743484629, -3.09995665326355 ], [ -59.9338531765463, -3.100126036293638 ], [ -59.933997178433138, -3.100278459963538 ], [ -59.934196167402824, -3.100477383914893 ], [ -59.934191956059479, -3.100481640889943 ], [ -59.934534967945204, -3.100824544509829 ], [ -59.934530755884836, -3.100828802574587 ], [ -59.934827186289439, -3.101125138377376 ], [ -59.93486106297226, -3.101073752920792 ], [ -59.934869297473711, -3.10108257299088 ], [ -59.934894541659773, -3.101048536947936 ], [ -59.935034291580955, -3.101188242783333 ], [ -59.934979531877715, -3.101243591258441 ], [ -59.934954254615761, -3.101260633153881 ], [ -59.93504318255593, -3.101349536219328 ], [ -59.935038973225531, -3.101353791530248 ], [ -59.935182952059051, -3.101497726935739 ], [ -59.935188056422966, -3.101492566812459 ], [ -59.935521752145981, -3.101844885913953 ], [ -59.935527695926922, -3.101838877707598 ], [ -59.935691166147222, -3.102022712413298 ], [ -59.935696270506448, -3.102017552287473 ], [ -59.936029966575717, -3.102369870906746 ], [ -59.936035459269696, -3.102364318669064 ], [ -59.936157007464054, -3.102496870988395 ], [ -59.936249653776578, -3.102403220304432 ], [ -59.936292020795896, -3.102454041975835 ], [ -59.936296233509132, -3.102449783592189 ], [ -59.936385166117638, -3.102538684348302 ], [ -59.936313571900548, -3.102611054740214 ], [ -59.936309338476676, -3.102606822572712 ], [ -59.936292513201195, -3.102632339577005 ], [ -59.936368762939829, -3.102717031248666 ], [ -59.936374107541987, -3.102711628245185 ], [ -59.936614399250722, -3.102971054702815 ], [ -59.936673452815711, -3.102945419817806 ], [ -59.936595373941842, -3.10219848632564 ], [ -59.936592248610545, -3.102202699874317 ], [ -59.936556124334658, -3.101838005131073 ], [ -59.936560583147767, -3.101833497693022 ], [ -59.936534519448109, -3.101570369178474 ], [ -59.936530027592717, -3.101574909440616 ], [ -59.936517159317923, -3.101400610846031 ], [ -59.936516573317235, -3.101188353480621 ], [ -59.936526544899642, -3.10079972696127 ], [ -59.936327116905261, -3.100650238671254 ], [ -59.936355638777819, -3.10060355543983 ], [ -59.93652364045186, -3.100687401314034 ], [ -59.936523078023832, -3.100483636054742 ], [ -59.936538211934419, -3.09984681684298 ], [ -59.936537063978378, -3.099430792054765 ], [ -59.936544713157303, -3.099142097276581 ], [ -59.936543588886053, -3.098734564595604 ], [ -59.936560445249967, -3.098021254408633 ], [ -59.936430288510039, -3.097464722698722 ], [ -59.936430255729832, -3.097452834177156 ], [ -59.936396094409474, -3.097317084787122 ], [ -59.93637916571813, -3.097303547063516 ], [ -59.93637896908573, -3.097232228021492 ], [ -59.936371895574062, -3.097235808010898 ], [ -59.936250735789287, -3.09667222255935 ], [ -59.936244295989255, -3.096678732142084 ], [ -59.936173831722854, -3.096349803139019 ], [ -59.936102315918347, -3.096065573956912 ], [ -59.936105471280555, -3.096061319948651 ], [ -59.935924215369901, -3.096122617148335 ], [ -59.935899648088672, -3.096063459112954 ], [ -59.936088314103301, -3.095967973205652 ], [ -59.936042202432866, -3.095784708314989 ], [ -59.936045571355365, -3.095781303178756 ], [ -59.935973513827022, -3.095505069014673 ], [ -59.935977230223109, -3.095501312034315 ], [ -59.93592592074031, -3.095272215715491 ], [ -59.935921326815631, -3.095276859412419 ], [ -59.935846701135127, -3.094943628019286 ], [ -59.935848998162655, -3.094941306105898 ], [ -59.935797688836693, -3.094712207567477 ], [ -59.935792872878466, -3.094715859801604 ], [ -59.935718469431194, -3.094383619619716 ], [ -59.935720766495152, -3.094381297867993 ], [ -59.93564870940321, -3.09410506325269 ], [ -59.935652425866955, -3.094101306529008 ], [ -59.935592530930961, -3.093821289492922 ], [ -59.935522510191724, -3.093543000775538 ], [ -59.935472862517003, -3.093303711573371 ], [ -59.935466422060124, -3.093310221792269 ], [ -59.935338214792829, -3.092714001002326 ], [ -59.935319108324236, -3.092675851522837 ], [ -59.935186017332484, -3.092501893478288 ], [ -59.93519192954426, -3.092497908179555 ], [ -59.935158049439167, -3.092464040126346 ], [ -59.93512436159822, -3.092498092824235 ], [ -59.934992249850922, -3.092366002833905 ], [ -59.93503934397021, -3.092294563181268 ], [ -59.935030851663363, -3.092277606739075 ], [ -59.934903673003511, -3.092099661109454 ], [ -59.934818909188138, -3.091989522064791 ], [ -59.934764387463311, -3.092007962350509 ], [ -59.93471611309598, -3.09194936636111 ], [ -59.934751083277867, -3.091896315972425 ], [ -59.934623974799223, -3.09174384227408 ], [ -59.934623951447549, -3.091735352308785 ], [ -59.934622750593924, -3.091737174024383 ], [ -59.934435078263519, -3.091526115780786 ], [ -59.93443755615813, -3.091523610948428 ], [ -59.934327409000019, -3.091396561169643 ], [ -59.93410297270237, -3.091172190378491 ], [ -59.934107184805484, -3.091167932488642 ], [ -59.934081778015717, -3.091142532977725 ], [ -59.93408054861613, -3.091145021951562 ], [ -59.93407417954753, -3.091139109590359 ], [ -59.934034355676147, -3.091301149461259 ], [ -59.933911909435182, -3.091424921470311 ], [ -59.930944037353257, -3.098176880942688 ], [ -59.930919215170967, -3.098183192074995 ], [ -59.924724833794208, -3.093226830168578 ] ] ], [ [ [ -59.923835140679813, -3.092900966112099 ], [ -59.923673945242626, -3.093378919243819 ], [ -59.92368241420327, -3.09338738589301 ], [ -59.923732929652836, -3.093327812988389 ], [ -59.923868437086405, -3.093463283401737 ], [ -59.923733674581136, -3.093599505321589 ], [ -59.92364051167722, -3.093506367889637 ], [ -59.923623641437004, -3.093514904744041 ], [ -59.923539834243833, -3.093752870926173 ], [ -59.923546007444614, -3.093755436443412 ], [ -59.923472823157859, -3.093956825820036 ], [ -59.923296854089763, -3.094466741930806 ], [ -59.92337287147997, -3.094466531271555 ], [ -59.923263371842935, -3.094577210541029 ], [ -59.92329741290304, -3.094670511793214 ], [ -59.92330028716448, -3.094662252785038 ], [ -59.923339946244546, -3.094780769738827 ], [ -59.923433551833398, -3.09503522454325 ], [ -59.923435656766792, -3.095033096854871 ], [ -59.923510170797911, -3.095255761610655 ], [ -59.923612317586624, -3.095544155251878 ], [ -59.923727793164737, -3.095859166192205 ], [ -59.923748431535074, -3.095900377702752 ], [ -59.923924826372897, -3.095972821273801 ], [ -59.924145813964927, -3.096052104179739 ], [ -59.924162660907314, -3.096035075079426 ], [ -59.924170920196694, -3.095967129142681 ], [ -59.92417080369529, -3.095924678921177 ], [ -59.924179086283665, -3.095865220870549 ], [ -59.92417852709066, -3.095661453330456 ], [ -59.92418697278849, -3.095661429909949 ], [ -59.924205685332844, -3.095299119003534 ], [ -59.924211310213437, -3.095296272632695 ], [ -59.924219078180165, -3.095050027147104 ], [ -59.924227341813101, -3.094982081207166 ], [ -59.924220539289351, -3.094988956403978 ], [ -59.924251840323286, -3.094676356425853 ], [ -59.924243394633741, -3.094676379839433 ], [ -59.924256416845303, -3.094478615159189 ], [ -59.924183389363101, -3.094471558379724 ], [ -59.924200276843919, -3.094353862279442 ], [ -59.92420002066234, -3.094260467473273 ], [ -59.92421689089543, -3.094251930602872 ], [ -59.92424987824937, -3.093963193985767 ], [ -59.924296338734131, -3.093726264434124 ], [ -59.924283274276917, -3.093723349433078 ], [ -59.924325080395406, -3.093401390605646 ], [ -59.924318852025664, -3.093400365970832 ], [ -59.924332555088462, -3.093309164042446 ], [ -59.924340974569915, -3.093300655705332 ], [ -59.924433206126366, -3.093054176210512 ], [ -59.924433039339327, -3.092993351088371 ], [ -59.923942417201772, -3.092600779570595 ], [ -59.923833116129373, -3.092903012546501 ], [ -59.923835140679813, -3.092900966112099 ] ] ], [ [ [ -59.934347033885594, -3.090541916297002 ], [ -59.934254996773241, -3.090739950631343 ], [ -59.93442319330196, -3.090908100384443 ], [ -59.934418983995947, -3.090912355448454 ], [ -59.934588351144505, -3.091081675283778 ], [ -59.934723925049965, -3.091234142185609 ], [ -59.934729869688717, -3.091228132919502 ], [ -59.934893344549586, -3.091411984338288 ], [ -59.935092361290614, -3.091610939066289 ], [ -59.935088148864402, -3.091615197292311 ], [ -59.935181311488833, -3.091708331837485 ], [ -59.935392914753692, -3.091601237844427 ], [ -59.935411080269958, -3.091643411632162 ], [ -59.936413179133851, -3.091254917326761 ], [ -59.936418544333613, -3.091250268616463 ], [ -59.936556617926506, -3.091203576199046 ], [ -59.936573462337357, -3.091186549326858 ], [ -59.936607104425782, -3.091135513523722 ], [ -59.936573228781775, -3.091101647740945 ], [ -59.936682725936173, -3.090990966507195 ], [ -59.936825884292816, -3.090837741689013 ], [ -59.937002591226964, -3.090599521318949 ], [ -59.937001116595532, -3.090596576013224 ], [ -59.937103568429187, -3.090463393866168 ], [ -59.937061340635516, -3.09046351128755 ], [ -59.93691958091469, -3.090511454283678 ], [ -59.936966579289994, -3.09041630039339 ], [ -59.934354762230491, -3.090417425144199 ], [ -59.934309374182476, -3.09052068357476 ], [ -59.934347033885594, -3.090541916297002 ] ] ], [ [ [ -59.924627569141421, -3.087710493961237 ], [ -59.924614453827942, -3.087710530243312 ], [ -59.911172331082057, -3.086764447611652 ], [ -59.911159071489244, -3.086744572180803 ], [ -59.911734766778871, -3.077175467482019 ], [ -59.898111587451901, -3.077178577591951 ], [ -59.898112351713678, -3.093138996192812 ], [ -59.900096938743019, -3.092748336250736 ], [ -59.900800904106291, -3.092378776659432 ], [ -59.900925330422112, -3.092253010898687 ], [ -59.900933637737865, -3.09220204420305 ], [ -59.900928811750575, -3.09220205746447 ], [ -59.900983250874958, -3.091811338737884 ], [ -59.900991673560711, -3.091802825167183 ], [ -59.901049217031641, -3.091359759952707 ], [ -59.901058021113236, -3.091352639469402 ], [ -59.901081310361413, -3.091145803851247 ], [ -59.901107661757585, -3.090970425217708 ], [ -59.901046597747204, -3.091032146539273 ], [ -59.901165744025057, -3.090588186728888 ], [ -59.901182265656189, -3.090452296815917 ], [ -59.901439388924594, -3.088719498707593 ], [ -59.901493948931545, -3.088295073693446 ], [ -59.901572685976447, -3.087757375700299 ], [ -59.9015803470948, -3.087751179821699 ], [ -59.901641011498839, -3.087284053292426 ], [ -59.901829026502831, -3.086018410258081 ], [ -59.901826672734458, -3.086020313850758 ], [ -59.90192464011696, -3.085375652958314 ], [ -59.901987868687556, -3.085415139955395 ], [ -59.901989847678358, -3.085412137883982 ], [ -59.902224751036648, -3.085558830268228 ], [ -59.902229629137025, -3.085553899460675 ], [ -59.902507457817826, -3.085715802704998 ], [ -59.902503912734119, -3.085719386095187 ], [ -59.902706942859155, -3.085837698236308 ], [ -59.902709048449353, -3.085835569802887 ], [ -59.902952271083173, -3.085981365028513 ], [ -59.902953618306633, -3.08597932193222 ], [ -59.903226534046652, -3.086138358353545 ], [ -59.903222987098424, -3.086141943634543 ], [ -59.903472419275936, -3.086281463013875 ], [ -59.903468315390455, -3.086285611253443 ], [ -59.903671345611983, -3.086403921924765 ], [ -59.903953607318748, -3.086559769500949 ], [ -59.903950503213082, -3.086564476963063 ], [ -59.904190935476642, -3.08670458372097 ], [ -59.904187390112888, -3.086708167408481 ], [ -59.904390420409008, -3.086826477788983 ], [ -59.904395296621175, -3.08682154886485 ], [ -59.904673127766259, -3.0869834487281 ], [ -59.904669582405631, -3.08698703241654 ], [ -59.905637529150432, -3.087549668356493 ], [ -59.905633981836196, -3.087553253420009 ], [ -59.90583701228072, -3.087671563216076 ], [ -59.905839118908162, -3.087669433898915 ], [ -59.906082345195372, -3.087815229544416 ], [ -59.90608369096217, -3.087813188120189 ], [ -59.906356604667927, -3.087972221402315 ], [ -59.90635305735826, -3.087975806467247 ], [ -59.906564533648336, -3.088094092749588 ], [ -59.9065665138477, -3.088091089829626 ], [ -59.906801420882267, -3.088237781948237 ], [ -59.907084682774808, -3.088394187003702 ], [ -59.907080578916158, -3.088398335251541 ], [ -59.907207477738751, -3.088474401604446 ], [ -59.907170061005857, -3.088691014217188 ], [ -59.907165849767537, -3.088695270935674 ], [ -59.906969663944516, -3.089659820499444 ], [ -59.906965777587175, -3.08966374853029 ], [ -59.906957123458426, -3.089722465972206 ], [ -59.906974477659375, -3.089757120466955 ], [ -59.907126714081009, -3.089833116964152 ], [ -59.907128488089533, -3.089831324068876 ], [ -59.907388861245259, -3.089951260302694 ], [ -59.907642602972309, -3.090077923785775 ], [ -59.907644375419686, -3.090076132162454 ], [ -59.907945256381147, -3.090214727290845 ], [ -59.907938606962581, -3.09022144836851 ], [ -59.908158483324705, -3.09032273015295 ], [ -59.908161292349902, -3.090319890733812 ], [ -59.908454491646687, -3.090466255527749 ], [ -59.908674368026361, -3.090567536030245 ], [ -59.908677176605181, -3.09056469766067 ], [ -59.90897037637707, -3.090711060049329 ], [ -59.909236541004589, -3.090833664407141 ], [ -59.909232551075036, -3.090837696663343 ], [ -59.909452483419415, -3.090939004781319 ], [ -59.909706160738551, -3.091065637584202 ], [ -59.909707845250765, -3.091063934911586 ], [ -59.909964928180393, -3.091182092430521 ], [ -59.91044024142542, -3.091528363401496 ], [ -59.910622830568869, -3.091731184146703 ], [ -59.910620169720772, -3.091733873687024 ], [ -59.910818260034127, -3.09194233711456 ], [ -59.910959034770713, -3.092106522727112 ], [ -59.910964797221915, -3.09210069813327 ], [ -59.911173471686354, -3.092332496893855 ], [ -59.911170833575824, -3.092335163455508 ], [ -59.91137492837408, -3.092549689286072 ], [ -59.911537744903093, -3.092730548013775 ], [ -59.911535105685978, -3.092733215922777 ], [ -59.911739206223459, -3.092947747062498 ], [ -59.911992518721796, -3.09322442555121 ], [ -59.912385416440166, -3.093384699299139 ], [ -59.91264358969341, -3.093485835719331 ], [ -59.912646128542654, -3.093481984244721 ], [ -59.913125527989841, -3.093671296093576 ], [ -59.913220500490453, -3.094426693362054 ], [ -59.913278943018277, -3.094812034847532 ], [ -59.91327224466842, -3.09481711438929 ], [ -59.913327917590138, -3.095190563582123 ], [ -59.913401581572934, -3.095784677734441 ], [ -59.913436016877242, -3.096022318710333 ], [ -59.913469869657987, -3.096047697897238 ], [ -59.913607770751412, -3.096027500996562 ], [ -59.913596537453152, -3.09603885552851 ], [ -59.914017590222564, -3.095996385715904 ], [ -59.914010304939652, -3.096003749161492 ], [ -59.914431358367537, -3.095961281753981 ], [ -59.914424074400735, -3.095968644811144 ], [ -59.914844046317995, -3.095927264638469 ], [ -59.914837839382685, -3.095933538176423 ], [ -59.915257811915538, -3.095892160589546 ], [ -59.91525160633708, -3.095898433558506 ], [ -59.915606273842442, -3.095871980235312 ], [ -59.91561080839891, -3.095867396432098 ], [ -59.916020040461149, -3.095836873202741 ], [ -59.916024573183464, -3.095832291541491 ], [ -59.916433804758647, -3.09580176819857 ], [ -59.916438342281218, -3.095797181681772 ], [ -59.916847571019119, -3.095766660892518 ], [ -59.916852106568065, -3.095762076658651 ], [ -59.917261339254267, -3.095731555602995 ], [ -59.917265108512474, -3.095727744913368 ], [ -59.918088868732305, -3.095661340313213 ], [ -59.918092636282346, -3.095657532071295 ], [ -59.918502632128479, -3.095626232466146 ], [ -59.918506519545261, -3.095622303309737 ], [ -59.918924843236603, -3.095591103257878 ], [ -59.918929378076584, -3.095586519431835 ], [ -59.919338608418968, -3.095555995128509 ], [ -59.919343421744223, -3.095551130423841 ], [ -59.919651043625628, -3.095529659715345 ], [ -59.919676264506741, -3.095487137013087 ], [ -59.919497652281294, -3.095032997955875 ], [ -59.919380837675938, -3.094747023955494 ], [ -59.919293496065492, -3.094503298733046 ], [ -59.919813211942063, -3.094361096992622 ], [ -59.919808334621344, -3.094366027252768 ], [ -59.920247224691352, -3.094254436297918 ], [ -59.920255207255252, -3.094246367904152 ], [ -59.920780725811092, -3.094110162330638 ], [ -59.921034772958784, -3.094275715816511 ], [ -59.921032778056343, -3.094277731932205 ], [ -59.921272279365994, -3.094427287032225 ], [ -59.921269689610661, -3.09442990477159 ], [ -59.921464296399733, -3.094556722110018 ], [ -59.921467664947933, -3.094553317160776 ], [ -59.921701203728098, -3.094708894745639 ], [ -59.921703582309348, -3.094705287095173 ], [ -59.921965493048539, -3.094875961479241 ], [ -59.921963496922629, -3.094877979349116 ], [ -59.922202384496615, -3.095027148114088 ], [ -59.922200404331889, -3.095030151735984 ], [ -59.922395013395423, -3.095156968685449 ], [ -59.922397604306738, -3.095154349548454 ], [ -59.922667730950927, -3.095323026442074 ], [ -59.922665752416293, -3.095326027340047 ], [ -59.922896209221811, -3.09547620839453 ], [ -59.922894216378495, -3.095478222779765 ], [ -59.923097271241424, -3.095605016031686 ], [ -59.923099648953929, -3.095601409225788 ], [ -59.923330154939158, -3.095751617855989 ], [ -59.923596264797496, -3.095849856791472 ], [ -59.923587721612719, -3.095815917866295 ], [ -59.923570713727734, -3.095773512296273 ], [ -59.923519596917977, -3.0956123353794 ], [ -59.923401795723436, -3.095288688444787 ], [ -59.923405855348534, -3.095284585005262 ], [ -59.923295492483845, -3.095001604839402 ], [ -59.923237230037969, -3.094827504058042 ], [ -59.92323871000427, -3.094823503048332 ], [ -59.923225951197907, -3.094793800428967 ], [ -59.923202539395106, -3.094723840847868 ], [ -59.923204645645512, -3.09472171173948 ], [ -59.923128026855117, -3.094501170232905 ], [ -59.923127776581453, -3.09440990009937 ], [ -59.923132250660792, -3.094411759572564 ], [ -59.923153063435485, -3.094390727177759 ], [ -59.923186592269325, -3.094297238669498 ], [ -59.923060746150227, -3.094424445078419 ], [ -59.922908432299145, -3.094253146445026 ], [ -59.923039462861446, -3.094116285589514 ], [ -59.923194968117855, -3.094271742951966 ], [ -59.923253599085541, -3.094093281574471 ], [ -59.923250569967934, -3.094092275839404 ], [ -59.923347819880512, -3.093810480667917 ], [ -59.923354160179876, -3.093804328219057 ], [ -59.923379315311252, -3.093736333283361 ], [ -59.923376309526304, -3.093735254928249 ], [ -59.923504978556643, -3.093362404972793 ], [ -59.923502380930259, -3.093361759837209 ], [ -59.923551023027684, -3.093213695559493 ], [ -59.923555235838229, -3.093209437212619 ], [ -59.923633842231368, -3.092970180939299 ], [ -59.923639045252386, -3.092971473224444 ], [ -59.923706056406566, -3.09276751624668 ], [ -59.923659472078207, -3.092720950473072 ], [ -59.923663686226675, -3.092716690774669 ], [ -59.923591438318454, -3.092653495944601 ], [ -59.923730695256687, -3.092512733820479 ], [ -59.923781511096308, -3.092563535900798 ], [ -59.923798241689774, -3.092504056613975 ], [ -59.923865760550079, -3.092486889368862 ], [ -59.92392079896991, -3.092514355836484 ], [ -59.924698159803548, -3.090251517152343 ], [ -59.924784374143201, -3.087631136199178 ], [ -59.924627569141421, -3.087710493961237 ] ] ] ] } },
{ "type": "Feature", "properties": { "id": 8, "pagina": 15, "camada_a": "terras_dest", "camada_b": "dom_part", "situacao": "INTERSECAO", "area_m2": 303305.368, "area_ha": 30.330537, "perc_a": 10.7854, "perc_b": 11.5431, "nucleo_m2": 283418.563, "faixa_m": 5, "id_layer": "p15_sobreposicoes_intersecoes", "doc_fonte": "Resposta SECT_autos.pdf", "doc_pagina": 15, "doc_folha": 108, "doc_escala": "1:15.000", "doc_metodo": "Reconstituição Vetorial Afim", "doc_rms_m": 0.68 }, "geometry": { "type": "MultiPolygon", "coordinates": [ [ [ [ -59.942937120758479, -3.107851856664583 ], [ -59.943421468501342, -3.104658902367629 ], [ -59.943436106576222, -3.104647802567755 ], [ -59.94345189786975, -3.104648645928731 ], [ -59.943434994421565, -3.098541014975433 ], [ -59.943103293362753, -3.098653193427265 ], [ -59.941972345848008, -3.099149031289331 ], [ -59.941013268770611, -3.099515749927328 ], [ -59.940334620114591, -3.099669342530267 ], [ -59.939409027814172, -3.099697303334943 ], [ -59.939404384160085, -3.099697316296088 ], [ -59.9386897181884, -3.099540687238475 ], [ -59.938683819152132, -3.099534790079097 ], [ -59.938040495082774, -3.099233108482816 ], [ -59.938039768365186, -3.103544418339936 ], [ -59.94292514797668, -3.103530760668971 ], [ -59.942937120758479, -3.107851856664583 ] ] ], [ [ [ -59.898024161267443, -3.100741223011855 ], [ -59.897984152335333, -3.103348696488777 ], [ -59.898030464512303, -3.103310142508901 ], [ -59.898087684799471, -3.102561035206083 ], [ -59.898022563978252, -3.098004399906493 ], [ -59.898024161267443, -3.100741223011855 ] ] ], [ [ [ -59.904617168556271, -3.102964540101672 ], [ -59.904615813048288, -3.096231830986067 ], [ -59.904613142929826, -3.09623145353868 ], [ -59.904613388007604, -3.102963520847731 ], [ -59.904617168556271, -3.102964540101672 ] ] ], [ [ [ -59.940108293604681, -3.098569759739024 ], [ -59.940078830223513, -3.098389499589955 ], [ -59.938845453738239, -3.098433044720615 ], [ -59.939229403108037, -3.098777605179379 ], [ -59.940108293604681, -3.098569759739024 ] ] ] ] } },
{ "type": "Feature", "properties": { "id": 9, "pagina": 15, "camada_a": "terras_dest", "camada_b": "aeis_maua", "situacao": "INTERSECAO", "area_m2": 296820.566, "area_ha": 29.682057, "perc_a": 10.5548, "perc_b": 11.6693, "nucleo_m2": 280036.54, "faixa_m": 5, "id_layer": "p15_sobreposicoes_intersecoes", "doc_fonte": "Resposta SECT_autos.pdf", "doc_pagina": 15, "doc_folha": 108, "doc_escala": "1:15.000", "doc_metodo": "Reconstituição Vetorial Afim", "doc_rms_m": 0.68 }, "geometry": { "type": "MultiPolygon", "coordinates": [ [ [ [ -59.943006245980307, -3.108960052624725 ], [ -59.942940010369064, -3.108893841738173 ], [ -59.942940353859768, -3.109017680137433 ], [ -59.94294083572948, -3.109191399840888 ], [ -59.943006245980307, -3.108960052624725 ] ] ], [ [ [ -59.916754234233849, -3.098273789840744 ], [ -59.917146562545881, -3.100634482184482 ], [ -59.917146582451011, -3.10064174159376 ], [ -59.917545075088682, -3.104274574101487 ], [ -59.917545385766083, -3.104387727687314 ], [ -59.917623752620294, -3.10471629246473 ], [ -59.917664921394923, -3.104855572707082 ], [ -59.917665296668353, -3.104992221411067 ], [ -59.917716391321747, -3.105144906751443 ], [ -59.917716879020304, -3.105322472045697 ], [ -59.917700474962871, -3.105500817345149 ], [ -59.917700491580057, -3.105506866975877 ], [ -59.917658978524429, -3.105709977431134 ], [ -59.917651017209792, -3.105952943806608 ], [ -59.917660347461485, -3.106228759078764 ], [ -59.91769572714945, -3.106455736921997 ], [ -59.917746823948931, -3.106608423506463 ], [ -59.917764741799182, -3.106723404732019 ], [ -59.917856718032986, -3.106879591488717 ], [ -59.918040252512782, -3.10706307326579 ], [ -59.918173636786463, -3.107169732206887 ], [ -59.918313208201781, -3.107230654840891 ], [ -59.918324573117765, -3.10723632549251 ], [ -59.918406470780418, -3.107304550295272 ], [ -59.918406474097061, -3.107305756754693 ], [ -59.91854217410733, -3.107509154177942 ], [ -59.918542185251688, -3.107513207579846 ], [ -59.918614052530124, -3.107683478379701 ], [ -59.918708598845875, -3.107880796133046 ], [ -59.918820471380748, -3.108078484646843 ], [ -59.918890612512925, -3.108183614392717 ], [ -59.91898662453864, -3.108297041922746 ], [ -59.918991352298725, -3.108301767039754 ], [ -59.919067784365232, -3.108454371284781 ], [ -59.919075209415197, -3.108461799731573 ], [ -59.919140169783681, -3.108615691865258 ], [ -59.919243438664481, -3.108838992081504 ], [ -59.919324237587411, -3.10897351455564 ], [ -59.91944568277696, -3.109086251078314 ], [ -59.919563770620933, -3.109221162167462 ], [ -59.919567137163526, -3.109224525960069 ], [ -59.919608340442963, -3.109323163569024 ], [ -59.919732136585594, -3.109491076237616 ], [ -59.919759688012412, -3.109518618722352 ], [ -59.919757496824438, -3.098372128209538 ], [ -59.917523372170116, -3.098056347811778 ], [ -59.916754234233849, -3.098273789840744 ] ] ], [ [ [ -59.938728820822341, -3.103520940728707 ], [ -59.938659192054374, -3.103125030129679 ], [ -59.938632611732565, -3.103036851030706 ], [ -59.938538319947028, -3.102763570813623 ], [ -59.938469526075679, -3.102592082821747 ], [ -59.938315058776794, -3.10224956451691 ], [ -59.938074179658308, -3.101854234642875 ], [ -59.938040057935197, -3.101814739554849 ], [ -59.938039768365186, -3.103544418339936 ], [ -59.938729645712101, -3.103542491078913 ], [ -59.938728820822341, -3.103520940728707 ] ] ] ] } },
{ "type": "Feature", "properties": { "id": 10, "pagina": 15, "camada_a": "dom_part", "camada_b": "aeis_quar", "situacao": "INTERSECAO", "area_m2": 410621.206, "area_ha": 41.062121, "perc_a": 15.6273, "perc_b": 31.1668, "nucleo_m2": 379678.879, "faixa_m": 5, "id_layer": "p15_sobreposicoes_intersecoes", "doc_fonte": "Resposta SECT_autos.pdf", "doc_pagina": 15, "doc_folha": 108, "doc_escala": "1:15.000", "doc_metodo": "Reconstituição Vetorial Afim", "doc_rms_m": 0.68 }, "geometry": { "type": "MultiPolygon", "coordinates": [ [ [ [ -59.936944382970836, -3.095664295526838 ], [ -59.937068828450712, -3.095882506558429 ], [ -59.937703953230802, -3.095645960932088 ], [ -59.93707054253391, -3.095885512145172 ], [ -59.937328163501213, -3.096337241334604 ], [ -59.938877080932876, -3.096551026695177 ], [ -59.938478810557143, -3.095352915201519 ], [ -59.938471193763661, -3.095355795823043 ], [ -59.938325210484777, -3.094929215983281 ], [ -59.936641106214559, -3.09556613071663 ], [ -59.936700229584517, -3.09575059251122 ], [ -59.936918106562793, -3.095656827246833 ], [ -59.936944382970836, -3.095664295526838 ] ] ], [ [ [ -59.936487020858394, -3.095142276448151 ], [ -59.936634721904142, -3.095564151362264 ], [ -59.938310495207766, -3.09493460443962 ], [ -59.938164585132427, -3.09450763558477 ], [ -59.938275003317784, -3.094465943868758 ], [ -59.937847925124309, -3.093181159147595 ], [ -59.9361618121034, -3.093810029098847 ], [ -59.936625191646968, -3.095088878964898 ], [ -59.93696462938361, -3.09496071441297 ], [ -59.936487020858394, -3.095142276448151 ] ] ], [ [ [ -59.938992975392978, -3.096567022623784 ], [ -59.940016212551051, -3.096708250714747 ], [ -59.94281121669195, -3.095391531263182 ], [ -59.942826035608974, -3.095391489910527 ], [ -59.943426986078968, -3.095643176552433 ], [ -59.943416067245572, -3.091687772233942 ], [ -59.942775217447547, -3.09139213936189 ], [ -59.939401112419311, -3.092666312836667 ], [ -59.939380037495958, -3.092655792380345 ], [ -59.938436209758201, -3.091001768053705 ], [ -59.937430167254178, -3.091263879740238 ], [ -59.937871194322923, -3.09202326892588 ], [ -59.937871205158579, -3.092027203717768 ], [ -59.938992975392978, -3.096567022623784 ] ] ], [ [ [ -59.937374252116157, -3.092154637207468 ], [ -59.936848410215582, -3.091415448817628 ], [ -59.935005660894639, -3.091895550854332 ], [ -59.935757364105918, -3.092942246784324 ], [ -59.935755766357943, -3.092943024950043 ], [ -59.936019091152339, -3.093313402889081 ], [ -59.936830595431985, -3.093008070550552 ], [ -59.936034745357851, -3.093353565180882 ], [ -59.936191129080001, -3.093782185330855 ], [ -59.937031663506176, -3.093462660521449 ], [ -59.937030196550161, -3.093458735525799 ], [ -59.93782376794907, -3.093075279537034 ], [ -59.937646890340616, -3.092555062220594 ], [ -59.937660608385912, -3.092551574098763 ], [ -59.937371182184101, -3.092156253172983 ], [ -59.937073976506525, -3.09230100433043 ], [ -59.937374252116157, -3.092154637207468 ] ], [ [ -59.936861186675003, -3.093006531276073 ], [ -59.936866982115568, -3.093008843002682 ], [ -59.936956308465945, -3.093261040062814 ], [ -59.936861186675003, -3.093006531276073 ] ] ], [ [ [ -59.940983354207937, -3.085826715706776 ], [ -59.94095948818125, -3.085871600754558 ], [ -59.942036988591617, -3.086521639985786 ], [ -59.943398825297812, -3.085431410725345 ], [ -59.943394927829551, -3.084015419767712 ], [ -59.942277290612111, -3.085544801133855 ], [ -59.942265015301352, -3.085544835273593 ], [ -59.941645828895403, -3.084786416135174 ], [ -59.940983354207937, -3.085826715706776 ] ] ] ] } },
{ "type": "Feature", "properties": { "id": 11, "pagina": 15, "camada_a": "dom_part", "camada_b": "aeis_maua", "situacao": "INTERSECAO", "area_m2": 589400.166, "area_ha": 58.940017, "perc_a": 22.4313, "perc_b": 23.1718, "nucleo_m2": 567327.162, "faixa_m": 5, "id_layer": "p15_sobreposicoes_intersecoes", "doc_fonte": "Resposta SECT_autos.pdf", "doc_pagina": 15, "doc_folha": 108, "doc_escala": "1:15.000", "doc_metodo": "Reconstituição Vetorial Afim", "doc_rms_m": 0.68 }, "geometry": { "type": "MultiPolygon", "coordinates": [ [ [ [ -59.936563631954776, -3.103306240796535 ], [ -59.93656150910892, -3.103306313938413 ], [ -59.936606226103876, -3.10354842167866 ], [ -59.938729645712101, -3.103542491078913 ], [ -59.938728820822341, -3.103520940728707 ], [ -59.938659192054374, -3.103125030129679 ], [ -59.938632611732565, -3.103036851030706 ], [ -59.938538319947028, -3.102763570813623 ], [ -59.938469526075679, -3.102592082821747 ], [ -59.938315058776794, -3.10224956451691 ], [ -59.938074179658308, -3.101854234642875 ], [ -59.937906909759462, -3.101660623622513 ], [ -59.937216520310194, -3.101200728629031 ], [ -59.936307967012105, -3.100598020822769 ], [ -59.936335902796962, -3.101828251204127 ], [ -59.936563631954776, -3.103306240796535 ] ] ], [ [ [ -59.927808138226737, -3.103213446501515 ], [ -59.927824938164257, -3.103213399742782 ], [ -59.928170127522627, -3.103634559640696 ], [ -59.928169955009785, -3.103571941429663 ], [ -59.935670214912243, -3.103551034548745 ], [ -59.935630960611746, -3.103256716263731 ], [ -59.932234277505806, -3.099758984694414 ], [ -59.931169986212112, -3.099829888067664 ], [ -59.931167975150629, -3.099827878641141 ], [ -59.929882360275428, -3.099169207130088 ], [ -59.929879690979106, -3.099166538635874 ], [ -59.928855787267857, -3.097572295623596 ], [ -59.92412362015429, -3.096979274126331 ], [ -59.923542096925402, -3.097386373898704 ], [ -59.927316911570458, -3.103609054239052 ], [ -59.927808138226737, -3.103213446501515 ] ] ] ] } },
{ "type": "Feature", "properties": { "id": 12, "pagina": 15, "camada_a": "dom_part", "camada_b": "rvs_sauim", "situacao": "INTERSECAO", "area_m2": 6065.823, "area_ha": 0.606582, "perc_a": 0.2309, "perc_b": 0.6355, "nucleo_m2": 1181.118, "faixa_m": 5, "id_layer": "p15_sobreposicoes_intersecoes", "doc_fonte": "Resposta SECT_autos.pdf", "doc_pagina": 15, "doc_folha": 108, "doc_escala": "1:15.000", "doc_metodo": "Reconstituição Vetorial Afim", "doc_rms_m": 0.68 }, "geometry": { "type": "Polygon", "coordinates": [ [ [ -59.93637456475529, -3.097275049404398 ], [ -59.936336598748632, -3.097243276341259 ], [ -59.936258908841232, -3.098437456641882 ], [ -59.936335902796962, -3.101828251204127 ], [ -59.936375140180445, -3.102082907756864 ], [ -59.936560511942922, -3.102273696599747 ], [ -59.936346648593208, -3.100729174540038 ], [ -59.936346628888089, -3.100722035356418 ], [ -59.936390568353019, -3.098285805010156 ], [ -59.936450827475419, -3.097419734675268 ], [ -59.93637456475529, -3.097275049404398 ] ] ] } },
{ "type": "Feature", "properties": { "id": 13, "pagina": 15, "camada_a": "dom_part", "camada_b": "uniao", "situacao": "INTERSECAO", "area_m2": 16390.838, "area_ha": 1.639084, "perc_a": 0.6238, "perc_b": 0.2503, "nucleo_m2": 8879.651, "faixa_m": 5, "id_layer": "p15_sobreposicoes_intersecoes", "doc_fonte": "Resposta SECT_autos.pdf", "doc_pagina": 15, "doc_folha": 108, "doc_escala": "1:15.000", "doc_metodo": "Reconstituição Vetorial Afim", "doc_rms_m": 0.68 }, "geometry": { "type": "MultiPolygon", "coordinates": [ [ [ [ -59.936258908841232, -3.098437456641882 ], [ -59.936335902796962, -3.101828251204127 ], [ -59.936491550136594, -3.102838422987978 ], [ -59.936614399250722, -3.102971054702815 ], [ -59.936673452815711, -3.102945419817806 ], [ -59.936595373941842, -3.10219848632564 ], [ -59.936592248610545, -3.102202699874317 ], [ -59.936556124334658, -3.101838005131073 ], [ -59.936560583147767, -3.101833497693022 ], [ -59.936534519448109, -3.101570369178474 ], [ -59.936530027592717, -3.101574909440616 ], [ -59.936517159317923, -3.101400610846031 ], [ -59.936516573317235, -3.101188353480621 ], [ -59.936526544899642, -3.10079972696127 ], [ -59.936327116905261, -3.100650238671254 ], [ -59.936355638777819, -3.10060355543983 ], [ -59.93652364045186, -3.100687401314034 ], [ -59.936523078023832, -3.100483636054742 ], [ -59.936538211934419, -3.09984681684298 ], [ -59.936537063978378, -3.099430792054765 ], [ -59.936544713157303, -3.099142097276581 ], [ -59.936543588886053, -3.098734564595604 ], [ -59.936560445249967, -3.098021254408633 ], [ -59.936430288510039, -3.097464722698722 ], [ -59.936430255729832, -3.097452834177156 ], [ -59.936396094409474, -3.097317084787122 ], [ -59.93637916571813, -3.097303547063516 ], [ -59.936379110927071, -3.097283674382477 ], [ -59.936338929964698, -3.097207443217687 ], [ -59.936258908841232, -3.098437456641882 ] ] ], [ [ [ -59.935411080269958, -3.091643411632162 ], [ -59.936413179133851, -3.091254917326761 ], [ -59.936418544333613, -3.091250268616463 ], [ -59.936556617926506, -3.091203576199046 ], [ -59.936573462337357, -3.091186549326858 ], [ -59.936607104425782, -3.091135513523722 ], [ -59.936573228781775, -3.091101647740945 ], [ -59.93660344919779, -3.091071100528925 ], [ -59.936591524283884, -3.091054337343928 ], [ -59.935404939985879, -3.091629156104428 ], [ -59.935411080269958, -3.091643411632162 ] ] ], [ [ [ -59.937061340635516, -3.09046351128755 ], [ -59.936981102273037, -3.090490647823718 ], [ -59.937024766582859, -3.090565832239483 ], [ -59.937103568429187, -3.090463393866168 ], [ -59.937061340635516, -3.09046351128755 ] ] ] ] } },
{ "type": "Feature", "properties": { "id": 14, "pagina": 15, "camada_a": "aeis_lula", "camada_b": "uniao", "situacao": "INTERSECAO", "area_m2": 270760.137, "area_ha": 27.076014, "perc_a": 96.6945, "perc_b": 4.1353, "nucleo_m2": 254780.425, "faixa_m": 5, "id_layer": "p15_sobreposicoes_intersecoes", "doc_fonte": "Resposta SECT_autos.pdf", "doc_pagina": 15, "doc_folha": 108, "doc_escala": "1:15.000", "doc_metodo": "Reconstituição Vetorial Afim", "doc_rms_m": 0.68 }, "geometry": { "type": "Polygon", "coordinates": [ [ [ -59.925530336746831, -3.089957926324112 ], [ -59.925525739410773, -3.089957939055313 ], [ -59.925087709793765, -3.089718576022412 ], [ -59.924867134731485, -3.089595205025391 ], [ -59.924669655413339, -3.089586729649653 ], [ -59.924492168102873, -3.08958722093929 ], [ -59.924280995052072, -3.089579315324318 ], [ -59.924078840215721, -3.089579874816137 ], [ -59.923818034517637, -3.089563684444541 ], [ -59.923639807115052, -3.089555647365585 ], [ -59.923327393981047, -3.08954802365345 ], [ -59.923167783616883, -3.089540022045281 ], [ -59.922785284809329, -3.089515450680787 ], [ -59.922615241841996, -3.089524918735973 ], [ -59.922471557880357, -3.089579536966819 ], [ -59.922464646437533, -3.089583035226001 ], [ -59.92219655278933, -3.08955111979726 ], [ -59.922186676191515, -3.089551147113258 ], [ -59.922097377855465, -3.089510642062653 ], [ -59.921856073997574, -3.089468013208085 ], [ -59.92159166785671, -3.08941063617583 ], [ -59.921519016063002, -3.08963175869396 ], [ -59.921513602878441, -3.089642717928071 ], [ -59.921302780919554, -3.089941152136951 ], [ -59.921218011015682, -3.090130006327568 ], [ -59.921044900099169, -3.090427709704699 ], [ -59.921044912248291, -3.090432149216431 ], [ -59.920972403992977, -3.090520108800021 ], [ -59.920965870163386, -3.090526714046864 ], [ -59.92081951100824, -3.090666435682952 ], [ -59.920812965580161, -3.090669747834766 ], [ -59.92050911815344, -3.090747002812615 ], [ -59.920329519068169, -3.090837895921596 ], [ -59.92029032054684, -3.090877517820894 ], [ -59.92010950505118, -3.091068991584662 ], [ -59.919958350497879, -3.091329839045828 ], [ -59.919950010974802, -3.091535712483408 ], [ -59.919933550980453, -3.091776668260196 ], [ -59.919968906974951, -3.092130876392301 ], [ -59.920021703293543, -3.092383888746657 ], [ -59.9201119835855, -3.092591061958267 ], [ -59.920116294456889, -3.092595371691399 ], [ -59.920164781847895, -3.092882941630746 ], [ -59.920164787170158, -3.092884885523757 ], [ -59.920133954155304, -3.093138509356802 ], [ -59.920130297930719, -3.093142205077465 ], [ -59.920079947000573, -3.09326121067752 ], [ -59.920072673860325, -3.093268562385311 ], [ -59.919990218918649, -3.093321629232265 ], [ -59.919972206892147, -3.093326209748437 ], [ -59.919475353696484, -3.093252694215724 ], [ -59.919228800746424, -3.093201769444223 ], [ -59.919178221479214, -3.093480614693238 ], [ -59.919178235283866, -3.093485657403265 ], [ -59.919079290429551, -3.093775573128955 ], [ -59.919697294740615, -3.093637882814702 ], [ -59.919740154539006, -3.093629142861981 ], [ -59.919841501108742, -3.093603373345366 ], [ -59.920381747669282, -3.093491502249232 ], [ -59.920643016752308, -3.093425073580742 ], [ -59.920664243065971, -3.093429279861739 ], [ -59.920953044756324, -3.093668486307406 ], [ -59.921572721475926, -3.094109635971667 ], [ -59.922385882528928, -3.094651343099165 ], [ -59.923201945834357, -3.095177952100821 ], [ -59.923394902148303, -3.095256500045815 ], [ -59.923295492483845, -3.095001604839402 ], [ -59.923237230037969, -3.094827504058042 ], [ -59.92323871000427, -3.094823503048332 ], [ -59.923225951197907, -3.094793800428967 ], [ -59.923202539395106, -3.094723840847868 ], [ -59.923204645645512, -3.09472171173948 ], [ -59.923128026855117, -3.094501170232905 ], [ -59.923127776581453, -3.09440990009937 ], [ -59.923132250660792, -3.094411759572564 ], [ -59.923153063435485, -3.094390727177759 ], [ -59.923186592269325, -3.094297238669498 ], [ -59.923060746150227, -3.094424445078419 ], [ -59.922908432299145, -3.094253146445026 ], [ -59.923039462861446, -3.094116285589514 ], [ -59.923194968117855, -3.094271742951966 ], [ -59.923253599085541, -3.094093281574471 ], [ -59.923250569967934, -3.094092275839404 ], [ -59.923347819880512, -3.093810480667917 ], [ -59.923354160179876, -3.093804328219057 ], [ -59.923379315311252, -3.093736333283361 ], [ -59.923376309526304, -3.093735254928249 ], [ -59.923504978556643, -3.093362404972793 ], [ -59.923502380930259, -3.093361759837209 ], [ -59.923551023027684, -3.093213695559493 ], [ -59.923555235838229, -3.093209437212619 ], [ -59.923633842231368, -3.092970180939299 ], [ -59.923639045252386, -3.092971473224444 ], [ -59.923706056406566, -3.09276751624668 ], [ -59.923659472078207, -3.092720950473072 ], [ -59.923663686226675, -3.092716690774669 ], [ -59.923591438318454, -3.092653495944601 ], [ -59.923730695256687, -3.092512733820479 ], [ -59.923781511096308, -3.092563535900798 ], [ -59.923798241689774, -3.092504056613975 ], [ -59.923865760550079, -3.092486889368862 ], [ -59.923957893403241, -3.092532867502856 ], [ -59.923950407781405, -3.092554577945319 ], [ -59.923957229094157, -3.09255982259152 ], [ -59.923833116129373, -3.092903012546501 ], [ -59.923835140679813, -3.092900966112099 ], [ -59.923673945242626, -3.093378919243819 ], [ -59.92368241420327, -3.09338738589301 ], [ -59.923732929652836, -3.093327812988389 ], [ -59.923868437086405, -3.093463283401737 ], [ -59.923733674581136, -3.093599505321589 ], [ -59.92364051167722, -3.093506367889637 ], [ -59.923623641437004, -3.093514904744041 ], [ -59.923539834243833, -3.093752870926173 ], [ -59.923546007444614, -3.093755436443412 ], [ -59.923472823157859, -3.093956825820036 ], [ -59.923296854089763, -3.094466741930806 ], [ -59.92337287147997, -3.094466531271555 ], [ -59.923263371842935, -3.094577210541029 ], [ -59.92329741290304, -3.094670511793214 ], [ -59.92330028716448, -3.094662252785038 ], [ -59.923339946244546, -3.094780769738827 ], [ -59.923433551833398, -3.09503522454325 ], [ -59.923435656766792, -3.095033096854871 ], [ -59.923510170797911, -3.095255761610655 ], [ -59.923529896206276, -3.09531145289196 ], [ -59.924088327607521, -3.095538776606839 ], [ -59.924226362577919, -3.094475710960918 ], [ -59.924183389363101, -3.094471558379724 ], [ -59.924200276843919, -3.094353862279442 ], [ -59.92420002066234, -3.094260467473273 ], [ -59.92421689089543, -3.094251930602872 ], [ -59.92424987824937, -3.093963193985767 ], [ -59.924296338734131, -3.093726264434124 ], [ -59.924283274276917, -3.093723349433078 ], [ -59.924325080395406, -3.093401390605646 ], [ -59.924318852025664, -3.093400365970832 ], [ -59.924332555088462, -3.093309164042446 ], [ -59.924340974569915, -3.093300655705332 ], [ -59.924433206126366, -3.093054176210512 ], [ -59.924432880181101, -3.092935306973465 ], [ -59.924466753868046, -3.092969180020504 ], [ -59.92465131011101, -3.092510183471799 ], [ -59.924785492818643, -3.092161702276007 ], [ -59.925238699222966, -3.091124698803338 ], [ -59.925431833122204, -3.090699555898514 ], [ -59.92543178657197, -3.090682572588231 ], [ -59.925448605912791, -3.090657056782112 ], [ -59.925532461638063, -3.090436073297576 ], [ -59.925549283121612, -3.090410556409872 ], [ -59.925624786277936, -3.090223556482072 ], [ -59.925616294096955, -3.090206599804655 ], [ -59.925641561216317, -3.090181057370878 ], [ -59.925709529637942, -3.090020417672884 ], [ -59.925530336746831, -3.089957926324112 ] ] ] } },
{ "type": "Feature", "properties": { "id": 15, "pagina": 15, "camada_a": "aeis_quar", "camada_b": "rvs_sauim", "situacao": "INTERSECAO", "area_m2": 394544.922, "area_ha": 39.454492, "perc_a": 29.9466, "perc_b": 41.3349, "nucleo_m2": 380437.453, "faixa_m": 5, "id_layer": "p15_sobreposicoes_intersecoes", "doc_fonte": "Resposta SECT_autos.pdf", "doc_pagina": 15, "doc_folha": 108, "doc_escala": "1:15.000", "doc_metodo": "Reconstituição Vetorial Afim", "doc_rms_m": 0.68 }, "geometry": { "type": "Polygon", "coordinates": [ [ [ -59.930283163478663, -3.093125917324924 ], [ -59.930260645971025, -3.093114677470858 ], [ -59.929367903751945, -3.091366279869586 ], [ -59.92651392905065, -3.092098486594232 ], [ -59.927105099643349, -3.094670089724913 ], [ -59.927481468298687, -3.094727873605134 ], [ -59.92748966807109, -3.094731966614964 ], [ -59.928215021821607, -3.095212357772923 ], [ -59.929814206716998, -3.096277674330185 ], [ -59.930587398509665, -3.096792742328726 ], [ -59.931139914355747, -3.096782389869057 ], [ -59.933088910077231, -3.096165770680984 ], [ -59.933105399022772, -3.09616572480891 ], [ -59.934332361033611, -3.096769622881461 ], [ -59.935825778204652, -3.096126919912496 ], [ -59.93544265950004, -3.094851820398969 ], [ -59.934727279153876, -3.093085187194669 ], [ -59.934057008603155, -3.09214270757431 ], [ -59.930283163478663, -3.093125917324924 ] ] ] } },
{ "type": "Feature", "properties": { "id": 16, "pagina": 15, "camada_a": "aeis_quar", "camada_b": "uniao", "situacao": "INTERSECAO", "area_m2": 804631.8, "area_ha": 80.46318, "perc_a": 61.0728, "perc_b": 12.289, "nucleo_m2": 776782.039, "faixa_m": 5, "id_layer": "p15_sobreposicoes_intersecoes", "doc_fonte": "Resposta SECT_autos.pdf", "doc_pagina": 15, "doc_folha": 108, "doc_escala": "1:15.000", "doc_metodo": "Reconstituição Vetorial Afim", "doc_rms_m": 0.68 }, "geometry": { "type": "MultiPolygon", "coordinates": [ [ [ [ -59.930260645971025, -3.093114677470858 ], [ -59.929367903751945, -3.091366279869586 ], [ -59.92651392905065, -3.092098486594232 ], [ -59.927105099643349, -3.094670089724913 ], [ -59.927481468298687, -3.094727873605134 ], [ -59.92748966807109, -3.094731966614964 ], [ -59.928215021821607, -3.095212357772923 ], [ -59.929814206716998, -3.096277674330185 ], [ -59.930587398509665, -3.096792742328726 ], [ -59.931139914355747, -3.096782389869057 ], [ -59.933088910077231, -3.096165770680984 ], [ -59.933105399022772, -3.09616572480891 ], [ -59.934332361033611, -3.096769622881461 ], [ -59.93591080605237, -3.096090327501597 ], [ -59.935899648088672, -3.096063459112954 ], [ -59.936088314103301, -3.095967973205652 ], [ -59.936042202432866, -3.095784708314989 ], [ -59.936045571355365, -3.095781303178756 ], [ -59.935973513827022, -3.095505069014673 ], [ -59.935977230223109, -3.095501312034315 ], [ -59.93592592074031, -3.095272215715491 ], [ -59.935921326815631, -3.095276859412419 ], [ -59.935846701135127, -3.094943628019286 ], [ -59.935848998162655, -3.094941306105898 ], [ -59.935797688836693, -3.094712207567477 ], [ -59.935792872878466, -3.094715859801604 ], [ -59.935718469431194, -3.094383619619716 ], [ -59.935720766495152, -3.094381297867993 ], [ -59.93564870940321, -3.09410506325269 ], [ -59.935652425866955, -3.094101306529008 ], [ -59.935592530930961, -3.093821289492922 ], [ -59.935522510191724, -3.093543000775538 ], [ -59.935472862517003, -3.093303711573371 ], [ -59.935466422060124, -3.093310221792269 ], [ -59.935338214792829, -3.092714001002326 ], [ -59.935319108324236, -3.092675851522837 ], [ -59.935186017332484, -3.092501893478288 ], [ -59.93519192954426, -3.092497908179555 ], [ -59.935158049439167, -3.092464040126346 ], [ -59.93512436159822, -3.092498092824235 ], [ -59.934992249850922, -3.092366002833905 ], [ -59.93503934397021, -3.092294563181268 ], [ -59.935030851663363, -3.092277606739075 ], [ -59.934903673003511, -3.092099661109454 ], [ -59.934818909188138, -3.091989522064791 ], [ -59.934764387463311, -3.092007962350509 ], [ -59.934730778430456, -3.091967167316518 ], [ -59.930283163478663, -3.093125917324924 ], [ -59.930260645971025, -3.093114677470858 ] ] ], [ [ [ -59.931460877865057, -3.083761075572866 ], [ -59.931946549869288, -3.087001517172421 ], [ -59.939003488677052, -3.086460447873512 ], [ -59.940500762256384, -3.085811525736937 ], [ -59.940556113589452, -3.085735631447633 ], [ -59.940561834342304, -3.08573314784956 ], [ -59.941016207494933, -3.085112091191743 ], [ -59.941016184142725, -3.085103601274426 ], [ -59.940906084944999, -3.084993533200859 ], [ -59.940834584119479, -3.084907769172494 ], [ -59.940846658686752, -3.084883324263322 ], [ -59.938524469819214, -3.082321063194115 ], [ -59.936406227883523, -3.082848474913682 ], [ -59.931460877865057, -3.083761075572866 ] ] ] ] } },
{ "type": "Feature", "properties": { "id": 17, "pagina": 15, "camada_a": "aeis_maua", "camada_b": "rvs_sauim", "situacao": "INTERSECAO", "area_m2": 88739.013, "area_ha": 8.873901, "perc_a": 3.4887, "perc_b": 9.2968, "nucleo_m2": 73317.863, "faixa_m": 5, "id_layer": "p15_sobreposicoes_intersecoes", "doc_fonte": "Resposta SECT_autos.pdf", "doc_pagina": 15, "doc_folha": 108, "doc_escala": "1:15.000", "doc_metodo": "Reconstituição Vetorial Afim", "doc_rms_m": 0.68 }, "geometry": { "type": "MultiPolygon", "coordinates": [ [ [ [ -59.933865679519442, -3.098968581041774 ], [ -59.932562552064034, -3.098114628990844 ], [ -59.931073679032018, -3.097125632529616 ], [ -59.930592718597083, -3.096796785395837 ], [ -59.929603739546259, -3.09682856459139 ], [ -59.930611390888998, -3.09732316564875 ], [ -59.932188098084048, -3.098110180028896 ], [ -59.932196195592887, -3.098110157494587 ], [ -59.932877039474313, -3.09848329323823 ], [ -59.932877054058579, -3.098488587227061 ], [ -59.934804625349187, -3.100466491398155 ], [ -59.936560511942922, -3.102273696599747 ], [ -59.936346648593208, -3.100729174540038 ], [ -59.936346628888089, -3.100722035356418 ], [ -59.936348381953877, -3.100624830964868 ], [ -59.935177343439001, -3.099847995014454 ], [ -59.933865679519442, -3.098968581041774 ] ] ], [ [ [ -59.927335895643459, -3.095643444152877 ], [ -59.927108880415361, -3.094672553903102 ], [ -59.926883584668687, -3.094633809259203 ], [ -59.926476039077173, -3.09460933993541 ], [ -59.924745818601671, -3.094478810555467 ], [ -59.924649784364121, -3.095633013368418 ], [ -59.925519537093159, -3.095725794131571 ], [ -59.927671784848805, -3.096016668640623 ], [ -59.9287520586198, -3.0964449603461 ], [ -59.927342585550676, -3.09565346905215 ], [ -59.927335895643459, -3.095643444152877 ] ] ] ] } },
{ "type": "Feature", "properties": { "id": 18, "pagina": 15, "camada_a": "aeis_maua", "camada_b": "uniao", "situacao": "INTERSECAO", "area_m2": 194260.281, "area_ha": 19.426028, "perc_a": 7.6372, "perc_b": 2.9669, "nucleo_m2": 175863.809, "faixa_m": 5, "id_layer": "p15_sobreposicoes_intersecoes", "doc_fonte": "Resposta SECT_autos.pdf", "doc_pagina": 15, "doc_folha": 108, "doc_escala": "1:15.000", "doc_metodo": "Reconstituição Vetorial Afim", "doc_rms_m": 0.68 }, "geometry": { "type": "Polygon", "coordinates": [ [ [ -59.935177343439001, -3.099847995014454 ], [ -59.933865679519442, -3.098968581041774 ], [ -59.932562552064034, -3.098114628990844 ], [ -59.931073679032018, -3.097125632529616 ], [ -59.930592718597083, -3.096796785395837 ], [ -59.929444940878099, -3.096833667238103 ], [ -59.9294388320899, -3.096830617222768 ], [ -59.927342585550676, -3.09565346905215 ], [ -59.927335895643459, -3.095643444152877 ], [ -59.927108880415361, -3.094672553903102 ], [ -59.926883584668687, -3.094633809259203 ], [ -59.926476039077173, -3.09460933993541 ], [ -59.92477189137383, -3.094480777531556 ], [ -59.924768978819912, -3.094505114090209 ], [ -59.924555429963497, -3.094505706152972 ], [ -59.924547121891266, -3.09455667198283 ], [ -59.924547401421336, -3.094658556800325 ], [ -59.924539771081662, -3.09495574463079 ], [ -59.924545204799436, -3.094950252161731 ], [ -59.924520760908166, -3.095375116111635 ], [ -59.9245155989179, -3.095380334248484 ], [ -59.924504992393906, -3.095789791361018 ], [ -59.924491986178687, -3.096008693522471 ], [ -59.924483654849368, -3.096051167164213 ], [ -59.92446732277665, -3.096254983660208 ], [ -59.924492755252572, -3.096288875698564 ], [ -59.924932111942162, -3.096347089746072 ], [ -59.925119897167072, -3.096365440144741 ], [ -59.925802355949223, -3.096455050561105 ], [ -59.92580694597882, -3.096448862481064 ], [ -59.92641068127633, -3.096529775076561 ], [ -59.926415271106379, -3.096523587651702 ], [ -59.927069703798495, -3.096612850636883 ], [ -59.927376919170818, -3.09664287051227 ], [ -59.927373854542466, -3.096645968561803 ], [ -59.927678028624541, -3.096687574248663 ], [ -59.927694919983473, -3.096687527336044 ], [ -59.928109312173483, -3.096881656806895 ], [ -59.92811154164211, -3.096879403213675 ], [ -59.928386152768432, -3.09701049253298 ], [ -59.928379960194739, -3.097016752649719 ], [ -59.928620342135943, -3.097121022336597 ], [ -59.9286167511953, -3.097126470048527 ], [ -59.92903961248237, -3.097329065367014 ], [ -59.929041841818879, -3.097326811711568 ], [ -59.929504748877491, -3.097548522982083 ], [ -59.929506979883335, -3.097546267636674 ], [ -59.929969889608984, -3.097767980195606 ], [ -59.929972118941627, -3.097765726539191 ], [ -59.930206680677301, -3.097877696919729 ], [ -59.930209487953512, -3.097874859012439 ], [ -59.930435026085995, -3.097987437031895 ], [ -59.930437255545151, -3.097985183436275 ], [ -59.930671817173739, -3.098097153558342 ], [ -59.930674626451328, -3.098094313865557 ], [ -59.931026746079098, -3.098270080658259 ], [ -59.931029652768174, -3.098265387963411 ], [ -59.931181845484765, -3.098338036691342 ], [ -59.931179256464645, -3.09834196444393 ], [ -59.931415004611864, -3.098444220666831 ], [ -59.93140760191929, -3.098451704153122 ], [ -59.931602117969305, -3.098544557801199 ], [ -59.931604347295291, -3.098542304143116 ], [ -59.93206725459337, -3.098764013267408 ], [ -59.932069485560298, -3.098761758330395 ], [ -59.932532395553935, -3.098983468331866 ], [ -59.93253462487619, -3.098981214672746 ], [ -59.932769186731718, -3.099093183966415 ], [ -59.932771994154187, -3.099090346135249 ], [ -59.932912954393025, -3.099160706161595 ], [ -59.933179742782123, -3.09942741009606 ], [ -59.933175531431054, -3.099431667067009 ], [ -59.933349152493115, -3.099605237276119 ], [ -59.933344940333882, -3.099609494705129 ], [ -59.933488922987145, -3.099753428620117 ], [ -59.933529293095567, -3.099692188732739 ], [ -59.933674970137162, -3.099837815037573 ], [ -59.93366654788457, -3.099846328535928 ], [ -59.933675018350698, -3.099854796918073 ], [ -59.933624432318034, -3.099888896046252 ], [ -59.933687955548379, -3.099952395566231 ], [ -59.933683743484629, -3.09995665326355 ], [ -59.9338531765463, -3.100126036293638 ], [ -59.933997178433138, -3.100278459963538 ], [ -59.934196167402824, -3.100477383914893 ], [ -59.934191956059479, -3.100481640889943 ], [ -59.934534967945204, -3.100824544509829 ], [ -59.934530755884836, -3.100828802574587 ], [ -59.934827186289439, -3.101125138377376 ], [ -59.93486106297226, -3.101073752920792 ], [ -59.934869297473711, -3.10108257299088 ], [ -59.934894541659773, -3.101048536947936 ], [ -59.935034291580955, -3.101188242783333 ], [ -59.934979531877715, -3.101243591258441 ], [ -59.934954254615761, -3.101260633153881 ], [ -59.93504318255593, -3.101349536219328 ], [ -59.935038973225531, -3.101353791530248 ], [ -59.935182952059051, -3.101497726935739 ], [ -59.935188056422966, -3.101492566812459 ], [ -59.935521752145981, -3.101844885913953 ], [ -59.935527695926922, -3.101838877707598 ], [ -59.935691166147222, -3.102022712413298 ], [ -59.935696270506448, -3.102017552287473 ], [ -59.936029966575717, -3.102369870906746 ], [ -59.936035459269696, -3.102364318669064 ], [ -59.936157007464054, -3.102496870988395 ], [ -59.936249653776578, -3.102403220304432 ], [ -59.936292020795896, -3.102454041975835 ], [ -59.936296233509132, -3.102449783592189 ], [ -59.936385166117638, -3.102538684348302 ], [ -59.936313571900548, -3.102611054740214 ], [ -59.936309338476676, -3.102606822572712 ], [ -59.936292513201195, -3.102632339577005 ], [ -59.936368762939829, -3.102717031248666 ], [ -59.936374107541987, -3.102711628245185 ], [ -59.936614399250722, -3.102971054702815 ], [ -59.936673452815711, -3.102945419817806 ], [ -59.936595373941842, -3.10219848632564 ], [ -59.936592248610545, -3.102202699874317 ], [ -59.936556124334658, -3.101838005131073 ], [ -59.936560583147767, -3.101833497693022 ], [ -59.936534519448109, -3.101570369178474 ], [ -59.936530027592717, -3.101574909440616 ], [ -59.936517159317923, -3.101400610846031 ], [ -59.936516573317235, -3.101188353480621 ], [ -59.936526544899642, -3.10079972696127 ], [ -59.936327116905261, -3.100650238671254 ], [ -59.936344296128873, -3.100622120543034 ], [ -59.935177343439001, -3.099847995014454 ] ] ] } },
{ "type": "Feature", "properties": { "id": 19, "pagina": 15, "camada_a": "rvs_sauim", "camada_b": "uniao", "situacao": "INTERSECAO", "area_m2": 954264.475, "area_ha": 95.426448, "perc_a": 99.9746, "perc_b": 14.5744, "nucleo_m2": 932061.09, "faixa_m": 5, "id_layer": "p15_sobreposicoes_intersecoes", "doc_fonte": "Resposta SECT_autos.pdf", "doc_pagina": 15, "doc_folha": 108, "doc_escala": "1:15.000", "doc_metodo": "Reconstituição Vetorial Afim", "doc_rms_m": 0.68 }, "geometry": { "type": "Polygon", "coordinates": [ [ [ -59.936085957549629, -3.097033519134206 ], [ -59.936081306048884, -3.097028871422599 ], [ -59.935962946684988, -3.096583443363935 ], [ -59.93544265950004, -3.094851820398969 ], [ -59.934727279153876, -3.093085187194669 ], [ -59.933988644108368, -3.092046578801162 ], [ -59.933982589703596, -3.092052698762754 ], [ -59.932918052512392, -3.091047134476972 ], [ -59.932087057433165, -3.090530360862885 ], [ -59.929371266587715, -3.08904328584774 ], [ -59.928910511765245, -3.088800694367436 ], [ -59.928915293470197, -3.088805474777184 ], [ -59.928476541049889, -3.089128881416143 ], [ -59.928476610899423, -3.089154351453819 ], [ -59.928442828443771, -3.089154445075745 ], [ -59.928375081526127, -3.089207715503548 ], [ -59.928299690457436, -3.089248792292208 ], [ -59.92809991406763, -3.089401351425925 ], [ -59.92809316957073, -3.089401370116236 ], [ -59.927722061577931, -3.089589187840385 ], [ -59.927719055646804, -3.089589196169838 ], [ -59.926942970517189, -3.089464202004239 ], [ -59.926833050438375, -3.089447514556091 ], [ -59.926721197139287, -3.089430532504387 ], [ -59.926617249524035, -3.089439529959504 ], [ -59.926510862894361, -3.089456285344141 ], [ -59.926495004167755, -3.089464311032542 ], [ -59.925604144397496, -3.09155850432386 ], [ -59.924823098271595, -3.093550021036563 ], [ -59.924747379566547, -3.094460049946931 ], [ -59.924773592839905, -3.094466560516047 ], [ -59.924768978819912, -3.094505114090209 ], [ -59.92474362418362, -3.094505184388027 ], [ -59.924649784364121, -3.095633013368418 ], [ -59.925519537093159, -3.095725794131571 ], [ -59.927671784848805, -3.096016668640623 ], [ -59.929076477972394, -3.096573581176482 ], [ -59.929084219278003, -3.096573559666974 ], [ -59.930611390888998, -3.09732316564875 ], [ -59.932188098084048, -3.098110180028896 ], [ -59.932196195592887, -3.098110157494587 ], [ -59.932877039474313, -3.09848329323823 ], [ -59.932877054058579, -3.098488587227061 ], [ -59.934804625349187, -3.100466491398155 ], [ -59.936560511942922, -3.102273696599747 ], [ -59.936346648593208, -3.100729174540038 ], [ -59.936346628888089, -3.100722035356418 ], [ -59.936347646200453, -3.100665627134459 ], [ -59.936327116905261, -3.100650238671254 ], [ -59.936348556599306, -3.100615147209588 ], [ -59.936390568353019, -3.098285805010156 ], [ -59.936443705631547, -3.097522092487518 ], [ -59.936430288510039, -3.097464722698722 ], [ -59.936430255729832, -3.097452834177156 ], [ -59.936396094409474, -3.097317084787122 ], [ -59.93637916571813, -3.097303547063516 ], [ -59.936379097606128, -3.0972788428648 ], [ -59.936085957549629, -3.097033519134206 ] ] ] } }
]
}
