{
"type": "FeatureCollection",
"name": "p15_camadas_titulo_cosme",
"crs": { "type": "name", "properties": { "name": "urn:ogc:def:crs:OGC:1.3:CRS84" } },
"features": [
{ "type": "Feature", "properties": { "id": 1, "pagina": 15, "classe": "Titulo Definitivo Cosme Ferreira Filho", "rotulo": "Empresa de Plantacoes I - 30/09/1931", "seq_pdf": "2281", "metodo": "CONTORNO_PDF", "situacao": "DERIV_PDF", "recortado": 1, "area_m2": 4696445.911, "area_ha": 469.644591, "id_layer": "p15_camadas_titulo_cosme", "doc_fonte": "Resposta SECT_autos.pdf", "doc_pagina": 15, "doc_folha": 108, "doc_escala": "1:15.000", "doc_metodo": "Reconstituição Vetorial Afim", "doc_rms_m": 0.68 }, "geometry": { "type": "Polygon", "coordinates": [ [ [ -59.924784374143201, -3.087631136199178 ], [ -59.924627569141421, -3.087710493961237 ], [ -59.924614453827942, -3.087710530243312 ], [ -59.911172331082057, -3.086764447611652 ], [ -59.911159071489244, -3.086744572180803 ], [ -59.911734766778871, -3.077175467482019 ], [ -59.898111587451901, -3.077178577591951 ], [ -59.898112351713678, -3.093138996192812 ], [ -59.900096938743019, -3.092748336250736 ], [ -59.901438914034379, -3.092043841213509 ], [ -59.901462900440087, -3.092047791891027 ], [ -59.905932923539048, -3.095754632862738 ], [ -59.907349339960177, -3.095963794479092 ], [ -59.907355269041709, -3.095966754177399 ], [ -59.910400003317896, -3.098487673721549 ], [ -59.910407897734927, -3.098503435972397 ], [ -59.910402577717228, -3.099692558910497 ], [ -59.912886937200064, -3.100919663339012 ], [ -59.915349459643807, -3.097923856804941 ], [ -59.915358015565992, -3.097915208502247 ], [ -59.916054131794944, -3.097649562812536 ], [ -59.916074076993439, -3.097653515219421 ], [ -59.917118851692948, -3.098417567890069 ], [ -59.921304840165611, -3.098414521776258 ], [ -59.923853380395464, -3.096339554266939 ], [ -59.923215334276186, -3.09457794267478 ], [ -59.923215306992766, -3.094567993600059 ], [ -59.924698159803548, -3.090251517152343 ], [ -59.924784374143201, -3.087631136199178 ] ] ] } },
{ "type": "Feature", "properties": { "id": 2, "pagina": 15, "classe": "Titulo Definitivo Cosme Ferreira Filho", "rotulo": "2o lote - legenda compartilhada I/II", "seq_pdf": "2322", "metodo": "CONTORNO_PDF", "situacao": "DERIV_PDF", "recortado": 1, "area_m2": 642763.312, "area_ha": 64.276331, "id_layer": "p15_camadas_titulo_cosme", "doc_fonte": "Resposta SECT_autos.pdf", "doc_pagina": 15, "doc_folha": 108, "doc_escala": "1:15.000", "doc_metodo": "Reconstituição Vetorial Afim", "doc_rms_m": 0.68 }, "geometry": { "type": "Polygon", "coordinates": [ [ [ -59.90462076577429, -3.096239574704357 ], [ -59.901331978848624, -3.093447112523963 ], [ -59.89997406167064, -3.094130005836849 ], [ -59.899963082710457, -3.094130036014841 ], [ -59.89802409358002, -3.094534086856028 ], [ -59.898020109665637, -3.102483750976512 ], [ -59.90118303359958, -3.10204404418234 ], [ -59.901191054265929, -3.102044022070375 ], [ -59.904613586622737, -3.102965154733031 ], [ -59.90462076577429, -3.096239574704357 ] ] ] } },
{ "type": "Feature", "properties": { "id": 3, "pagina": 15, "classe": "Titulo Definitivo Cosme Ferreira Filho", "rotulo": "1o lote - legenda compartilhada I/II", "seq_pdf": "2396", "metodo": "CONTORNO_PDF", "situacao": "DERIV_PDF", "recortado": 1, "area_m2": 1975600.963, "area_ha": 197.560096, "id_layer": "p15_camadas_titulo_cosme", "doc_fonte": "Resposta SECT_autos.pdf", "doc_pagina": 15, "doc_folha": 108, "doc_escala": "1:15.000", "doc_metodo": "Reconstituição Vetorial Afim", "doc_rms_m": 0.68 }, "geometry": { "type": "Polygon", "coordinates": [ [ [ -59.923881667208676, -3.092552170381273 ], [ -59.92382560164198, -3.092552325681929 ], [ -59.923164964961899, -3.094484205319116 ], [ -59.923794467632099, -3.096264336242002 ], [ -59.923788272462616, -3.096280030905582 ], [ -59.92120945099493, -3.098362289438514 ], [ -59.921190504269681, -3.09836710683311 ], [ -59.919757670985675, -3.09837107858831 ], [ -59.919763965067418, -3.103793064115249 ], [ -59.925970589073188, -3.103792933996586 ], [ -59.929397818212117, -3.103078677516874 ], [ -59.929401663870358, -3.103078666808041 ], [ -59.938036072926764, -3.10308019017367 ], [ -59.938043673368661, -3.09041583467105 ], [ -59.934354762230491, -3.090417425144199 ], [ -59.930944037353257, -3.098176880942688 ], [ -59.930919215170967, -3.098183192074995 ], [ -59.923881667208676, -3.092552170381273 ] ] ] } }
]
}
