{
"type": "FeatureCollection",
"name": "p15_camadas_dom_part",
"crs": { "type": "name", "properties": { "name": "urn:ogc:def:crs:OGC:1.3:CRS84" } },
"features": [
{ "type": "Feature", "properties": { "id": 1, "pagina": 15, "classe": "Area de dominio particular", "rotulo": "Area de dominio particular", "seq_pdf": "2145", "metodo": "CONTORNO_PDF", "situacao": "DERIV_PDF", "recortado": 1, "area_m2": 26145.238, "area_ha": 2.614524, "id_layer": "p15_camadas_dom_part", "doc_fonte": "Resposta SECT_autos.pdf", "doc_pagina": 15, "doc_folha": 108, "doc_escala": "1:15.000", "doc_metodo": "Reconstituição Vetorial Afim", "doc_rms_m": 0.68 }, "geometry": { "type": "Polygon", "coordinates": [ [ [ -59.939512447967928, -3.097668481084934 ], [ -59.939224869656798, -3.097677315825764 ], [ -59.93920793491025, -3.097668861889541 ], [ -59.939021326269987, -3.097234491466274 ], [ -59.937397244965545, -3.098005596873342 ], [ -59.938461252583082, -3.098097260366586 ], [ -59.938477176836891, -3.098102548365953 ], [ -59.939229403108037, -3.098777605179379 ], [ -59.940108293604681, -3.098569759739024 ], [ -59.939817594957191, -3.096791223323482 ], [ -59.939521865385849, -3.097662131837745 ], [ -59.939512447967928, -3.097668481084934 ] ] ] } },
{ "type": "Feature", "properties": { "id": 2, "pagina": 15, "classe": "Area de dominio particular", "rotulo": "Area de dominio particular", "seq_pdf": "2146", "metodo": "CONTORNO_PDF", "situacao": "DERIV_PDF", "recortado": 1, "area_m2": 637894.97, "area_ha": 63.789497, "id_layer": "p15_camadas_dom_part", "doc_fonte": "Resposta SECT_autos.pdf", "doc_pagina": 15, "doc_folha": 108, "doc_escala": "1:15.000", "doc_metodo": "Reconstituição Vetorial Afim", "doc_rms_m": 0.68 }, "geometry": { "type": "Polygon", "coordinates": [ [ [ -59.94129877701539, -3.096867003162424 ], [ -59.943428522157369, -3.096199221543285 ], [ -59.943394927829551, -3.084015419767712 ], [ -59.942277290612111, -3.085544801133855 ], [ -59.942265015301352, -3.085544835273593 ], [ -59.941645828895403, -3.084786416135174 ], [ -59.940983354207937, -3.085826715706776 ], [ -59.940091664683784, -3.087503724085543 ], [ -59.93967958463309, -3.08841496336343 ], [ -59.93932490431061, -3.089322129666718 ], [ -59.939324919759656, -3.089327741869068 ], [ -59.9392226427411, -3.089494859202793 ], [ -59.938922020976918, -3.089756551897273 ], [ -59.938917661026608, -3.089760957409115 ], [ -59.936965726639045, -3.090464172922025 ], [ -59.937871194322923, -3.09202326892588 ], [ -59.937871205158579, -3.092027203717768 ], [ -59.939030069704636, -3.09671714175732 ], [ -59.940286830118104, -3.096912571915366 ], [ -59.94129877701539, -3.096867003162424 ] ] ] } },
{ "type": "Feature", "properties": { "id": 3, "pagina": 15, "classe": "Area de dominio particular", "rotulo": "Area de dominio particular", "seq_pdf": "2147", "metodo": "CONTORNO_PDF", "situacao": "DERIV_PDF", "recortado": 1, "area_m2": 533341.512, "area_ha": 53.334151, "id_layer": "p15_camadas_dom_part", "doc_fonte": "Resposta SECT_autos.pdf", "doc_pagina": 15, "doc_folha": 108, "doc_escala": "1:15.000", "doc_metodo": "Reconstituição Vetorial Afim", "doc_rms_m": 0.68 }, "geometry": { "type": "Polygon", "coordinates": [ [ [ -59.932234277505806, -3.099758984694414 ], [ -59.931169986212112, -3.099829888067664 ], [ -59.931167975150629, -3.099827878641141 ], [ -59.929882360275428, -3.099169207130088 ], [ -59.929879690979106, -3.099166538635874 ], [ -59.928855787267857, -3.097572295623596 ], [ -59.92412362015429, -3.096979274126331 ], [ -59.923542096925402, -3.097386373898704 ], [ -59.927316911570458, -3.103609054239052 ], [ -59.927808138226737, -3.103213446501515 ], [ -59.927824938164257, -3.103213399742782 ], [ -59.928170127522627, -3.103634559640696 ], [ -59.928169955009785, -3.103571941429663 ], [ -59.935670214912257, -3.103551034548762 ], [ -59.935630960611746, -3.103256716263731 ], [ -59.932234277505806, -3.099758984694414 ] ] ] } },
{ "type": "Feature", "properties": { "id": 4, "pagina": 15, "classe": "Area de dominio particular", "rotulo": "Area de dominio particular", "seq_pdf": "2148", "metodo": "CONTORNO_PDF", "situacao": "DERIV_PDF", "recortado": 1, "area_m2": 29598.624, "area_ha": 2.959862, "id_layer": "p15_camadas_dom_part", "doc_fonte": "Resposta SECT_autos.pdf", "doc_pagina": 15, "doc_folha": 108, "doc_escala": "1:15.000", "doc_metodo": "Reconstituição Vetorial Afim", "doc_rms_m": 0.68 }, "geometry": { "type": "Polygon", "coordinates": [ [ [ -59.937374252116157, -3.092154637207468 ], [ -59.936591524283884, -3.091054337343928 ], [ -59.934966781369994, -3.091841413616166 ], [ -59.935757645827699, -3.092942639061981 ], [ -59.937374252116157, -3.092154637207468 ] ] ] } },
{ "type": "Feature", "properties": { "id": 5, "pagina": 15, "classe": "Area de dominio particular", "rotulo": "Area de dominio particular", "seq_pdf": "2149", "metodo": "CONTORNO_PDF", "situacao": "DERIV_PDF", "recortado": 1, "area_m2": 16702.774, "area_ha": 1.670277, "id_layer": "p15_camadas_dom_part", "doc_fonte": "Resposta SECT_autos.pdf", "doc_pagina": 15, "doc_folha": 108, "doc_escala": "1:15.000", "doc_metodo": "Reconstituição Vetorial Afim", "doc_rms_m": 0.68 }, "geometry": { "type": "Polygon", "coordinates": [ [ [ -59.93782376794907, -3.093075279537034 ], [ -59.937646890340616, -3.092555062220594 ], [ -59.937660608385912, -3.092551574098763 ], [ -59.937371182184101, -3.092156253172983 ], [ -59.935755766357943, -3.092943024950043 ], [ -59.936019091152339, -3.093313402889081 ], [ -59.936848323440216, -3.093001400297154 ], [ -59.936866982115568, -3.093008843002682 ], [ -59.937026895748822, -3.093460330481404 ], [ -59.93782376794907, -3.093075279537034 ] ] ] } },
{ "type": "Feature", "properties": { "id": 6, "pagina": 15, "classe": "Area de dominio particular", "rotulo": "Area de dominio particular", "seq_pdf": "2150", "metodo": "CONTORNO_PDF", "situacao": "DERIV_PDF", "recortado": 1, "area_m2": 5270.628, "area_ha": 0.527063, "id_layer": "p15_camadas_dom_part", "doc_fonte": "Resposta SECT_autos.pdf", "doc_pagina": 15, "doc_folha": 108, "doc_escala": "1:15.000", "doc_metodo": "Reconstituição Vetorial Afim", "doc_rms_m": 0.68 }, "geometry": { "type": "Polygon", "coordinates": [ [ [ -59.937031663506176, -3.093462660521449 ], [ -59.936857411103929, -3.09299642931513 ], [ -59.936034745357851, -3.093353565180882 ], [ -59.936191129080001, -3.093782185330855 ], [ -59.937031663506176, -3.093462660521449 ] ] ] } },
{ "type": "Feature", "properties": { "id": 7, "pagina": 15, "classe": "Area de dominio particular", "rotulo": "Area de dominio particular", "seq_pdf": "2151", "metodo": "CONTORNO_PDF", "situacao": "DERIV_PDF", "recortado": 1, "area_m2": 29759.717, "area_ha": 2.975972, "id_layer": "p15_camadas_dom_part", "doc_fonte": "Resposta SECT_autos.pdf", "doc_pagina": 15, "doc_folha": 108, "doc_escala": "1:15.000", "doc_metodo": "Reconstituição Vetorial Afim", "doc_rms_m": 0.68 }, "geometry": { "type": "Polygon", "coordinates": [ [ [ -59.938275003317784, -3.094465943868758 ], [ -59.937847925124309, -3.093181159147595 ], [ -59.9361618121034, -3.093810029098847 ], [ -59.936625191646968, -3.095088878964898 ], [ -59.938275003317784, -3.094465943868758 ] ] ] } },
{ "type": "Feature", "properties": { "id": 8, "pagina": 15, "classe": "Area de dominio particular", "rotulo": "Area de dominio particular", "seq_pdf": "2152", "metodo": "CONTORNO_PDF", "situacao": "DERIV_PDF", "recortado": 1, "area_m2": 9937.511, "area_ha": 0.993751, "id_layer": "p15_camadas_dom_part", "doc_fonte": "Resposta SECT_autos.pdf", "doc_pagina": 15, "doc_folha": 108, "doc_escala": "1:15.000", "doc_metodo": "Reconstituição Vetorial Afim", "doc_rms_m": 0.68 }, "geometry": { "type": "Polygon", "coordinates": [ [ [ -59.938310495207766, -3.09493460443962 ], [ -59.938163652678853, -3.094504906992839 ], [ -59.936487020858394, -3.095142276448151 ], [ -59.936634721904142, -3.095564151362264 ], [ -59.938310495207766, -3.09493460443962 ] ] ] } },
{ "type": "Feature", "properties": { "id": 9, "pagina": 15, "classe": "Area de dominio particular", "rotulo": "Area de dominio particular", "seq_pdf": "2153", "metodo": "CONTORNO_PDF", "situacao": "DERIV_PDF", "recortado": 1, "area_m2": 10006.589, "area_ha": 1.000659, "id_layer": "p15_camadas_dom_part", "doc_fonte": "Resposta SECT_autos.pdf", "doc_pagina": 15, "doc_folha": 108, "doc_escala": "1:15.000", "doc_metodo": "Reconstituição Vetorial Afim", "doc_rms_m": 0.68 }, "geometry": { "type": "Polygon", "coordinates": [ [ [ -59.936777310109569, -3.095991079423725 ], [ -59.938472533519587, -3.095359710738971 ], [ -59.938325210484777, -3.094929215983281 ], [ -59.936641106214559, -3.09556613071663 ], [ -59.936777310109569, -3.095991079423725 ] ] ] } },
{ "type": "Feature", "properties": { "id": 10, "pagina": 15, "classe": "Area de dominio particular", "rotulo": "Area de dominio particular", "seq_pdf": "2154", "metodo": "CONTORNO_PDF", "situacao": "DERIV_PDF", "recortado": 1, "area_m2": 29771.568, "area_ha": 2.977157, "id_layer": "p15_camadas_dom_part", "doc_fonte": "Resposta SECT_autos.pdf", "doc_pagina": 15, "doc_folha": 108, "doc_escala": "1:15.000", "doc_metodo": "Reconstituição Vetorial Afim", "doc_rms_m": 0.68 }, "geometry": { "type": "Polygon", "coordinates": [ [ [ -59.938908342687078, -3.096645070713599 ], [ -59.938478810557143, -3.095352915201519 ], [ -59.936792928160763, -3.095990503730321 ], [ -59.937256260796403, -3.097260377747186 ], [ -59.938908342687078, -3.096645070713599 ] ] ] } },
{ "type": "Feature", "properties": { "id": 11, "pagina": 15, "classe": "Area de dominio particular", "rotulo": "Area de dominio particular", "seq_pdf": "2155", "metodo": "CONTORNO_PDF", "situacao": "DERIV_PDF", "recortado": 1, "area_m2": 193638.568, "area_ha": 19.363857, "id_layer": "p15_camadas_dom_part", "doc_fonte": "Resposta SECT_autos.pdf", "doc_pagina": 15, "doc_folha": 108, "doc_escala": "1:15.000", "doc_metodo": "Reconstituição Vetorial Afim", "doc_rms_m": 0.68 }, "geometry": { "type": "Polygon", "coordinates": [ [ [ -59.90420219577603, -3.102597440362995 ], [ -59.90225896410135, -3.102152945064376 ], [ -59.900315894923182, -3.10184146385754 ], [ -59.89893232549003, -3.10322288211792 ], [ -59.898922691897766, -3.103222908665843 ], [ -59.898002582835375, -3.103559781699521 ], [ -59.897693625564635, -3.103775213232711 ], [ -59.902803614963304, -3.103761122404583 ], [ -59.902807674121497, -3.105246968762526 ], [ -59.895554242399911, -3.105266972323202 ], [ -59.894576235962013, -3.105948919755363 ], [ -59.903453954127173, -3.105924432792643 ], [ -59.903971306382935, -3.104853392421792 ], [ -59.90420219577603, -3.102597440362995 ] ] ] } },
{ "type": "Feature", "properties": { "id": 12, "pagina": 15, "classe": "Area de dominio particular", "rotulo": "Area de dominio particular", "seq_pdf": "2156", "metodo": "CONTORNO_PDF", "situacao": "DERIV_PDF", "recortado": 1, "area_m2": 642680.578, "area_ha": 64.268058, "id_layer": "p15_camadas_dom_part", "doc_fonte": "Resposta SECT_autos.pdf", "doc_pagina": 15, "doc_folha": 108, "doc_escala": "1:15.000", "doc_metodo": "Reconstituição Vetorial Afim", "doc_rms_m": 0.68 }, "geometry": { "type": "Polygon", "coordinates": [ [ [ -59.904257777193983, -3.095922123505569 ], [ -59.901329945662454, -3.093446165224048 ], [ -59.89996874004995, -3.094135026890419 ], [ -59.899964543322795, -3.094135038426021 ], [ -59.898020544536024, -3.094527991319495 ], [ -59.898025182619264, -3.102485341295126 ], [ -59.901182149990909, -3.10203904019831 ], [ -59.901184372813006, -3.102039034070288 ], [ -59.904617168556271, -3.102964540101672 ], [ -59.904615812222644, -3.096227668815702 ], [ -59.904257777193983, -3.095922123505569 ] ] ] } },
{ "type": "Feature", "properties": { "id": 13, "pagina": 15, "classe": "Area de dominio particular", "rotulo": "Area de dominio particular", "seq_pdf": "2157", "metodo": "CONTORNO_PDF", "situacao": "DERIV_PDF", "recortado": 1, "area_m2": 485726.028, "area_ha": 48.572603, "id_layer": "p15_camadas_dom_part", "doc_fonte": "Resposta SECT_autos.pdf", "doc_pagina": 15, "doc_folha": 108, "doc_escala": "1:15.000", "doc_metodo": "Reconstituição Vetorial Afim", "doc_rms_m": 0.68 }, "geometry": { "type": "Polygon", "coordinates": [ [ [ -59.90566154522714, -3.09537891057703 ], [ -59.9030893508777, -3.093238951430839 ], [ -59.9026163302944, -3.093050255098417 ], [ -59.902549637821394, -3.093040865336974 ], [ -59.902392475990489, -3.093058858919476 ], [ -59.901832083627397, -3.093171419938037 ], [ -59.90095045874849, -3.09347237926235 ], [ -59.899875424906078, -3.094024886431163 ], [ -59.899870233215196, -3.094024900700668 ], [ -59.899496863569354, -3.0941283665379 ], [ -59.899059027119279, -3.094188840922066 ], [ -59.898391059171381, -3.094318238290348 ], [ -59.898121868531419, -3.094374997459778 ], [ -59.897984152335333, -3.103348696488777 ], [ -59.899603092009016, -3.102000959628057 ], [ -59.899619876794297, -3.102000913380335 ], [ -59.901495599369333, -3.102747420730332 ], [ -59.902188889402098, -3.095895174111547 ], [ -59.90220626854704, -3.095886379039388 ], [ -59.902814105700543, -3.096397145663473 ], [ -59.902973025961842, -3.095650625291412 ], [ -59.902984055866298, -3.095639475630616 ], [ -59.90566154522714, -3.09537891057703 ] ] ] } },
{ "type": "Feature", "properties": { "id": 14, "pagina": 15, "classe": "Area de dominio particular", "rotulo": "Area de dominio particular", "seq_pdf": "2158", "metodo": "CONTORNO_PDF", "situacao": "DERIV_PDF", "recortado": 1, "area_m2": 78370.843, "area_ha": 7.837084, "id_layer": "p15_camadas_dom_part", "doc_fonte": "Resposta SECT_autos.pdf", "doc_pagina": 15, "doc_folha": 108, "doc_escala": "1:15.000", "doc_metodo": "Reconstituição Vetorial Afim", "doc_rms_m": 0.68 }, "geometry": { "type": "Polygon", "coordinates": [ [ [ -59.937511890200938, -3.098905765626409 ], [ -59.937224650287334, -3.098643960122256 ], [ -59.936812530596761, -3.098105954888962 ], [ -59.936338929964698, -3.097207443217687 ], [ -59.936258908841232, -3.098437456641882 ], [ -59.936335902796962, -3.101828251204127 ], [ -59.936563952125873, -3.103308318733392 ], [ -59.937668649687211, -3.103269409931767 ], [ -59.937511890200938, -3.098905765626409 ] ] ] } },
{ "type": "Feature", "properties": { "id": 15, "pagina": 15, "classe": "Area de dominio particular", "rotulo": "Area de dominio particular", "seq_pdf": "2159", "metodo": "CONTORNO_PDF", "situacao": "DERIV_PDF", "recortado": 1, "area_m2": 324686.033, "area_ha": 32.468603, "id_layer": "p15_camadas_dom_part", "doc_fonte": "Resposta SECT_autos.pdf", "doc_pagina": 15, "doc_folha": 108, "doc_escala": "1:15.000", "doc_metodo": "Reconstituição Vetorial Afim", "doc_rms_m": 0.68 }, "geometry": { "type": "Polygon", "coordinates": [ [ [ -59.943436106576222, -3.104647802567755 ], [ -59.94345189786975, -3.104648645928731 ], [ -59.943434994421565, -3.098541014975433 ], [ -59.943103293362753, -3.098653193427265 ], [ -59.941972345848008, -3.099149031289331 ], [ -59.941013268770611, -3.099515749927328 ], [ -59.940334620114591, -3.099669342530267 ], [ -59.939409027814172, -3.099697303334943 ], [ -59.939404384160085, -3.099697316296088 ], [ -59.9386897181884, -3.099540687238475 ], [ -59.938683819152132, -3.099534790079097 ], [ -59.937970718437938, -3.099200387245212 ], [ -59.937966703206207, -3.099200398445054 ], [ -59.937510194653726, -3.098814274085265 ], [ -59.937664984538017, -3.103255357853163 ], [ -59.937655138092879, -3.103268632798734 ], [ -59.93656150910892, -3.103306313938413 ], [ -59.936606226103876, -3.103548421678676 ], [ -59.94292514797668, -3.103530760668971 ], [ -59.942937120758479, -3.107851856664583 ], [ -59.943421468501342, -3.104658902367629 ], [ -59.943436106576222, -3.104647802567755 ] ] ] } }
]
}
