{
"type": "FeatureCollection",
"name": "p15_camadas_uniao",
"crs": { "type": "name", "properties": { "name": "urn:ogc:def:crs:OGC:1.3:CRS84" } },
"features": [
{ "type": "Feature", "properties": { "id": 1, "pagina": 15, "classe": "Area matriculada em nome da Uniao Federal", "rotulo": "Area matriculada em nome da Uniao Federal", "seq_pdf": "739-900;8305-8307", "metodo": "COMP_PDF", "situacao": "DERIV_PDF", "recortado": 1, "area_m2": 967102.616, "area_ha": 96.710262, "id_layer": "p15_camadas_uniao", "doc_fonte": "Resposta SECT_autos.pdf", "doc_pagina": 15, "doc_folha": 108, "doc_escala": "1:15.000", "doc_metodo": "Reconstituição Vetorial Afim", "doc_rms_m": 0.68 }, "geometry": { "type": "Polygon", "coordinates": [ [ [ -59.937610968083533, -3.089773826790597 ], [ -59.940556113589452, -3.085735631447633 ], [ -59.940561834342304, -3.08573314784956 ], [ -59.941016207494933, -3.085112091191743 ], [ -59.941016184142725, -3.085103601274426 ], [ -59.940906084944999, -3.084993533200859 ], [ -59.940834584119479, -3.084907769172494 ], [ -59.940846658686752, -3.084883324263322 ], [ -59.938490512944902, -3.082283595577642 ], [ -59.938361360572024, -3.082133608411639 ], [ -59.935721318661251, -3.079209008905465 ], [ -59.935687536739742, -3.079209102456959 ], [ -59.935653797054293, -3.079226177017618 ], [ -59.932744724949423, -3.08096626846646 ], [ -59.932407891302958, -3.081332287972266 ], [ -59.929743172010745, -3.085949955571339 ], [ -59.929751710669812, -3.085983893272766 ], [ -59.934190267736014, -3.090666770233867 ], [ -59.934292746346642, -3.090511308719716 ], [ -59.934347033885594, -3.090541916297002 ], [ -59.934254996773241, -3.090739950631343 ], [ -59.93442319330196, -3.090908100384443 ], [ -59.934418983995947, -3.090912355448454 ], [ -59.934588351144505, -3.091081675283778 ], [ -59.934723925049965, -3.091234142185609 ], [ -59.934729869688717, -3.091228132919502 ], [ -59.934893344549586, -3.091411984338288 ], [ -59.935092361290614, -3.091610939066289 ], [ -59.935088148864402, -3.091615197292311 ], [ -59.935181311488833, -3.091708331837485 ], [ -59.935392914753692, -3.091601237844427 ], [ -59.935411080269958, -3.091643411632162 ], [ -59.936413179133851, -3.091254917326761 ], [ -59.936418544333613, -3.091250268616463 ], [ -59.936556617926506, -3.091203576199046 ], [ -59.936573462337357, -3.091186549326858 ], [ -59.936607104425782, -3.091135513523722 ], [ -59.936573228781775, -3.091101647740945 ], [ -59.936682725936173, -3.090990966507195 ], [ -59.936825884292816, -3.090837741689013 ], [ -59.937002591226964, -3.090599521318949 ], [ -59.937001116595532, -3.090596576013224 ], [ -59.937103568429187, -3.090463393866168 ], [ -59.937061340635516, -3.09046351128755 ], [ -59.93691958091469, -3.090511454283678 ], [ -59.936989290770612, -3.090370318256717 ], [ -59.937145539949391, -3.090369883795268 ], [ -59.937179279032698, -3.090352808877177 ], [ -59.937610968083533, -3.089773826790597 ] ] ] } },
{ "type": "Feature", "properties": { "id": 2, "pagina": 15, "classe": "Area matriculada em nome da Uniao Federal", "rotulo": "Area matriculada em nome da Uniao Federal", "seq_pdf": "739-900;8305-8307", "metodo": "COMP_PDF", "situacao": "DERIV_PDF", "recortado": 1, "area_m2": 4417353.389, "area_ha": 441.735339, "id_layer": "p15_camadas_uniao", "doc_fonte": "Resposta SECT_autos.pdf", "doc_pagina": 15, "doc_folha": 108, "doc_escala": "1:15.000", "doc_metodo": "Reconstituição Vetorial Afim", "doc_rms_m": 0.68 }, "geometry": { "type": "Polygon", "coordinates": [ [ [ -59.92586829907011, -3.0897049656094 ], [ -59.925927004013381, -3.089551974820904 ], [ -59.925977402918491, -3.089449948701464 ], [ -59.925976527169105, -3.089130356250485 ], [ -59.925996172984661, -3.089127097105784 ], [ -59.926010413392596, -3.089169673331093 ], [ -59.925981528911279, -3.088870495969184 ], [ -59.925962549732922, -3.088871499711941 ], [ -59.925950177352476, -3.088762299308637 ], [ -59.925873580890624, -3.088550250311043 ], [ -59.925763087850576, -3.088295843537321 ], [ -59.925405822162645, -3.087371373643217 ], [ -59.925354772197657, -3.087235666795267 ], [ -59.92535474895665, -3.0872271778383 ], [ -59.925303842778064, -3.087142413344722 ], [ -59.9252698721969, -3.087074584352466 ], [ -59.925227455998716, -3.087006777638797 ], [ -59.92510881790492, -3.08686276867799 ], [ -59.925074942458188, -3.086828899808385 ], [ -59.925032619247354, -3.086795055381458 ], [ -59.925032596006318, -3.086786564262645 ], [ -59.924990272798247, -3.086752719831144 ], [ -59.92493105620153, -3.08671892211917 ], [ -59.924804088740771, -3.086617387696992 ], [ -59.924702599719112, -3.086566725573669 ], [ -59.924626540504605, -3.086549955695514 ], [ -59.92458430809581, -3.086550072482475 ], [ -59.924516717728785, -3.086541768202266 ], [ -59.924364666826335, -3.086533698541286 ], [ -59.923967612317625, -3.086500834835196 ], [ -59.923790201237168, -3.086484344001853 ], [ -59.923621212539338, -3.086459339736862 ], [ -59.92328318864682, -3.086392349918393 ], [ -59.923097260048898, -3.086350412128199 ], [ -59.92267463613296, -3.086232714045658 ], [ -59.922032068839599, -3.085988264952189 ], [ -59.921490828152521, -3.085735045229435 ], [ -59.921446186277358, -3.085735168514312 ], [ -59.921304716005281, -3.085625183159736 ], [ -59.921304692805599, -3.085616693091991 ], [ -59.921076303929183, -3.085489966334275 ], [ -59.920594048017762, -3.085185640941126 ], [ -59.920238666685911, -3.084948887133622 ], [ -59.919637980135711, -3.084576964328462 ], [ -59.919341840881884, -3.084382499284701 ], [ -59.918343450756403, -3.083739975148982 ], [ -59.917167397410239, -3.082987561452665 ], [ -59.917023583427593, -3.082903052244059 ], [ -59.91665124226737, -3.082640872500728 ], [ -59.916481952540977, -3.082505490669392 ], [ -59.91628723334501, -3.08233621649621 ], [ -59.916109403357588, -3.082166895185684 ], [ -59.916100957705126, -3.082166918439843 ], [ -59.915762306990366, -3.081870683388913 ], [ -59.915576033646659, -3.081701385615973 ], [ -59.915245851959398, -3.081413616448381 ], [ -59.91505115622536, -3.08125283232395 ], [ -59.914839497738491, -3.081066623152739 ], [ -59.914441610354515, -3.080728096344134 ], [ -59.914119853884394, -3.080431812885443 ], [ -59.913527225363957, -3.079915519168539 ], [ -59.913315521155596, -3.079712328923906 ], [ -59.913112264823127, -3.079509114263683 ], [ -59.912993649804996, -3.07937359170985 ], [ -59.912790276030613, -3.079127924585834 ], [ -59.912688510544982, -3.078975374689561 ], [ -59.912603726577132, -3.078856739439213 ], [ -59.912459543979736, -3.078636381694267 ], [ -59.912357730323322, -3.078466850327847 ], [ -59.912255893642396, -3.078288828782754 ], [ -59.912077490324471, -3.077907243951501 ], [ -59.911950014843562, -3.077618915171465 ], [ -59.911890408790811, -3.077440777512915 ], [ -59.911788134230292, -3.077101436317357 ], [ -59.911702707144883, -3.076745067591473 ], [ -59.911668438230905, -3.076566860031164 ], [ -59.911642591941444, -3.076380138870734 ], [ -59.911633846597866, -3.076269785736376 ], [ -59.897131998520528, -3.076309478623112 ], [ -59.897056147347229, -3.076369120218386 ], [ -59.896929613063449, -3.076428900326218 ], [ -59.896676874142365, -3.076667328954334 ], [ -59.896618097927842, -3.076794849333259 ], [ -59.896576254810327, -3.076939304938197 ], [ -59.896408042155528, -3.077202974926853 ], [ -59.896231020939418, -3.07733081793092 ], [ -59.896231043879716, -3.077339308729806 ], [ -59.896155234160773, -3.077415931852299 ], [ -59.896070932784234, -3.077475596438783 ], [ -59.896062601717347, -3.077518072959443 ], [ -59.897225434673857, -3.079629071475613 ], [ -59.897267851258412, -3.079696880256404 ], [ -59.897274589019297, -3.082167280422897 ], [ -59.897287551277707, -3.093196974291367 ], [ -59.897304539599958, -3.093230888899858 ], [ -59.898632278580664, -3.093847060853603 ], [ -59.899004260542355, -3.093973397685725 ], [ -59.899401303028874, -3.093997779721746 ], [ -59.899544771681512, -3.093954931818256 ], [ -59.899578508983062, -3.093937858513081 ], [ -59.899958239554593, -3.093809454024923 ], [ -59.900253538690976, -3.093689774004794 ], [ -59.900270384230481, -3.093672747124103 ], [ -59.900278830093022, -3.09367272390983 ], [ -59.900278791598794, -3.093658571374 ], [ -59.900337858749751, -3.093638598346651 ], [ -59.900388445841401, -3.093604498145838 ], [ -59.900540244673429, -3.093519173700313 ], [ -59.900607723458776, -3.093485024911041 ], [ -59.900700539815851, -3.093450808633042 ], [ -59.90075112257437, -3.093416706286692 ], [ -59.900908785065639, -3.092380417115564 ], [ -59.900744892495503, -3.092463357681601 ], [ -59.900733227522991, -3.092447181771758 ], [ -59.900925330422112, -3.092253010898687 ], [ -59.900933637737865, -3.09220204420305 ], [ -59.900928811750575, -3.09220205746447 ], [ -59.900983250874958, -3.091811338737884 ], [ -59.900991673560711, -3.091802825167183 ], [ -59.901049217031641, -3.091359759952707 ], [ -59.901058021113236, -3.091352639469402 ], [ -59.901081310361413, -3.091145803851247 ], [ -59.901107661757585, -3.090970425217708 ], [ -59.901046597747204, -3.091032146539273 ], [ -59.901165744025057, -3.090588186728888 ], [ -59.901182265656189, -3.090452296815917 ], [ -59.901439388924594, -3.088719498707593 ], [ -59.901493948931545, -3.088295073693446 ], [ -59.901572685976447, -3.087757375700299 ], [ -59.9015803470948, -3.087751179821699 ], [ -59.901641011498839, -3.087284053292426 ], [ -59.901829026502831, -3.086018410258081 ], [ -59.901826672734458, -3.086020313850758 ], [ -59.90192464011696, -3.085375652958314 ], [ -59.901987868687556, -3.085415139955395 ], [ -59.901989847678358, -3.085412137883982 ], [ -59.902224751036648, -3.085558830268228 ], [ -59.902229629137025, -3.085553899460675 ], [ -59.902507457817826, -3.085715802704998 ], [ -59.902503912734119, -3.085719386095187 ], [ -59.902706942859155, -3.085837698236308 ], [ -59.902709048449353, -3.085835569802887 ], [ -59.902952271083173, -3.085981365028513 ], [ -59.902953618306633, -3.08597932193222 ], [ -59.903226534046652, -3.086138358353545 ], [ -59.903222987098424, -3.086141943634543 ], [ -59.903472419275936, -3.086281463013875 ], [ -59.903468315390455, -3.086285611253443 ], [ -59.903671345611983, -3.086403921924765 ], [ -59.903953607318748, -3.086559769500949 ], [ -59.903950503213082, -3.086564476963063 ], [ -59.904190935476642, -3.08670458372097 ], [ -59.904187390112888, -3.086708167408481 ], [ -59.904390420409008, -3.086826477788983 ], [ -59.904395296621175, -3.08682154886485 ], [ -59.904673127766259, -3.0869834487281 ], [ -59.904669582405631, -3.08698703241654 ], [ -59.905637529150432, -3.087549668356493 ], [ -59.905633981836196, -3.087553253420009 ], [ -59.90583701228072, -3.087671563216076 ], [ -59.905839118908162, -3.087669433898915 ], [ -59.906082345195372, -3.087815229544416 ], [ -59.90608369096217, -3.087813188120189 ], [ -59.906356604667927, -3.087972221402315 ], [ -59.90635305735826, -3.087975806467247 ], [ -59.906564533648336, -3.088094092749588 ], [ -59.9065665138477, -3.088091089829626 ], [ -59.906801420882267, -3.088237781948237 ], [ -59.907084682774808, -3.088394187003702 ], [ -59.907080578916158, -3.088398335251541 ], [ -59.907207477738751, -3.088474401604446 ], [ -59.907170061005857, -3.088691014217188 ], [ -59.907165849767537, -3.088695270935674 ], [ -59.906969663944516, -3.089659820499444 ], [ -59.906965777587175, -3.08966374853029 ], [ -59.906957123458426, -3.089722465972206 ], [ -59.906974477659375, -3.089757120466955 ], [ -59.907126714081009, -3.089833116964152 ], [ -59.907128488089533, -3.089831324068876 ], [ -59.907388861245259, -3.089951260302694 ], [ -59.907642602972309, -3.090077923785775 ], [ -59.907644375419686, -3.090076132162454 ], [ -59.907945256381147, -3.090214727290845 ], [ -59.907938606962581, -3.09022144836851 ], [ -59.908158483324705, -3.09032273015295 ], [ -59.908161292349902, -3.090319890733812 ], [ -59.908454491646687, -3.090466255527749 ], [ -59.908674368026361, -3.090567536030245 ], [ -59.908677176605181, -3.09056469766067 ], [ -59.90897037637707, -3.090711060049329 ], [ -59.909236541004589, -3.090833664407141 ], [ -59.909232551075036, -3.090837696663343 ], [ -59.909452483419415, -3.090939004781319 ], [ -59.909706160738551, -3.091065637584202 ], [ -59.909707845250765, -3.091063934911586 ], [ -59.909964928180393, -3.091182092430521 ], [ -59.91044024142542, -3.091528363401496 ], [ -59.910622830568869, -3.091731184146703 ], [ -59.910620169720772, -3.091733873687024 ], [ -59.910818260034127, -3.09194233711456 ], [ -59.910959034770713, -3.092106522727112 ], [ -59.910964797221915, -3.09210069813327 ], [ -59.911173471686354, -3.092332496893855 ], [ -59.911170833575824, -3.092335163455508 ], [ -59.91137492837408, -3.092549689286072 ], [ -59.911537744903093, -3.092730548013775 ], [ -59.911535105685978, -3.092733215922777 ], [ -59.911739206223459, -3.092947747062498 ], [ -59.911992518721796, -3.09322442555121 ], [ -59.912385416440166, -3.093384699299139 ], [ -59.91264358969341, -3.093485835719331 ], [ -59.912646128542654, -3.093481984244721 ], [ -59.913125527989841, -3.093671296093576 ], [ -59.913220500490453, -3.094426693362054 ], [ -59.913278943018277, -3.094812034847532 ], [ -59.91327224466842, -3.09481711438929 ], [ -59.913327917590138, -3.095190563582123 ], [ -59.913401581572934, -3.095784677734441 ], [ -59.913436016877242, -3.096022318710333 ], [ -59.913469869657987, -3.096047697897238 ], [ -59.913607770751412, -3.096027500996562 ], [ -59.913596537453152, -3.09603885552851 ], [ -59.914017590222564, -3.095996385715904 ], [ -59.914010304939652, -3.096003749161492 ], [ -59.914431358367537, -3.095961281753981 ], [ -59.914424074400735, -3.095968644811144 ], [ -59.914844046317995, -3.095927264638469 ], [ -59.914837839382685, -3.095933538176423 ], [ -59.915257811915538, -3.095892160589546 ], [ -59.91525160633708, -3.095898433558506 ], [ -59.915606273842442, -3.095871980235312 ], [ -59.91561080839891, -3.095867396432098 ], [ -59.916020040461149, -3.095836873202741 ], [ -59.916024573183464, -3.095832291541491 ], [ -59.916433804758647, -3.09580176819857 ], [ -59.916438342281218, -3.095797181681772 ], [ -59.916847571019119, -3.095766660892518 ], [ -59.916852106568065, -3.095762076658651 ], [ -59.917261339254267, -3.095731555602995 ], [ -59.917265108512474, -3.095727744913368 ], [ -59.918088868732305, -3.095661340313213 ], [ -59.918092636282346, -3.095657532071295 ], [ -59.918502632128479, -3.095626232466146 ], [ -59.918506519545261, -3.095622303309737 ], [ -59.918924843236603, -3.095591103257878 ], [ -59.918929378076584, -3.095586519431835 ], [ -59.919338608418968, -3.095555995128509 ], [ -59.919343421744223, -3.095551130423841 ], [ -59.919651043625628, -3.095529659715345 ], [ -59.919676264506741, -3.095487137013087 ], [ -59.919497652281294, -3.095032997955875 ], [ -59.919380837675938, -3.094747023955494 ], [ -59.919293496065492, -3.094503298733046 ], [ -59.919813211942063, -3.094361096992622 ], [ -59.919808334621344, -3.094366027252768 ], [ -59.920247224691352, -3.094254436297918 ], [ -59.920255207255252, -3.094246367904152 ], [ -59.920780725811092, -3.094110162330638 ], [ -59.921034772958784, -3.094275715816511 ], [ -59.921032778056343, -3.094277731932205 ], [ -59.921272279365994, -3.094427287032225 ], [ -59.921269689610661, -3.09442990477159 ], [ -59.921464296399733, -3.094556722110018 ], [ -59.921467664947933, -3.094553317160776 ], [ -59.921701203728098, -3.094708894745639 ], [ -59.921703582309348, -3.094705287095173 ], [ -59.921965493048539, -3.094875961479241 ], [ -59.921963496922629, -3.094877979349116 ], [ -59.922202384496615, -3.095027148114088 ], [ -59.922200404331889, -3.095030151735984 ], [ -59.922395013395423, -3.095156968685449 ], [ -59.922397604306738, -3.095154349548454 ], [ -59.922667730950927, -3.095323026442074 ], [ -59.922665752416293, -3.095326027340047 ], [ -59.922896209221811, -3.09547620839453 ], [ -59.922894216378495, -3.095478222779765 ], [ -59.923097271241424, -3.095605016031686 ], [ -59.923099648953929, -3.095601409225788 ], [ -59.923330154939158, -3.095751617855989 ], [ -59.923596264797496, -3.095849856791472 ], [ -59.923587721612719, -3.095815917866295 ], [ -59.923570713727734, -3.095773512296273 ], [ -59.923519596917977, -3.0956123353794 ], [ -59.923401795723436, -3.095288688444787 ], [ -59.923405855348534, -3.095284585005262 ], [ -59.923295492483845, -3.095001604839402 ], [ -59.923237230037969, -3.094827504058042 ], [ -59.92323871000427, -3.094823503048332 ], [ -59.923225951197907, -3.094793800428967 ], [ -59.923202539395106, -3.094723840847868 ], [ -59.923204645645512, -3.09472171173948 ], [ -59.923128026855117, -3.094501170232905 ], [ -59.923127776581453, -3.09440990009937 ], [ -59.923132250660792, -3.094411759572564 ], [ -59.923153063435485, -3.094390727177759 ], [ -59.923186592269325, -3.094297238669498 ], [ -59.923060746150227, -3.094424445078419 ], [ -59.922908432299145, -3.094253146445026 ], [ -59.923039462861446, -3.094116285589514 ], [ -59.923194968117855, -3.094271742951966 ], [ -59.923253599085541, -3.094093281574471 ], [ -59.923250569967934, -3.094092275839404 ], [ -59.923347819880512, -3.093810480667917 ], [ -59.923354160179876, -3.093804328219057 ], [ -59.923379315311252, -3.093736333283361 ], [ -59.923376309526304, -3.093735254928249 ], [ -59.923504978556643, -3.093362404972793 ], [ -59.923502380930259, -3.093361759837209 ], [ -59.923551023027684, -3.093213695559493 ], [ -59.923555235838229, -3.093209437212619 ], [ -59.923633842231368, -3.092970180939299 ], [ -59.923639045252386, -3.092971473224444 ], [ -59.923706056406566, -3.09276751624668 ], [ -59.923659472078207, -3.092720950473072 ], [ -59.923663686226675, -3.092716690774669 ], [ -59.923591438318454, -3.092653495944601 ], [ -59.923730695256687, -3.092512733820479 ], [ -59.923781511096308, -3.092563535900798 ], [ -59.923798241689774, -3.092504056613975 ], [ -59.923865760550079, -3.092486889368862 ], [ -59.923957893403241, -3.092532867502856 ], [ -59.923950407781405, -3.092554577945319 ], [ -59.923957229094157, -3.09255982259152 ], [ -59.923833116129373, -3.092903012546501 ], [ -59.923835140679813, -3.092900966112099 ], [ -59.923673945242626, -3.093378919243819 ], [ -59.92368241420327, -3.09338738589301 ], [ -59.923732929652836, -3.093327812988389 ], [ -59.923868437086405, -3.093463283401737 ], [ -59.923733674581136, -3.093599505321589 ], [ -59.92364051167722, -3.093506367889637 ], [ -59.923623641437004, -3.093514904744041 ], [ -59.923539834243833, -3.093752870926173 ], [ -59.923546007444614, -3.093755436443412 ], [ -59.923472823157859, -3.093956825820036 ], [ -59.923296854089763, -3.094466741930806 ], [ -59.92337287147997, -3.094466531271555 ], [ -59.923263371842935, -3.094577210541029 ], [ -59.92329741290304, -3.094670511793214 ], [ -59.92330028716448, -3.094662252785038 ], [ -59.923339946244546, -3.094780769738827 ], [ -59.923433551833398, -3.09503522454325 ], [ -59.923435656766792, -3.095033096854871 ], [ -59.923510170797911, -3.095255761610655 ], [ -59.923612317586624, -3.095544155251878 ], [ -59.923727793164737, -3.095859166192205 ], [ -59.923748431535074, -3.095900377702752 ], [ -59.923924826372897, -3.095972821273801 ], [ -59.924145813964927, -3.096052104179739 ], [ -59.924162660907314, -3.096035075079426 ], [ -59.924170920196694, -3.095967129142681 ], [ -59.92417080369529, -3.095924678921177 ], [ -59.924179086283665, -3.095865220870549 ], [ -59.92417852709066, -3.095661453330456 ], [ -59.92418697278849, -3.095661429909949 ], [ -59.924205685332844, -3.095299119003534 ], [ -59.924211310213437, -3.095296272632695 ], [ -59.924219078180165, -3.095050027147104 ], [ -59.924227341813101, -3.094982081207166 ], [ -59.924220539289351, -3.094988956403978 ], [ -59.924251840323286, -3.094676356425853 ], [ -59.924243394633741, -3.094676379839433 ], [ -59.924256416845303, -3.094478615159189 ], [ -59.924183389363101, -3.094471558379724 ], [ -59.924200276843919, -3.094353862279442 ], [ -59.92420002066234, -3.094260467473273 ], [ -59.92421689089543, -3.094251930602872 ], [ -59.92424987824937, -3.093963193985767 ], [ -59.924296338734131, -3.093726264434124 ], [ -59.924283274276917, -3.093723349433078 ], [ -59.924325080395406, -3.093401390605646 ], [ -59.924318852025664, -3.093400365970832 ], [ -59.924332555088462, -3.093309164042446 ], [ -59.924340974569915, -3.093300655705332 ], [ -59.924433206126366, -3.093054176210512 ], [ -59.924432880181101, -3.092935306973465 ], [ -59.924466753868046, -3.092969180020504 ], [ -59.92465131011101, -3.092510183471799 ], [ -59.924785492818643, -3.092161702276007 ], [ -59.925238699222966, -3.091124698803338 ], [ -59.925431833122204, -3.090699555898514 ], [ -59.92543178657197, -3.090682572588231 ], [ -59.925448605912791, -3.090657056782112 ], [ -59.925532461638063, -3.090436073297576 ], [ -59.925549283121612, -3.090410556409872 ], [ -59.925624786277936, -3.090223556482072 ], [ -59.925616294096955, -3.090206599804655 ], [ -59.925641561216317, -3.090181057370878 ], [ -59.925726022907917, -3.089981436720618 ], [ -59.925742378033839, -3.089985499422658 ], [ -59.92586829907011, -3.0897049656094 ] ] ] } },
{ "type": "Feature", "properties": { "id": 3, "pagina": 15, "classe": "Area matriculada em nome da Uniao Federal", "rotulo": "Area matriculada em nome da Uniao Federal", "seq_pdf": "739-900;8305-8307", "metodo": "COMP_PDF", "situacao": "DERIV_PDF", "recortado": 1, "area_m2": 1163098.047, "area_ha": 116.309805, "id_layer": "p15_camadas_uniao", "doc_fonte": "Resposta SECT_autos.pdf", "doc_pagina": 15, "doc_folha": 108, "doc_escala": "1:15.000", "doc_metodo": "Reconstituição Vetorial Afim", "doc_rms_m": 0.68 }, "geometry": { "type": "Polygon", "coordinates": [ [ [ -59.936292513201195, -3.102632339577005 ], [ -59.936368762939829, -3.102717031248666 ], [ -59.936374107541987, -3.102711628245185 ], [ -59.936614399250722, -3.102971054702815 ], [ -59.936673452815711, -3.102945419817806 ], [ -59.936595373941842, -3.10219848632564 ], [ -59.936592248610545, -3.102202699874317 ], [ -59.936556124334658, -3.101838005131073 ], [ -59.936560583147767, -3.101833497693022 ], [ -59.936534519448109, -3.101570369178474 ], [ -59.936530027592717, -3.101574909440616 ], [ -59.936517159317923, -3.101400610846031 ], [ -59.936516573317235, -3.101188353480621 ], [ -59.936526544899642, -3.10079972696127 ], [ -59.936327116905261, -3.100650238671254 ], [ -59.936355638777819, -3.10060355543983 ], [ -59.93652364045186, -3.100687401314034 ], [ -59.936523078023832, -3.100483636054742 ], [ -59.936538211934419, -3.09984681684298 ], [ -59.936537063978378, -3.099430792054765 ], [ -59.936544713157303, -3.099142097276581 ], [ -59.936543588886053, -3.098734564595604 ], [ -59.936560445249967, -3.098021254408633 ], [ -59.936430288510039, -3.097464722698722 ], [ -59.936430255729832, -3.097452834177156 ], [ -59.936396094409474, -3.097317084787122 ], [ -59.93637916571813, -3.097303547063516 ], [ -59.93637896908573, -3.097232228021492 ], [ -59.936371895574062, -3.097235808010898 ], [ -59.936250735789287, -3.09667222255935 ], [ -59.936244295989255, -3.096678732142084 ], [ -59.936173831722854, -3.096349803139019 ], [ -59.936102315918347, -3.096065573956912 ], [ -59.936105471280555, -3.096061319948651 ], [ -59.935924215369901, -3.096122617148335 ], [ -59.935899648088672, -3.096063459112954 ], [ -59.936088314103301, -3.095967973205652 ], [ -59.936042202432866, -3.095784708314989 ], [ -59.936045571355365, -3.095781303178756 ], [ -59.935973513827022, -3.095505069014673 ], [ -59.935977230223109, -3.095501312034315 ], [ -59.93592592074031, -3.095272215715491 ], [ -59.935921326815631, -3.095276859412419 ], [ -59.935846701135127, -3.094943628019286 ], [ -59.935848998162655, -3.094941306105898 ], [ -59.935797688836693, -3.094712207567477 ], [ -59.935792872878466, -3.094715859801604 ], [ -59.935718469431194, -3.094383619619716 ], [ -59.935720766495152, -3.094381297867993 ], [ -59.93564870940321, -3.09410506325269 ], [ -59.935652425866955, -3.094101306529008 ], [ -59.935592530930961, -3.093821289492922 ], [ -59.935522510191724, -3.093543000775538 ], [ -59.935472862517003, -3.093303711573371 ], [ -59.935466422060124, -3.093310221792269 ], [ -59.935338214792829, -3.092714001002326 ], [ -59.935319108324236, -3.092675851522837 ], [ -59.935186017332484, -3.092501893478288 ], [ -59.93519192954426, -3.092497908179555 ], [ -59.935158049439167, -3.092464040126346 ], [ -59.93512436159822, -3.092498092824235 ], [ -59.934992249850922, -3.092366002833905 ], [ -59.93503934397021, -3.092294563181268 ], [ -59.935030851663363, -3.092277606739075 ], [ -59.934903673003511, -3.092099661109454 ], [ -59.934818909188138, -3.091989522064791 ], [ -59.934764387463311, -3.092007962350509 ], [ -59.93471611309598, -3.09194936636111 ], [ -59.934751083277867, -3.091896315972425 ], [ -59.934623974799223, -3.09174384227408 ], [ -59.934623951447549, -3.091735352308785 ], [ -59.934622750593924, -3.091737174024383 ], [ -59.934435078263519, -3.091526115780786 ], [ -59.93443755615813, -3.091523610948428 ], [ -59.934327409000019, -3.091396561169643 ], [ -59.93410297270237, -3.091172190378491 ], [ -59.934107184805484, -3.091167932488642 ], [ -59.934081778015717, -3.091142532977725 ], [ -59.93408054861613, -3.091145021951562 ], [ -59.93407417954753, -3.091139109590359 ], [ -59.934034355676147, -3.091301149461259 ], [ -59.93384289628878, -3.091494681839072 ], [ -59.933834412306261, -3.09148881937587 ], [ -59.934015026801028, -3.091084198507352 ], [ -59.933895499661226, -3.090973242251061 ], [ -59.933590722133857, -3.090710886933993 ], [ -59.933353747058021, -3.09053324672907 ], [ -59.933099876569827, -3.090355654389712 ], [ -59.933099853237813, -3.09034716333305 ], [ -59.932905273808608, -3.090228838695374 ], [ -59.932702197864991, -3.090093556398962 ], [ -59.931915534265414, -3.089662730157336 ], [ -59.931492631324247, -3.089443152525094 ], [ -59.931035852844616, -3.089189708290682 ], [ -59.929978549335125, -3.088623782347924 ], [ -59.929919309391622, -3.088581494085953 ], [ -59.929758768849261, -3.088556468920314 ], [ -59.929488543324076, -3.088574198093898 ], [ -59.929404106296182, -3.088582922201084 ], [ -59.929285933425177, -3.088608722106735 ], [ -59.929193097343628, -3.088634449623573 ], [ -59.929066548688219, -3.088685742946903 ], [ -59.92905810308261, -3.088685766353649 ], [ -59.928893519198645, -3.08878370640272 ], [ -59.928915293470197, -3.088805474777184 ], [ -59.928476541049889, -3.089128881416143 ], [ -59.928476610899423, -3.089154351453819 ], [ -59.928442828443771, -3.089154445075745 ], [ -59.928375081526127, -3.089207715503548 ], [ -59.928097099799068, -3.089359173693295 ], [ -59.928021182363096, -3.08939334655102 ], [ -59.927911501419835, -3.089436101970174 ], [ -59.927835556382817, -3.089461783740277 ], [ -59.927717359944829, -3.089479091421719 ], [ -59.927658236292622, -3.089479255246047 ], [ -59.927387921191873, -3.089463024043042 ], [ -59.927007664645977, -3.089396154640228 ], [ -59.926830251329442, -3.089379664829464 ], [ -59.926745818316867, -3.089388388793553 ], [ -59.926636063089681, -3.08940567406072 ], [ -59.926534830256301, -3.089444156086229 ], [ -59.926464105226529, -3.089479948181114 ], [ -59.926467939030054, -3.089469583699984 ], [ -59.926384201962819, -3.089501414981564 ], [ -59.926393544950194, -3.089527713538174 ], [ -59.926281915433563, -3.089618915903372 ], [ -59.926281938702928, -3.089627405932539 ], [ -59.9261724436656, -3.089738084739483 ], [ -59.926138893827662, -3.089823082926762 ], [ -59.92595419820627, -3.090231135272182 ], [ -59.925828347088647, -3.090537139228625 ], [ -59.925551419977126, -3.09119167091449 ], [ -59.925375102261839, -3.091574228996431 ], [ -59.925207323302686, -3.091990726074006 ], [ -59.925031098672164, -3.09240724557025 ], [ -59.924796169142226, -3.092976757284589 ], [ -59.924737606108756, -3.093180690732805 ], [ -59.92466233802174, -3.09345259349828 ], [ -59.924667389133774, -3.093447487517267 ], [ -59.924612313846737, -3.093690465902291 ], [ -59.924587463711788, -3.093868833483684 ], [ -59.92459027133453, -3.093865995506218 ], [ -59.924562941809349, -3.094166065966938 ], [ -59.924563314475016, -3.094301913110178 ], [ -59.924555171590313, -3.094412311382782 ], [ -59.924773592839905, -3.094466560516047 ], [ -59.924768978819912, -3.094505114090209 ], [ -59.924555429963497, -3.094505706152972 ], [ -59.924547121891266, -3.09455667198283 ], [ -59.924547401421336, -3.094658556800325 ], [ -59.924539771081662, -3.09495574463079 ], [ -59.924545204799436, -3.094950252161731 ], [ -59.924520760908166, -3.095375116111635 ], [ -59.9245155989179, -3.095380334248484 ], [ -59.924504992393906, -3.095789791361018 ], [ -59.924491986178687, -3.096008693522471 ], [ -59.924483654849368, -3.096051167164213 ], [ -59.92446732277665, -3.096254983660208 ], [ -59.924492755252572, -3.096288875698564 ], [ -59.924932111942162, -3.096347089746072 ], [ -59.925119897167072, -3.096365440144741 ], [ -59.925802355949223, -3.096455050561105 ], [ -59.92580694597882, -3.096448862481064 ], [ -59.92641068127633, -3.096529775076561 ], [ -59.926415271106379, -3.096523587651702 ], [ -59.927069703798495, -3.096612850636883 ], [ -59.927376919170818, -3.09664287051227 ], [ -59.927373854542466, -3.096645968561803 ], [ -59.927678028624541, -3.096687574248663 ], [ -59.927694919983473, -3.096687527336044 ], [ -59.928109312173483, -3.096881656806895 ], [ -59.92811154164211, -3.096879403213675 ], [ -59.928386152768432, -3.09701049253298 ], [ -59.928379960194739, -3.097016752649719 ], [ -59.928620342135943, -3.097121022336597 ], [ -59.9286167511953, -3.097126470048527 ], [ -59.92903961248237, -3.097329065367014 ], [ -59.929041841818879, -3.097326811711568 ], [ -59.929504748877491, -3.097548522982083 ], [ -59.929506979883335, -3.097546267636674 ], [ -59.929969889608984, -3.097767980195606 ], [ -59.929972118941627, -3.097765726539191 ], [ -59.930206680677301, -3.097877696919729 ], [ -59.930209487953512, -3.097874859012439 ], [ -59.930435026085995, -3.097987437031895 ], [ -59.930437255545151, -3.097985183436275 ], [ -59.930671817173739, -3.098097153558342 ], [ -59.930674626451328, -3.098094313865557 ], [ -59.931026746079098, -3.098270080658259 ], [ -59.931029652768174, -3.098265387963411 ], [ -59.931181845484765, -3.098338036691342 ], [ -59.931179256464645, -3.09834196444393 ], [ -59.931415004611864, -3.098444220666831 ], [ -59.93140760191929, -3.098451704153122 ], [ -59.931602117969305, -3.098544557801199 ], [ -59.931604347295291, -3.098542304143116 ], [ -59.93206725459337, -3.098764013267408 ], [ -59.932069485560298, -3.098761758330395 ], [ -59.932532395553935, -3.098983468331866 ], [ -59.93253462487619, -3.098981214672746 ], [ -59.932769186731718, -3.099093183966415 ], [ -59.932771994154187, -3.099090346135249 ], [ -59.932912954393025, -3.099160706161595 ], [ -59.933179742782123, -3.09942741009606 ], [ -59.933175531431054, -3.099431667067009 ], [ -59.933349152493115, -3.099605237276119 ], [ -59.933344940333882, -3.099609494705129 ], [ -59.933488922987145, -3.099753428620117 ], [ -59.933529293095567, -3.099692188732739 ], [ -59.933674970137162, -3.099837815037573 ], [ -59.93366654788457, -3.099846328535928 ], [ -59.933675018350698, -3.099854796918073 ], [ -59.933624432318034, -3.099888896046252 ], [ -59.933687955548379, -3.099952395566231 ], [ -59.933683743484629, -3.09995665326355 ], [ -59.9338531765463, -3.100126036293638 ], [ -59.933997178433138, -3.100278459963538 ], [ -59.934196167402824, -3.100477383914893 ], [ -59.934191956059479, -3.100481640889943 ], [ -59.934534967945204, -3.100824544509829 ], [ -59.934530755884836, -3.100828802574587 ], [ -59.934827186289439, -3.101125138377376 ], [ -59.93486106297226, -3.101073752920792 ], [ -59.934869297473711, -3.10108257299088 ], [ -59.934894541659773, -3.101048536947936 ], [ -59.935034291580955, -3.101188242783333 ], [ -59.934979531877715, -3.101243591258441 ], [ -59.934954254615761, -3.101260633153881 ], [ -59.93504318255593, -3.101349536219328 ], [ -59.935038973225531, -3.101353791530248 ], [ -59.935182952059051, -3.101497726935739 ], [ -59.935188056422966, -3.101492566812459 ], [ -59.935521752145981, -3.101844885913953 ], [ -59.935527695926922, -3.101838877707598 ], [ -59.935691166147222, -3.102022712413298 ], [ -59.935696270506448, -3.102017552287473 ], [ -59.936029966575717, -3.102369870906746 ], [ -59.936035459269696, -3.102364318669064 ], [ -59.936157007464054, -3.102496870988395 ], [ -59.936249653776578, -3.102403220304432 ], [ -59.936292020795896, -3.102454041975835 ], [ -59.936296233509132, -3.102449783592189 ], [ -59.936385166117638, -3.102538684348302 ], [ -59.936313571900548, -3.102611054740214 ], [ -59.936309338476676, -3.102606822572712 ], [ -59.936292513201195, -3.102632339577005 ] ] ] } }
]
}
