{
"type": "FeatureCollection",
"name": "p15_camadas_aeis_maua",
"crs": { "type": "name", "properties": { "name": "urn:ogc:def:crs:OGC:1.3:CRS84" } },
"features": [
{ "type": "Feature", "properties": { "id": 1, "pagina": 15, "classe": "AEIS Mauazinho", "rotulo": "AEIS Mauazinho", "seq_pdf": "315", "metodo": "CONTORNO_PDF", "situacao": "DERIV_PDF", "recortado": 1, "area_m2": 2543605.695, "area_ha": 254.36057, "id_layer": "p15_camadas_aeis_maua", "doc_fonte": "Resposta SECT_autos.pdf", "doc_pagina": 15, "doc_folha": 108, "doc_escala": "1:15.000", "doc_metodo": "Reconstituição Vetorial Afim", "doc_rms_m": 0.68 }, "geometry": { "type": "MultiPolygon", "coordinates": [ [ [ [ -59.926241523371033, -3.113222444961083 ], [ -59.941630946776975, -3.113179384784099 ], [ -59.94166325252332, -3.113085900640177 ], [ -59.928196310186728, -3.113123593267161 ], [ -59.928169955009785, -3.103571941429663 ], [ -59.938729645712101, -3.103542491078913 ], [ -59.938728820822341, -3.103520940728707 ], [ -59.938659192054374, -3.103125030129679 ], [ -59.938632611732565, -3.103036851030706 ], [ -59.938538319947028, -3.102763570813623 ], [ -59.938469526075679, -3.102592082821747 ], [ -59.938315058776794, -3.10224956451691 ], [ -59.938074179658308, -3.101854234642875 ], [ -59.937906909759462, -3.101660623622513 ], [ -59.937216520310194, -3.101200728629031 ], [ -59.935177343439001, -3.099847995014454 ], [ -59.933865679519442, -3.098968581041774 ], [ -59.932562552064034, -3.098114628990844 ], [ -59.931073679032018, -3.097125632529616 ], [ -59.930592718597083, -3.096796785395837 ], [ -59.929444940878099, -3.096833667238103 ], [ -59.9294388320899, -3.096830617222768 ], [ -59.927342585550676, -3.09565346905215 ], [ -59.927335895643459, -3.095643444152877 ], [ -59.927108880415361, -3.094672553903102 ], [ -59.926883584668687, -3.094633809259203 ], [ -59.926476039077173, -3.09460933993541 ], [ -59.924309997596858, -3.094445931343734 ], [ -59.924268342815076, -3.095046762302848 ], [ -59.924235844116339, -3.095531461830872 ], [ -59.924220110443088, -3.095928921934026 ], [ -59.924154553410879, -3.09639094084537 ], [ -59.924103497335373, -3.096572471095909 ], [ -59.92410352515342, -3.096582605461414 ], [ -59.923818681510184, -3.09702707065643 ], [ -59.923816153443518, -3.097029625408572 ], [ -59.922817192396074, -3.097742634568114 ], [ -59.92209545533953, -3.09819252585878 ], [ -59.921876376150358, -3.098294911423741 ], [ -59.921791466174916, -3.098346443816661 ], [ -59.921779621420477, -3.098352438392013 ], [ -59.921586858436633, -3.098409536746832 ], [ -59.921158945771623, -3.098410723284574 ], [ -59.918878774395111, -3.097882549880933 ], [ -59.918558937125844, -3.097857371228838 ], [ -59.918308263680437, -3.097884141798393 ], [ -59.91776437399102, -3.09798821438581 ], [ -59.916754234233849, -3.098273789840744 ], [ -59.917146562545881, -3.100634482184482 ], [ -59.917146582451011, -3.10064174159376 ], [ -59.917545075088682, -3.104274574101487 ], [ -59.917545385766083, -3.104387727687314 ], [ -59.917623752620294, -3.10471629246473 ], [ -59.917664921394923, -3.104855572707082 ], [ -59.917665296668353, -3.104992221411067 ], [ -59.917716391321747, -3.105144906751443 ], [ -59.917716879020304, -3.105322472045697 ], [ -59.917700474962871, -3.105500817345149 ], [ -59.917700491580057, -3.105506866975877 ], [ -59.917658978524429, -3.105709977431134 ], [ -59.917651017209792, -3.105952943806608 ], [ -59.917660347461485, -3.106228759078764 ], [ -59.91769572714945, -3.106455736921997 ], [ -59.917746823948931, -3.106608423506463 ], [ -59.917764741799182, -3.106723404732019 ], [ -59.917856718032986, -3.106879591488717 ], [ -59.918040252512782, -3.10706307326579 ], [ -59.918173636786463, -3.107169732206887 ], [ -59.918313208201781, -3.107230654840891 ], [ -59.918324573117765, -3.10723632549251 ], [ -59.918406470780418, -3.107304550295272 ], [ -59.918406474097061, -3.107305756754693 ], [ -59.91854217410733, -3.107509154177942 ], [ -59.918542185251688, -3.107513207579846 ], [ -59.918614052530124, -3.107683478379701 ], [ -59.918708598845875, -3.107880796133046 ], [ -59.918820471380748, -3.108078484646843 ], [ -59.918890612512925, -3.108183614392717 ], [ -59.91898662453864, -3.108297041922746 ], [ -59.918991352298725, -3.108301767039754 ], [ -59.919067784365232, -3.108454371284781 ], [ -59.919075209415197, -3.108461799731573 ], [ -59.919140169783681, -3.108615691865258 ], [ -59.919243438664481, -3.108838992081504 ], [ -59.919324237587411, -3.10897351455564 ], [ -59.91944568277696, -3.109086251078314 ], [ -59.919563770620933, -3.109221162167462 ], [ -59.919567137163526, -3.109224525960069 ], [ -59.919608340442963, -3.109323163569024 ], [ -59.919732136585594, -3.109491076237616 ], [ -59.919877423187138, -3.109636315645327 ], [ -59.919995414822033, -3.109771116503563 ], [ -59.920090937745378, -3.109875290677446 ], [ -59.920142466087135, -3.109918213509183 ], [ -59.920148497369354, -3.10992424137958 ], [ -59.920269989405142, -3.110063038921991 ], [ -59.920425560125594, -3.110166676201283 ], [ -59.920514029310397, -3.110237417561271 ], [ -59.920616207524873, -3.11027659509298 ], [ -59.920626797028092, -3.110294227665292 ], [ -59.920619072643213, -3.110415805142535 ], [ -59.920698601718279, -3.110679635668693 ], [ -59.920855724305895, -3.111080002789791 ], [ -59.921006193819181, -3.111230420197853 ], [ -59.921164944722037, -3.111389125246829 ], [ -59.921529607388926, -3.111536316414973 ], [ -59.922643885908208, -3.111906243881966 ], [ -59.922651996827121, -3.111910292881012 ], [ -59.922908803205864, -3.112158454200673 ], [ -59.923229730690387, -3.112256052064545 ], [ -59.923867575760632, -3.112245725066394 ], [ -59.924637510252609, -3.112319269589955 ], [ -59.92465406434718, -3.112324768082522 ], [ -59.925758794782226, -3.112956471898699 ], [ -59.926241523371033, -3.113222444961083 ] ] ], [ [ [ -59.94294083572948, -3.109191399840888 ], [ -59.943006245980307, -3.108960052624725 ], [ -59.942940010369064, -3.108893841738173 ], [ -59.94294083572948, -3.109191399840888 ] ] ] ] } }
]
}
