{
"type": "FeatureCollection",
"name": "p15_lim_bairros",
"crs": { "type": "name", "properties": { "name": "urn:ogc:def:crs:OGC:1.3:CRS84" } },
"features": [
{ "type": "Feature", "properties": { "id": 1, "pagina": 15, "classe": "Limites dos bairros de Manaus", "metodo": "CONTORNO_PDF", "comp_m": 4898.3977662359321, "origem": "Prefeitura de Manaus - GeoManaus" }, "geometry": { "type": "LineString", "coordinates": [ [ -59.943434412679416, -3.098330601887798 ], [ -59.943153348791441, -3.098418717294482 ], [ -59.942428410069709, -3.098709168006744 ], [ -59.941719085192403, -3.09899158412474 ], [ -59.94094891176097, -3.099232159728291 ], [ -59.94032230532428, -3.099302027899769 ], [ -59.939966142342342, -3.099337128863402 ], [ -59.939583496751439, -3.099312559037121 ], [ -59.939184057853517, -3.099236823361043 ], [ -59.938758992651763, -3.099092866290809 ], [ -59.938359341599153, -3.098889122071669 ], [ -59.937959609300982, -3.098617165295719 ], [ -59.937721072902228, -3.098395739712015 ], [ -59.937482604916227, -3.098140319731154 ], [ -59.937303522507612, -3.097884658614553 ], [ -59.93716721847143, -3.097663377349008 ], [ -59.937030956613761, -3.097408248617472 ], [ -59.936911470714406, -3.097161192668048 ], [ -59.936664092901701, -3.096472641140751 ], [ -59.936228879106451, -3.094894213742159 ], [ -59.935981008895936, -3.094077542139157 ], [ -59.935980987326417, -3.094069709667723 ], [ -59.93582924635168, -3.093674698522899 ], [ -59.935521987903485, -3.093010306050219 ], [ -59.935521966040369, -3.09300236297303 ], [ -59.935261392859736, -3.092515519166433 ], [ -59.934880946869264, -3.091974783207236 ], [ -59.934466620117846, -3.091492980699305 ], [ -59.934128739864903, -3.091138308932602 ], [ -59.933598347317819, -3.090685075142519 ], [ -59.933598326129541, -3.090677366379376 ], [ -59.933250193524479, -3.090420550232457 ], [ -59.932844757029606, -3.090133545359654 ], [ -59.932354981034834, -3.089846747238738 ], [ -59.9306719082062, -3.088926079445839 ], [ -59.928659089256058, -3.087819616344807 ], [ -59.927940008365439, -3.087469463747161 ], [ -59.928603153902181, -3.08696661241473 ], [ -59.92924537342607, -3.086410150182843 ], [ -59.929245354803932, -3.086403355536897 ], [ -59.929425681274495, -3.086186342499166 ], [ -59.929727438469385, -3.085737095953382 ], [ -59.930079870926384, -3.085057720288263 ], [ -59.931197675046981, -3.082939965299668 ], [ -59.932232941935702, -3.081245785780928 ], [ -59.932412145501402, -3.081038762842784 ], [ -59.932743196325582, -3.080807008332761 ], [ -59.935817021308992, -3.078956781784099 ], [ -59.936656575083035, -3.079898860549079 ], [ -59.937012147751844, -3.080245877209368 ], [ -59.937309799697111, -3.080568951051524 ], [ -59.937474817059964, -3.080808076292628 ], [ -59.937481306399512, -3.080808058301671 ], [ -59.938418541986636, -3.081745042319757 ], [ -59.939291772540571, -3.08275359316431 ], [ -59.939952402594471, -3.083549438623536 ], [ -59.940304633378766, -3.083909957186794 ], [ -59.940319803049547, -3.083914993358399 ], [ -59.940748173164621, -3.083741361063665 ], [ -59.940781867943869, -3.0837862662014 ], [ -59.940823526470304, -3.08384455694575 ], [ -59.94082893020579, -3.08384995917281 ], [ -59.940891383648697, -3.083881134611342 ], [ -59.941013487801541, -3.083897155602436 ], [ -59.941149973364809, -3.083888199859437 ], [ -59.941298415550392, -3.083931641071728 ], [ -59.941410267165885, -3.083991782906009 ], [ -59.941512628261492, -3.08405143035086 ], [ -59.94162337028088, -3.084128044146685 ], [ -59.94171590308887, -3.084195305625703 ], [ -59.94181252101982, -3.084251602945798 ], [ -59.941826460382728, -3.084251564200192 ], [ -59.941888447860634, -3.084196736302414 ], [ -59.941965446314597, -3.084118903459954 ], [ -59.942072713768745, -3.084055601643295 ], [ -59.942186600772381, -3.084055285071615 ], [ -59.942289192445472, -3.084047065257015 ], [ -59.942295268628072, -3.084040923226631 ], [ -59.942380636966142, -3.084001628367911 ], [ -59.942380633503817, -3.084000369739541 ], [ -59.94246574822315, -3.083828057133498 ], [ -59.942516087038591, -3.083649064305094 ], [ -59.942577380533073, -3.083542765760532 ], [ -59.942680307880721, -3.083447392065063 ], [ -59.942864179655707, -3.083269975737458 ], [ -59.942955880498111, -3.083135089042628 ], [ -59.943032580519386, -3.083031690088712 ], [ -59.943129809766454, -3.082933408242998 ], [ -59.94329459230616, -3.082898056181332 ], [ -59.943391772161831, -3.0828684539025 ] ] } },
{ "type": "Feature", "properties": { "id": 2, "pagina": 15, "classe": "Limites dos bairros de Manaus", "metodo": "CONTORNO_PDF", "comp_m": 1483.0679831594266, "origem": "Prefeitura de Manaus - GeoManaus" }, "geometry": { "type": "LineString", "coordinates": [ [ -59.943021248128545, -3.083035319152866 ], [ -59.942950772166363, -3.083138258769163 ], [ -59.94286569154648, -3.08326732863134 ], [ -59.942678862023044, -3.083447598865339 ], [ -59.942577915645671, -3.083541138050991 ], [ -59.942571336275797, -3.083547785341278 ], [ -59.942515972967627, -3.083643806429134 ], [ -59.942515990078107, -3.083650026881144 ], [ -59.942464704961075, -3.083832367822395 ], [ -59.94238635336373, -3.083990997435752 ], [ -59.942302300350903, -3.084047666159292 ], [ -59.942187876153554, -3.084047984235929 ], [ -59.942069658633081, -3.084056801738968 ], [ -59.94206528007355, -3.084056813909797 ], [ -59.941970067181131, -3.084113002976829 ], [ -59.941963225863645, -3.084119918430066 ], [ -59.941886953158033, -3.084197016570135 ], [ -59.941817740835717, -3.084256986272949 ], [ -59.941713503763694, -3.084190708491354 ], [ -59.941628848651973, -3.084131488869099 ], [ -59.941510261093008, -3.084055319061175 ], [ -59.941417932792689, -3.083988207252046 ], [ -59.941304472812092, -3.083931574386348 ], [ -59.941297760242627, -3.083931593039265 ], [ -59.941130637988074, -3.083885426005938 ], [ -59.941130632495948, -3.083883428572877 ], [ -59.941012716939234, -3.083898578917441 ], [ -59.940888854996238, -3.083881141787007 ], [ -59.940823460320544, -3.083843817739067 ], [ -59.940779129908321, -3.083781789479276 ], [ -59.940750744293716, -3.083746325732972 ], [ -59.940736917576501, -3.083746364145123 ], [ -59.940307288759819, -3.083911849372106 ], [ -59.939960140315456, -3.083547446346132 ], [ -59.939290462624648, -3.082750895645141 ], [ -59.938418257269412, -3.081743535445902 ], [ -59.937486078101884, -3.080811605419431 ], [ -59.937316308892427, -3.080574061192867 ], [ -59.937012396125013, -3.080244915383416 ], [ -59.936656636994172, -3.079897716208489 ], [ -59.935814054475536, -3.078960829172896 ], [ -59.936045691797382, -3.07876269193576 ], [ -59.936304926490109, -3.078458371307597 ], [ -59.936472015605737, -3.078187961629884 ], [ -59.936622324586878, -3.077892158954615 ], [ -59.936730683609234, -3.07757084820753 ], [ -59.936814169241487, -3.077274019881485 ], [ -59.936906123098638, -3.07692566455476 ], [ -59.937117113016967, -3.076174084815555 ] ] } },
{ "type": "Feature", "properties": { "id": 3, "pagina": 15, "classe": "Limites dos bairros de Manaus", "metodo": "CONTORNO_PDF", "comp_m": 46.595067588607463, "origem": "Prefeitura de Manaus - GeoManaus" }, "geometry": { "type": "LineString", "coordinates": [ [ -59.94339177269034, -3.082868646029033 ], [ -59.943294784368199, -3.082898189529568 ], [ -59.943138736271209, -3.082931668610003 ], [ -59.943133680885659, -3.0829367791092 ], [ -59.943027350258618, -3.0830353021912 ], [ -59.943021248128545, -3.083035319152866 ] ] } },
{ "type": "Feature", "properties": { "id": 4, "pagina": 15, "classe": "Limites dos bairros de Manaus", "metodo": "CONTORNO_PDF", "comp_m": 3083.6833294262515, "origem": "Prefeitura de Manaus - GeoManaus" }, "geometry": { "type": "LineString", "coordinates": [ [ -59.932223452028595, -3.081248979691785 ], [ -59.9311947881083, -3.082940836149796 ], [ -59.930077601829353, -3.085057422211522 ], [ -59.929732712394525, -3.08573853538729 ], [ -59.92942881887496, -3.086182408235325 ], [ -59.929250647605215, -3.086405413583895 ], [ -59.928608583741074, -3.086969055937015 ], [ -59.92793969551601, -3.087471932772794 ], [ -59.927747549423557, -3.087323525869178 ], [ -59.927741197109455, -3.087323543458762 ], [ -59.927095613937944, -3.08701831754902 ], [ -59.926294519323413, -3.086732601279085 ], [ -59.92533343542236, -3.086540444442962 ], [ -59.924734605591659, -3.086491239347116 ], [ -59.923897460452807, -3.086417067907007 ], [ -59.923118065066326, -3.086283026999421 ], [ -59.922727587385367, -3.086156219853954 ], [ -59.922278635211477, -3.085987328443406 ], [ -59.921397596245818, -3.085598495398957 ], [ -59.920930906251677, -3.085310254170509 ], [ -59.920161135326531, -3.084788872154887 ], [ -59.920161113308893, -3.084780809310494 ], [ -59.918655070084796, -3.083839293482803 ], [ -59.917063931653331, -3.082824489939891 ], [ -59.916571882651176, -3.082468364155119 ], [ -59.915275181079252, -3.081299092705624 ], [ -59.915000988788712, -3.081007276427266 ], [ -59.915690380555283, -3.080197162359731 ], [ -59.915694541306081, -3.080197150912485 ], [ -59.915806508278358, -3.079889048441351 ], [ -59.915806489324467, -3.079882086077357 ], [ -59.915864593357888, -3.079568652895417 ], [ -59.915830263045166, -3.079224663736807 ], [ -59.915754153062828, -3.078938783273184 ], [ -59.915608710036445, -3.078588871507024 ], [ -59.915608689393189, -3.078581284866952 ], [ -59.915321953823018, -3.078042265795699 ], [ -59.914582431590446, -3.076472590467075 ], [ -59.914490349055448, -3.076236472211936 ] ] } },
{ "type": "Feature", "properties": { "id": 5, "pagina": 15, "classe": "Limites dos bairros de Manaus", "metodo": "CONTORNO_PDF", "comp_m": 822.71064850366599, "origem": "Prefeitura de Manaus - GeoManaus" }, "geometry": { "type": "LineString", "coordinates": [ [ -59.937116840518847, -3.076174085569801 ], [ -59.936906364992723, -3.076926629782605 ], [ -59.936814410954341, -3.077275001786961 ], [ -59.936730580965381, -3.077573054454632 ], [ -59.936621064386586, -3.077889179637624 ], [ -59.936468952643992, -3.078188539119111 ], [ -59.936299669885969, -3.078462491357778 ], [ -59.936045320516669, -3.078762465466363 ], [ -59.935815580926992, -3.078960297762327 ], [ -59.932745549479868, -3.080803181954185 ], [ -59.932418631368009, -3.081032039813733 ], [ -59.932411773758872, -3.081038972033427 ], [ -59.932230006663872, -3.081248961549763 ], [ -59.932223452028595, -3.081248979691785 ] ] } },
{ "type": "Feature", "properties": { "id": 6, "pagina": 15, "classe": "Limites dos bairros de Manaus", "metodo": "CONTORNO_PDF", "comp_m": 5216.804344484457, "origem": "Prefeitura de Manaus - GeoManaus" }, "geometry": { "type": "LineString", "coordinates": [ [ -59.926361929612398, -3.113222108935887 ], [ -59.926244854561503, -3.113144121462052 ], [ -59.925679462761913, -3.11284922739015 ], [ -59.925162481603287, -3.112620925358598 ], [ -59.924830813198547, -3.112382957644297 ], [ -59.924596166517489, -3.112207069476398 ], [ -59.92434798824236, -3.11213297877246 ], [ -59.924344321902005, -3.112132988993931 ], [ -59.923923118420937, -3.112244329508457 ], [ -59.923472214243631, -3.112288361403133 ], [ -59.923025043035487, -3.11222911650881 ], [ -59.922901530153005, -3.112105643521793 ], [ -59.92272810543097, -3.111882781457465 ], [ -59.922725721567417, -3.111882788099272 ], [ -59.922047265946397, -3.111688754971222 ], [ -59.921513961476251, -3.111545688313457 ], [ -59.921273857384172, -3.111451633472505 ], [ -59.921015471341086, -3.111245022205162 ], [ -59.920783780276921, -3.110867818584899 ], [ -59.920655695377285, -3.110493544066424 ], [ -59.920538385420507, -3.110234338026844 ], [ -59.920533658968665, -3.110229611852836 ], [ -59.920296768202206, -3.110085934940756 ], [ -59.920091662321653, -3.109880893005193 ], [ -59.919879027661146, -3.109642825284848 ], [ -59.919675035485447, -3.109370982084233 ], [ -59.9194969888012, -3.109125252273022 ], [ -59.919344193374378, -3.108921633711517 ], [ -59.91924191858525, -3.108768336075716 ], [ -59.919113707729984, -3.108554870813319 ], [ -59.919063492394947, -3.108429688315715 ], [ -59.919056409436351, -3.108422605719055 ], [ -59.918945248629498, -3.108260255885023 ], [ -59.918834526850034, -3.108098541820285 ], [ -59.918740384254505, -3.107927598949555 ], [ -59.918672253409277, -3.107774643150162 ], [ -59.918638353228317, -3.107706955955839 ], [ -59.918578764293933, -3.107579519200777 ], [ -59.918528828678667, -3.107471537516285 ], [ -59.918470555233512, -3.107404964943517 ], [ -59.918411871327777, -3.107321184111917 ], [ -59.918345291670896, -3.107262946909651 ], [ -59.918338791124853, -3.107256448318956 ], [ -59.918222186745489, -3.107206597627333 ], [ -59.918126550446161, -3.10714578740969 ], [ -59.917989149131984, -3.107017015676317 ], [ -59.917843675818901, -3.106845932847377 ], [ -59.917782068600772, -3.106749212194372 ], [ -59.917738686817643, -3.106568262730899 ], [ -59.917695826359399, -3.106397919172434 ], [ -59.917669775325464, -3.106235005597644 ], [ -59.917660845170815, -3.106072964571371 ], [ -59.917651987312745, -3.105952964402106 ], [ -59.917668432695002, -3.105738875376995 ], [ -59.917685118419655, -3.105610364413735 ], [ -59.917718381618229, -3.105449345875978 ], [ -59.917734585229873, -3.105255831667049 ], [ -59.917734314696013, -3.105157333222583 ], [ -59.91770044444192, -3.105047762037941 ], [ -59.917691689906448, -3.104945533304997 ], [ -59.917649376856069, -3.104785706911704 ], [ -59.917615155393861, -3.104649695938502 ], [ -59.917589023318158, -3.104537292795288 ], [ -59.917588829159762, -3.104466582214763 ], [ -59.917597359365722, -3.104369326504097 ], [ -59.917658410596317, -3.104236859255274 ], [ -59.917761600125175, -3.104115162898056 ], [ -59.917895824546534, -3.103987965985194 ], [ -59.917979798851867, -3.103869093708214 ], [ -59.917987243039263, -3.10386156906994 ], [ -59.918052633958126, -3.103729191505498 ], [ -59.918084863404275, -3.103631092489309 ], [ -59.918084849219738, -3.103625926041333 ], [ -59.918075983833191, -3.103473121384866 ], [ -59.91807596880637, -3.10346764785783 ], [ -59.91803463366594, -3.103368689261776 ], [ -59.917991357828669, -3.103247938136069 ], [ -59.917973493623997, -3.103133303033576 ], [ -59.917990643514969, -3.103019127631349 ], [ -59.91802514011458, -3.102896479616151 ], [ -59.918127903588584, -3.102740599201532 ], [ -59.918213105073704, -3.102628616919616 ], [ -59.918220603562233, -3.102621035469551 ], [ -59.918262188310628, -3.102545302344299 ], [ -59.918371520452489, -3.102409269847416 ], [ -59.918437847912806, -3.102283420236936 ], [ -59.918487695866077, -3.102182504232683 ], [ -59.918519843005441, -3.102092862530291 ], [ -59.918519831839049, -3.102088793975844 ], [ -59.918503151712621, -3.101981765911933 ], [ -59.918452872458488, -3.101856404054579 ], [ -59.918418564080604, -3.101770873704255 ], [ -59.918394042213365, -3.101689515312346 ], [ -59.918389095268992, -3.101684572295983 ], [ -59.918321801702042, -3.101625705975301 ], [ -59.91825900330663, -3.101570779364883 ], [ -59.918252988598653, -3.101570796041869 ], [ -59.918181365325772, -3.101535042178282 ], [ -59.918087590699393, -3.10148396113143 ], [ -59.918023711074035, -3.101444070775597 ], [ -59.918017747224376, -3.10144408730956 ], [ -59.917871749753225, -3.10140136233507 ], [ -59.917660133770745, -3.101342431437807 ], [ -59.917579067567459, -3.101315517840812 ], [ -59.917525515547986, -3.101253062492817 ], [ -59.91748262044247, -3.101210177333527 ], [ -59.917438049894884, -3.101147816409023 ], [ -59.917411445988371, -3.101077091978061 ], [ -59.917369162626628, -3.100925704206727 ], [ -59.917260739659966, -3.100734097039059 ], [ -59.917100617563946, -3.100548758586494 ], [ -59.917008097516586, -3.100431058428322 ], [ -59.916932676680801, -3.100364040763236 ], [ -59.916862783687115, -3.100294165055816 ], [ -59.916810943733452, -3.100199253304502 ], [ -59.916734218808038, -3.100079999992214 ], [ -59.91670028363891, -3.100003812143049 ], [ -59.916651473435373, -3.099930646148522 ], [ -59.916571093061648, -3.099859221375265 ], [ -59.916571080229673, -3.099854539446246 ], [ -59.916477153463319, -3.099815502565647 ], [ -59.916470357311184, -3.099808708295322 ], [ -59.91641675613208, -3.099801162779825 ], [ -59.916314628303191, -3.099784343077458 ], [ -59.916203426706495, -3.099758869987737 ], [ -59.916101352534476, -3.099724979062462 ], [ -59.915965719397271, -3.099682783060012 ], [ -59.915855649730858, -3.099640577578716 ], [ -59.915802815891134, -3.099623034778737 ], [ -59.915133864596974, -3.099145497462476 ], [ -59.91534000114661, -3.098891810698782 ], [ -59.915460210256242, -3.098778980745457 ], [ -59.915664736649724, -3.098658286240995 ], [ -59.915817792997444, -3.098580827298654 ], [ -59.916080801190915, -3.098477646642557 ], [ -59.916284216963639, -3.098417392433126 ], [ -59.916875150392244, -3.098254396725276 ], [ -59.917803848862782, -3.097997023877419 ], [ -59.918244642650251, -3.097893479343651 ], [ -59.918432406857228, -3.097884378856905 ], [ -59.918720366446031, -3.097883581288706 ], [ -59.918907771115983, -3.097891623887541 ], [ -59.919095317214918, -3.097925368486643 ], [ -59.92070991965258, -3.09831153309464 ], [ -59.921164269538053, -3.098411711220983 ], [ -59.921172104680814, -3.098411689496819 ], [ -59.921340614005786, -3.098436620030698 ], [ -59.921490945078325, -3.098427804607247 ], [ -59.921685662993909, -3.098418755576237 ], [ -59.921691074370678, -3.098418740569635 ], [ -59.921914514311922, -3.098326508502588 ], [ -59.922596101886661, -3.097917928079894 ], [ -59.923514238933386, -3.097313102061728 ], [ -59.923757933744959, -3.097126190341117 ], [ -59.923891147194233, -3.097016770575875 ], [ -59.923995556325366, -3.096886862557529 ], [ -59.923995534926597, -3.09687906727394 ], [ -59.924113312998607, -3.096708931890782 ], [ -59.924113293495409, -3.096701827013554 ], [ -59.924172091446465, -3.096582798068356 ], [ -59.924172070770801, -3.096575265911717 ], [ -59.924205064565705, -3.096486077474677 ], [ -59.924473113694809, -3.096619876332926 ], [ -59.924571477170609, -3.096627841430635 ], [ -59.92491716262316, -3.096669246788791 ], [ -59.924925243810762, -3.096669224366158 ], [ -59.926304000089949, -3.096775913577323 ], [ -59.926717405584533, -3.096859528715603 ], [ -59.926724933387035, -3.096859507814277 ], [ -59.927249636966643, -3.096909084112116 ], [ -59.927570673806954, -3.096942152278976 ], [ -59.928011199756263, -3.096983498786969 ], [ -59.92814865346368, -3.097017636080289 ], [ -59.928353457361268, -3.097094191837933 ], [ -59.928634019721464, -3.097238499674961 ], [ -59.928872750812801, -3.097383299198143 ], [ -59.929018946751157, -3.097512248500039 ], [ -59.929165006998424, -3.097692604275723 ], [ -59.929318666178084, -3.09798242625549 ], [ -59.929448028021618, -3.098232143848763 ], [ -59.929448047383651, -3.09823918094855 ], [ -59.929606139156185, -3.098455391347183 ], [ -59.929691369460166, -3.098591639777707 ], [ -59.92986044444541, -3.098870333782285 ], [ -59.929986203469404, -3.099021190117807 ], [ -59.930111698516136, -3.099146645316103 ], [ -59.930261753295333, -3.099254948957936 ], [ -59.930394465213979, -3.099321194327223 ], [ -59.930476301215776, -3.099345625973522 ], [ -59.930651226411875, -3.099370250260427 ], [ -59.930758818624454, -3.099369950876258 ], [ -59.930986790333343, -3.099343844160289 ], [ -59.931113965122051, -3.099343490247225 ], [ -59.931265274317731, -3.099334617850604 ], [ -59.931475661995542, -3.099317109784793 ], [ -59.931779430993437, -3.099273835753157 ], [ -59.932118372836811, -3.099238811816935 ], [ -59.932255900378337, -3.099238428957556 ], [ -59.932402321137879, -3.099263981819859 ], [ -59.932530831193567, -3.099306646826269 ], [ -59.932659161949537, -3.099357834888592 ], [ -59.932813568077563, -3.099443503906905 ], [ -59.932968654924444, -3.099564069247307 ], [ -59.93309773411616, -3.099727495450178 ], [ -59.933167342322164, -3.099840496841647 ], [ -59.933219262260515, -3.100012742354751 ], [ -59.933253650259395, -3.100149394653714 ], [ -59.933279549494458, -3.100286159407757 ], [ -59.933305431161784, -3.10048141435931 ], [ -59.933339284480638, -3.100665664337151 ], [ -59.933397583410297, -3.100798619636035 ], [ -59.933467322139755, -3.100920513663739 ], [ -59.933467339416694, -3.100926778872085 ], [ -59.933572296348935, -3.101039772200953 ], [ -59.933670603618232, -3.101129112518305 ], [ -59.933670620882459, -3.101135372259573 ], [ -59.933890569167076, -3.10126557003553 ], [ -59.93412711907046, -3.101409041100778 ], [ -59.934253369221217, -3.101476276007914 ], [ -59.934423239832675, -3.101561067804623 ], [ -59.935143626951351, -3.102035288272247 ], [ -59.935474277627812, -3.102272527860357 ], [ -59.935754718812426, -3.10249337676467 ], [ -59.935908942921266, -3.102647555710312 ], [ -59.936055143305666, -3.102853814265781 ], [ -59.936107346110084, -3.10298395444896 ], [ -59.936150745872098, -3.103147891926932 ], [ -59.936168581405866, -3.103447002868477 ], [ -59.93617186635214, -3.103549634295026 ] ] } },
{ "type": "Feature", "properties": { "id": 7, "pagina": 15, "classe": "Limites dos bairros de Manaus", "metodo": "CONTORNO_PDF", "comp_m": 10.927077302612345, "origem": "Prefeitura de Manaus - GeoManaus" }, "geometry": { "type": "LineString", "coordinates": [ [ -59.934416026494837, -3.113106206377387 ], [ -59.934384440118713, -3.113199688891855 ] ] } },
{ "type": "Feature", "properties": { "id": 8, "pagina": 15, "classe": "Limites dos bairros de Manaus", "metodo": "CONTORNO_PDF", "comp_m": 11.605366972036725, "origem": "Prefeitura de Manaus - GeoManaus" }, "geometry": { "type": "LineString", "coordinates": [ [ -59.937900611554703, -3.113189843121718 ], [ -59.937947773843327, -3.113096317155516 ] ] } },
{ "type": "Feature", "properties": { "id": 9, "pagina": 15, "classe": "Limites dos bairros de Manaus", "metodo": "CONTORNO_PDF", "comp_m": 139.61995486396663, "origem": "Prefeitura de Manaus - GeoManaus" }, "geometry": { "type": "LineString", "coordinates": [ [ -59.942945333470362, -3.110812418218679 ], [ -59.943081118406383, -3.11125032405022 ], [ -59.943190780604304, -3.111494417338824 ], [ -59.943397423164171, -3.1118494217051 ], [ -59.943404833730575, -3.111849400912044 ], [ -59.943472131945512, -3.111943874342333 ] ] } },
{ "type": "Feature", "properties": { "id": 10, "pagina": 15, "classe": "Limites dos bairros de Manaus", "metodo": "CONTORNO_PDF", "comp_m": 659.38213006435478, "origem": "Prefeitura de Manaus - GeoManaus" }, "geometry": { "type": "LineString", "coordinates": [ [ -59.921021365337381, -3.111249856933812 ], [ -59.921274736008165, -3.111445914715429 ], [ -59.921508248035998, -3.111537383026342 ], [ -59.92204843588739, -3.111688482345795 ], [ -59.922721539293335, -3.11188344752002 ], [ -59.922902506982041, -3.112098799156414 ], [ -59.923029000900513, -3.112225245786295 ], [ -59.923033166588688, -3.112229411186549 ], [ -59.923465314012624, -3.112286661647113 ], [ -59.923471711881731, -3.112286643814838 ], [ -59.923916962270269, -3.112243168326008 ], [ -59.924342524032625, -3.112130675749938 ], [ -59.924595337661643, -3.112208770337053 ], [ -59.924834675609119, -3.11237961752975 ], [ -59.925163338195247, -3.112615428610625 ], [ -59.925678051211584, -3.112851189633134 ], [ -59.926246068412702, -3.113147458496752 ], [ -59.926356818621919, -3.113222123199727 ] ] } },
{ "type": "Feature", "properties": { "id": 11, "pagina": 15, "classe": "Limites dos bairros de Manaus", "metodo": "CONTORNO_PDF", "comp_m": 75.542136616226344, "origem": "Prefeitura de Manaus - GeoManaus" }, "geometry": { "type": "LineString", "coordinates": [ [ -59.896306218654445, -3.105944153908963 ], [ -59.896298878284597, -3.105893492299189 ], [ -59.896340285321159, -3.105518011889953 ], [ -59.896353333497004, -3.105264771035672 ] ] } },
{ "type": "Feature", "properties": { "id": 12, "pagina": 15, "classe": "Limites dos bairros de Manaus", "metodo": "CONTORNO_PDF", "comp_m": 1046.5723118075823, "origem": "Prefeitura de Manaus - GeoManaus" }, "geometry": { "type": "LineString", "coordinates": [ [ -59.894952247555231, -3.103782762376199 ], [ -59.894950901663329, -3.103780828804028 ], [ -59.894924229933409, -3.103545390871889 ], [ -59.894948765065664, -3.10322167664256 ], [ -59.894948756555848, -3.103218551876954 ], [ -59.894815400663973, -3.102977138760783 ], [ -59.894611351945564, -3.102645856770426 ], [ -59.894492225903072, -3.102374166989856 ], [ -59.894303623733087, -3.102040209997991 ], [ -59.894303612488187, -3.102036078425193 ], [ -59.894081001813149, -3.101871262924921 ], [ -59.89389024968483, -3.101663224405916 ], [ -59.89383838242702, -3.101440066202064 ], [ -59.893833607992093, -3.101430531314725 ], [ -59.89358731748522, -3.10131184452617 ], [ -59.893525513856744, -3.101144616285539 ], [ -59.893439164469903, -3.100963610702684 ], [ -59.89343914255317, -3.100955552897042 ], [ -59.893305806349687, -3.100705881854415 ], [ -59.893068587991834, -3.100341855898268 ], [ -59.892925336612329, -3.100106125693849 ], [ -59.892917640714622, -3.100098431590169 ], [ -59.892731174478968, -3.099861205478164 ], [ -59.892611120363256, -3.099741177013688 ], [ -59.89254650807063, -3.099602987542359 ], [ -59.892632607611034, -3.099437446019955 ], [ -59.892632581562253, -3.099427861639045 ], [ -59.89257370997877, -3.099251915348671 ], [ -59.892513917965793, -3.099022666577576 ], [ -59.892428364814734, -3.09875008037573 ], [ -59.892393289735274, -3.09847412199835 ], [ -59.892427163334361, -3.098283880177449 ], [ -59.892519327365321, -3.097917552155716 ], [ -59.892619746579733, -3.097577694831359 ], [ -59.892702656926851, -3.097240405693103 ], [ -59.892701828635978, -3.096935420732097 ], [ -59.892743389692662, -3.096689075856204 ], [ -59.892743379628982, -3.096685369880969 ], [ -59.892663801415608, -3.096471169657465 ], [ -59.892656538132073, -3.096471189586741 ], [ -59.892558622363211, -3.096266817139935 ], [ -59.892475418146908, -3.096133800968049 ], [ -59.892470345378236, -3.096128729322882 ], [ -59.892299074735654, -3.096039145272344 ], [ -59.892286494984987, -3.096039179779959 ], [ -59.892198770794153, -3.096143976002855 ], [ -59.892194266661662, -3.09614852856174 ], [ -59.892169692176502, -3.096376535958461 ], [ -59.892043552452478, -3.096543296011756 ], [ -59.892034552999384, -3.09653237192604 ] ] } },
{ "type": "Feature", "properties": { "id": 13, "pagina": 15, "classe": "Limites dos bairros de Manaus", "metodo": "CONTORNO_PDF", "comp_m": 6254.5975369078842, "origem": "Prefeitura de Manaus - GeoManaus" }, "geometry": { "type": "LineString", "coordinates": [ [ -59.891984411734825, -3.078006581090424 ], [ -59.892837420379074, -3.077941774852056 ], [ -59.893431237165728, -3.077991310437618 ], [ -59.89443262256308, -3.078193210421449 ], [ -59.895405315651324, -3.078798522354473 ], [ -59.895545638625997, -3.079209234713391 ], [ -59.895393739630677, -3.079645662123569 ], [ -59.895393750643223, -3.079649736266505 ], [ -59.895436759948232, -3.079938301792108 ], [ -59.895436777867367, -3.079944930322668 ], [ -59.895605337881243, -3.080406992875365 ], [ -59.895799586812217, -3.080744475477067 ], [ -59.896124989492272, -3.081269691443847 ], [ -59.896128308469834, -3.081269682370764 ], [ -59.896522326720763, -3.08150072700107 ], [ -59.896871437380867, -3.081747526801426 ], [ -59.8973126214186, -3.082222551214982 ], [ -59.897550531041539, -3.082434922589695 ], [ -59.897898432918552, -3.082918356595429 ], [ -59.897903876895967, -3.082923800198921 ], [ -59.898479259690156, -3.083219520838234 ], [ -59.8994723118564, -3.084271769017224 ], [ -59.900278072908613, -3.085094322832212 ], [ -59.90059421475128, -3.085581002477725 ], [ -59.900832164928183, -3.086334142590463 ], [ -59.900838815815817, -3.086340792922784 ], [ -59.90103610425917, -3.086640805403789 ], [ -59.901140077475262, -3.086934389942229 ], [ -59.901125176712618, -3.087693196728305 ], [ -59.901125181946782, -3.087695124252444 ], [ -59.901504257804653, -3.08816670430498 ], [ -59.901624284411788, -3.088465978125682 ], [ -59.901761649287508, -3.088799956722636 ], [ -59.901762608718379, -3.089153050438926 ], [ -59.901687408844737, -3.089640451299875 ], [ -59.901518270622049, -3.090094783418142 ], [ -59.901183686305366, -3.090576862820773 ], [ -59.901183700022514, -3.090581909443762 ], [ -59.901066723425487, -3.091049216865754 ], [ -59.901066753553877, -3.091060300030523 ], [ -59.901177082126516, -3.091322760802205 ], [ -59.90120397881406, -3.091819207902091 ], [ -59.901195835574889, -3.091992427530851 ], [ -59.901160803705288, -3.092099050533599 ], [ -59.901122745554339, -3.09215678146239 ], [ -59.901029476628423, -3.092194583169739 ], [ -59.900882046156248, -3.092186271949515 ], [ -59.900662950155784, -3.092178401930916 ], [ -59.900659823778078, -3.092178410521083 ], [ -59.900581655469011, -3.092225850104677 ], [ -59.900577604810032, -3.092229944366379 ], [ -59.900546328012396, -3.092317152934901 ], [ -59.900538534911959, -3.092465491791209 ], [ -59.900564644624296, -3.092637275359703 ], [ -59.900529532035328, -3.092762112758115 ], [ -59.90046152279816, -3.092882513787398 ], [ -59.900352912716535, -3.093110868293211 ], [ -59.900278904556053, -3.093302544811749 ], [ -59.900278917259193, -3.093307215710698 ], [ -59.900296367361406, -3.093671207212538 ], [ -59.900305268671971, -3.093677137314067 ], [ -59.900794091690464, -3.093417230222505 ], [ -59.901470291233366, -3.093126140591727 ], [ -59.901868972051012, -3.092988481587973 ], [ -59.902244170445208, -3.09292741901971 ], [ -59.902527089947846, -3.092952490837122 ], [ -59.902775711753755, -3.093029305147019 ], [ -59.90299832036073, -3.09314900965295 ], [ -59.903262147267583, -3.093344659683424 ], [ -59.904295330800295, -3.094208184721686 ], [ -59.905216068312583, -3.094975212884724 ], [ -59.905216091204785, -3.09498361138349 ], [ -59.90652158881803, -3.096052897802191 ], [ -59.907596773611935, -3.096933040182224 ], [ -59.908418071927649, -3.097627104105105 ], [ -59.90914614418454, -3.098244909328645 ], [ -59.910026531068397, -3.098989601615531 ], [ -59.910695747356371, -3.09954849298756 ], [ -59.912194788958026, -3.100987856696474 ], [ -59.912575911275496, -3.101318050924743 ], [ -59.912583318805723, -3.101325458311354 ], [ -59.912731258162275, -3.101415778938953 ], [ -59.912912067726886, -3.101456562340677 ], [ -59.913177106516336, -3.101447502456055 ], [ -59.913331482874668, -3.10138984099473 ], [ -59.913564473782088, -3.101179561364509 ], [ -59.913571743312126, -3.101172213348752 ], [ -59.915130125195503, -3.09914291031657 ], [ -59.915811887401347, -3.099623343719331 ], [ -59.915811898988771, -3.099627572974273 ], [ -59.915859031069004, -3.099640968413972 ], [ -59.915960706043997, -3.099683225620597 ], [ -59.916095132117945, -3.09972504677174 ], [ -59.916204372466744, -3.099758504858661 ], [ -59.91631307292527, -3.099783403367399 ], [ -59.916413720152285, -3.09979997886883 ], [ -59.916475547630391, -3.099808682734604 ], [ -59.91658171861144, -3.0998616797048 ], [ -59.916652989207016, -3.099924023532551 ], [ -59.916706545077432, -3.100004297575013 ], [ -59.916732140464582, -3.100080785594656 ], [ -59.916807280617526, -3.100197574525196 ], [ -59.916869505921582, -3.100295269863176 ], [ -59.916869523110691, -3.100301540020296 ], [ -59.9169316225465, -3.100363624096448 ], [ -59.917008632283014, -3.100432053631543 ], [ -59.917102623953383, -3.100551628095567 ], [ -59.917255919856409, -3.100730413284639 ], [ -59.917368253118894, -3.10092031120669 ], [ -59.917411421953943, -3.101074879208499 ], [ -59.917436141620726, -3.101148751869097 ], [ -59.917472115865401, -3.101206262835417 ], [ -59.91747804639202, -3.101206246398172 ], [ -59.917525673074884, -3.101253857194628 ], [ -59.917582340843715, -3.101310510987385 ], [ -59.917662568295945, -3.101342513027245 ], [ -59.917873065789813, -3.101401132446999 ], [ -59.918019245840085, -3.101443912400844 ], [ -59.918088571953867, -3.10148720029032 ], [ -59.918180038859809, -3.101537026391417 ], [ -59.918249058688723, -3.101562824879653 ], [ -59.91832773994274, -3.101623991269319 ], [ -59.91839134063509, -3.101678489518121 ], [ -59.918419204811023, -3.101770932325954 ], [ -59.918419224870313, -3.101778242070346 ], [ -59.918451799704151, -3.101851375078796 ], [ -59.918503679446268, -3.101980715461097 ], [ -59.918521964546748, -3.102089162478483 ], [ -59.91848637619011, -3.102188395332731 ], [ -59.918435347876333, -3.102283054559926 ], [ -59.918367390983228, -3.102412006275804 ], [ -59.918269272592134, -3.102535991436012 ], [ -59.918269293519103, -3.102543615876465 ], [ -59.918215254771468, -3.102625592858504 ], [ -59.918126226492191, -3.102731952841909 ], [ -59.918126244949789, -3.102738677511847 ], [ -59.918032189211814, -3.102903030308392 ], [ -59.917991436295488, -3.103018742161139 ], [ -59.917975492234383, -3.103133199124386 ], [ -59.917992486881488, -3.103242240623459 ], [ -59.917992505401337, -3.103248987167534 ], [ -59.918033849967905, -3.103364351198816 ], [ -59.918077372673622, -3.103468539479888 ], [ -59.918086617065228, -3.103627876703391 ], [ -59.918051562464889, -3.103734577117135 ], [ -59.91798321918322, -3.103864249445901 ], [ -59.91789730144238, -3.103994581900723 ], [ -59.917761630773967, -3.104114582874122 ], [ -59.917654629027894, -3.104239385262541 ], [ -59.917598584951364, -3.104360981322414 ], [ -59.917598599506718, -3.104366282456107 ], [ -59.917590412277328, -3.104459701225368 ], [ -59.917590614588235, -3.104533380955709 ], [ -59.917615809721624, -3.104650006628975 ], [ -59.917649836286124, -3.10478523661111 ], [ -59.917692879552341, -3.10493935785632 ], [ -59.917701814542148, -3.105043668110577 ], [ -59.917701834265507, -3.105050849623876 ], [ -59.917727292256956, -3.105160352965066 ], [ -59.917736259121753, -3.105256586834197 ], [ -59.917719642669077, -3.105446108422382 ], [ -59.917686225802164, -3.105607893852548 ], [ -59.91766983607458, -3.105734125088938 ], [ -59.917653638945517, -3.105953728445906 ], [ -59.917653960984119, -3.106070951976142 ], [ -59.917671295842553, -3.106232223310774 ], [ -59.917671317885109, -3.106240246272688 ], [ -59.917696764760876, -3.106399403999904 ], [ -59.917739299806634, -3.106576810769781 ], [ -59.917780752532813, -3.106741553087612 ], [ -59.917787527366073, -3.106748327622252 ], [ -59.917838795688652, -3.106842194311222 ], [ -59.917989636347585, -3.107018112004857 ], [ -59.918123009021713, -3.107151446816396 ], [ -59.918221557927055, -3.107208864942667 ], [ -59.918341542072362, -3.107260160238452 ], [ -59.918412718643921, -3.107322420341321 ], [ -59.918473206812088, -3.107400156277276 ], [ -59.918525314327979, -3.107469594871047 ], [ -59.918576881790564, -3.10758109588452 ], [ -59.918645112518938, -3.107708849285995 ], [ -59.918670720675536, -3.107776926857685 ], [ -59.918746575002984, -3.107928380087356 ], [ -59.918839356474663, -3.108096849310925 ], [ -59.918949104692885, -3.108257140457864 ], [ -59.919060583967195, -3.108419955412126 ], [ -59.919107997926673, -3.108545999767349 ], [ -59.919114168826653, -3.108545982613929 ], [ -59.919246774689839, -3.108766769099817 ], [ -59.919339660011794, -3.108927025145229 ], [ -59.919491487448745, -3.109129351600831 ], [ -59.919677958815782, -3.109366565765192 ], [ -59.919885142668875, -3.109642667356626 ], [ -59.91988516364426, -3.109650287716707 ], [ -59.920092052682513, -3.109881922581423 ], [ -59.920293429229112, -3.110083234213513 ], [ -59.920533129000596, -3.110228616144388 ], [ -59.920654833172051, -3.110488897599851 ], [ -59.920782201458728, -3.110869487601466 ], [ -59.921021351865889, -3.111244967171729 ], [ -59.921021365337381, -3.111249856933812 ] ] } },
{ "type": "Feature", "properties": { "id": 14, "pagina": 15, "classe": "Limites dos bairros de Manaus", "metodo": "CONTORNO_PDF", "comp_m": 139.09051183968029, "origem": "Prefeitura de Manaus - GeoManaus" }, "geometry": { "type": "LineString", "coordinates": [ [ -59.943472150530539, -3.11195056711584 ], [ -59.943406380770746, -3.111859801571061 ], [ -59.9431848205557, -3.111493769209675 ], [ -59.943073413717599, -3.111245797907115 ], [ -59.942945357368387, -3.11082102897157 ] ] } },
{ "type": "Feature", "properties": { "id": 15, "pagina": 15, "classe": "Limites dos bairros de Manaus", "metodo": "CONTORNO_PDF", "comp_m": 11.605371208130558, "origem": "Prefeitura de Manaus - GeoManaus" }, "geometry": { "type": "LineString", "coordinates": [ [ -59.937944883460652, -3.113096325253717 ], [ -59.937897721087893, -3.113189851220266 ] ] } },
{ "type": "Feature", "properties": { "id": 16, "pagina": 15, "classe": "Limites dos bairros de Manaus", "metodo": "CONTORNO_PDF", "comp_m": 10.925169997113686, "origem": "Prefeitura de Manaus - GeoManaus" }, "geometry": { "type": "LineString", "coordinates": [ [ -59.934386396590895, -3.113199683416735 ], [ -59.934417930056789, -3.113106201050437 ] ] } },
{ "type": "Feature", "properties": { "id": 17, "pagina": 15, "classe": "Limites dos bairros de Manaus", "metodo": "CONTORNO_PDF", "comp_m": 7387.2447046218122, "origem": "Prefeitura de Manaus - GeoManaus" }, "geometry": { "type": "LineString", "coordinates": [ [ -59.936170432517294, -3.103549638297612 ], [ -59.936167193070389, -3.103448522445786 ], [ -59.936149575867439, -3.103144958838348 ], [ -59.936107720738882, -3.102986851839295 ], [ -59.936049513330659, -3.102854118861913 ], [ -59.93590314022741, -3.102647608282985 ], [ -59.935903122300545, -3.102641116398908 ], [ -59.93574816633425, -3.102494366094076 ], [ -59.935478188630242, -3.102266665035015 ], [ -59.935153364590803, -3.102033601778004 ], [ -59.935145337847764, -3.102033624166154 ], [ -59.934434583186587, -3.101568637414718 ], [ -59.934426874044334, -3.101568658908534 ], [ -59.934253785150148, -3.101473588712382 ], [ -59.934126780253159, -3.101405953876538 ], [ -59.933889228593792, -3.101270373511027 ], [ -59.933667600991654, -3.101125582393403 ], [ -59.933572851991329, -3.101039475782123 ], [ -59.933460472106312, -3.100918491133851 ], [ -59.933399765598487, -3.100797286732378 ], [ -59.933339211022101, -3.100667789131314 ], [ -59.933304356460589, -3.10047804007928 ], [ -59.933287000146706, -3.100291881288818 ], [ -59.933252643184751, -3.100155337400523 ], [ -59.933252619780269, -3.100146847392264 ], [ -59.933219167229346, -3.10001389567956 ], [ -59.933160424649508, -3.099838370307162 ], [ -59.933094183290116, -3.099730829905636 ], [ -59.932963850643461, -3.099565820094784 ], [ -59.932963835039708, -3.099560158179053 ], [ -59.932803035598553, -3.099441741056725 ], [ -59.932803016298344, -3.099434737194037 ], [ -59.932661073604756, -3.099355983250208 ], [ -59.932527346016023, -3.09930599599747 ], [ -59.932402097006261, -3.099264415780342 ], [ -59.932261272192257, -3.099239836641895 ], [ -59.932119911277411, -3.099240230173545 ], [ -59.931783607306208, -3.099266528124565 ], [ -59.931479707357177, -3.099318313661837 ], [ -59.931259185240812, -3.099335982759335 ], [ -59.93110649605994, -3.099344935833037 ], [ -59.930980335798061, -3.099345286922115 ], [ -59.930760809758816, -3.099371367976723 ], [ -59.930648666257319, -3.09937168002534 ], [ -59.930476836379306, -3.099346260276494 ], [ -59.930398520671758, -3.099320261425683 ], [ -59.930260736480832, -3.099260118220021 ], [ -59.930105698551479, -3.099148215743404 ], [ -59.929985544494365, -3.09902809780296 ], [ -59.929857058148329, -3.098873972910096 ], [ -59.929686732958757, -3.098593220293946 ], [ -59.929602226022958, -3.098458126091706 ], [ -59.929440557778989, -3.098228536907555 ], [ -59.929321227891819, -3.097981808612244 ], [ -59.9291579510624, -3.097689990287054 ], [ -59.929157932312137, -3.097683173647063 ], [ -59.929023195739354, -3.097516800388196 ], [ -59.929016510785658, -3.097516818967842 ], [ -59.928868712397495, -3.097386452353489 ], [ -59.928633710752656, -3.097243917479865 ], [ -59.928352681956518, -3.097099369732752 ], [ -59.928344972084588, -3.097091666030007 ], [ -59.928146620851926, -3.097017521224711 ], [ -59.928014497903654, -3.096984706797295 ], [ -59.928007388995773, -3.096984726545049 ], [ -59.927567125288761, -3.096943406812702 ], [ -59.927254536769475, -3.096910313326531 ], [ -59.926721501728977, -3.096860774663806 ], [ -59.926299101333029, -3.096777069181901 ], [ -59.924922769524336, -3.096670569732636 ], [ -59.924576334936255, -3.096629072225096 ], [ -59.924472112831026, -3.096620633088182 ], [ -59.924205037917439, -3.096495687703267 ], [ -59.924195212453149, -3.096499010362795 ], [ -59.924172300268452, -3.096576566116704 ], [ -59.92411246260594, -3.096697704243334 ], [ -59.924002131037092, -3.096877975594009 ], [ -59.923891011552797, -3.09701623277401 ], [ -59.923762906380254, -3.097128464426997 ], [ -59.923509085705575, -3.097316658542657 ], [ -59.922597774156856, -3.097922536113981 ], [ -59.921913340827118, -3.098324299767864 ], [ -59.92169000693977, -3.098420015744941 ], [ -59.921484252522241, -3.098429205008602 ], [ -59.921338995738353, -3.098438198353763 ], [ -59.921167556302073, -3.098412834316975 ], [ -59.920710427178044, -3.09831204604851 ], [ -59.919096489583495, -3.097926036138876 ], [ -59.918911857531633, -3.097892820142758 ], [ -59.918727592565126, -3.097876495939067 ], [ -59.918433589931382, -3.097877310244147 ], [ -59.918247825459069, -3.097894805024575 ], [ -59.918240596681969, -3.09789482504407 ], [ -59.917803991660008, -3.09799738297131 ], [ -59.916875948575282, -3.0982545781183 ], [ -59.916285310729585, -3.098417491710501 ], [ -59.916083656606531, -3.098477219795438 ], [ -59.915819721414465, -3.098580768485229 ], [ -59.915812149916924, -3.098580789441002 ], [ -59.915660328624391, -3.098657623344197 ], [ -59.91565297166369, -3.098657643705581 ], [ -59.915459058762472, -3.098785537303099 ], [ -59.915452310682099, -3.098785555978802 ], [ -59.915340305128154, -3.098890688015204 ], [ -59.915130764547172, -3.099144876316469 ], [ -59.913564632963279, -3.101179360209776 ], [ -59.913332949335611, -3.101396202087471 ], [ -59.913175106035133, -3.101440747129866 ], [ -59.912908711533653, -3.101458763651018 ], [ -59.91273433700151, -3.101415455403111 ], [ -59.912578366276371, -3.10132023142584 ], [ -59.912195931396091, -3.100980396134349 ], [ -59.910701972906459, -3.099554351046603 ], [ -59.910694139591797, -3.099554372695663 ], [ -59.91002881816275, -3.09899160384061 ], [ -59.909148364636238, -3.098246857012884 ], [ -59.908420302996383, -3.097629059301434 ], [ -59.90759924210154, -3.096935197513372 ], [ -59.906524248094115, -3.096055207792024 ], [ -59.905212027933906, -3.094971946847622 ], [ -59.904297729493223, -3.094201813954444 ], [ -59.903258558457459, -3.093341805810706 ], [ -59.903258537407865, -3.093334073988299 ], [ -59.902996202413725, -3.093145622289266 ], [ -59.902770386919201, -3.093028704828113 ], [ -59.902528566521632, -3.092953991076948 ], [ -59.902245409315071, -3.09292965890574 ], [ -59.901874721905067, -3.092989989480443 ], [ -59.901867814886828, -3.092990008471346 ], [ -59.901471212493433, -3.093126949824051 ], [ -59.90146344506767, -3.093126971178618 ], [ -59.900792484579824, -3.093415805503443 ], [ -59.900296235471643, -3.093675873544454 ], [ -59.900276754276582, -3.093304547188461 ], [ -59.900353951324732, -3.093113353312138 ], [ -59.900463634773885, -3.092882751093956 ], [ -59.900528855002655, -3.092767278151614 ], [ -59.900528838023988, -3.092761034599875 ], [ -59.90056229818687, -3.092642072147796 ], [ -59.900562285537077, -3.092637420314997 ], [ -59.900536406655313, -3.092467155448114 ], [ -59.900544725485261, -3.092318033507063 ], [ -59.900581491891508, -3.092224906651088 ], [ -59.900658503198514, -3.09217622755386 ], [ -59.900883778363848, -3.092184317316717 ], [ -59.901027043572775, -3.092192393725442 ], [ -59.90103183253504, -3.092192380565358 ], [ -59.901120745710529, -3.092159603210184 ], [ -59.901131888990626, -3.092153963965487 ], [ -59.901160518460244, -3.092103275224518 ], [ -59.901160500391903, -3.092096630992849 ], [ -59.901194006695349, -3.091994651203783 ], [ -59.90119399028422, -3.091988616230592 ], [ -59.901201953002058, -3.091819236589642 ], [ -59.901175467919948, -3.091322386331516 ], [ -59.901063848484235, -3.091056845470205 ], [ -59.901183044031683, -3.090580656131586 ], [ -59.901518184121066, -3.090085369116264 ], [ -59.901523631171678, -3.090085354155372 ], [ -59.901686427511869, -3.089639752901902 ], [ -59.901760644075225, -3.089158724180494 ], [ -59.901759665432287, -3.088798559966777 ], [ -59.90162498723766, -3.08847110215113 ], [ -59.901496106885546, -3.088162537504836 ], [ -59.901496091148665, -3.088156743886459 ], [ -59.901123047237128, -3.087690603832728 ], [ -59.901138035442166, -3.086937089792823 ], [ -59.90113802126087, -3.086931866148285 ], [ -59.90103825916033, -3.086650171306443 ], [ -59.90103136030703, -3.086643273914667 ], [ -59.900833906088074, -3.086343009341139 ], [ -59.900595337813357, -3.085579494385386 ], [ -59.900275377861114, -3.085091474111602 ], [ -59.899471864294078, -3.084271214615102 ], [ -59.898485981900755, -3.083226563615844 ], [ -59.898480790878452, -3.083226577827086 ], [ -59.897897930188655, -3.082918419204162 ], [ -59.897561637351863, -3.082439462967616 ], [ -59.897555654415861, -3.082439479337448 ], [ -59.897312891587319, -3.082222775723743 ], [ -59.896873097658798, -3.08174924751039 ], [ -59.896528264412439, -3.081505471582995 ], [ -59.896136028384788, -3.081275471477463 ], [ -59.895802748710899, -3.080746051728989 ], [ -59.89560659711028, -3.080413764431172 ], [ -59.895435230644694, -3.079935524130742 ], [ -59.895391304396995, -3.079649325580529 ], [ -59.895542623925351, -3.079214563606901 ], [ -59.895542594152673, -3.079203548067219 ], [ -59.895408615076086, -3.078803119753533 ], [ -59.895404555518212, -3.078799060668084 ], [ -59.894437653038388, -3.078194174803225 ], [ -59.894432453104471, -3.078194188995834 ], [ -59.893435234077153, -3.077984643113274 ], [ -59.893428017601792, -3.077984662801621 ], [ -59.892837327656494, -3.077943867338627 ], [ -59.891984418485322, -3.078009082752669 ] ] } },
{ "type": "Feature", "properties": { "id": 18, "pagina": 15, "classe": "Limites dos bairros de Manaus", "metodo": "CONTORNO_PDF", "comp_m": 4627.9178334283415, "origem": "Prefeitura de Manaus - GeoManaus" }, "geometry": { "type": "LineString", "coordinates": [ [ -59.914494816320016, -3.076236459942199 ], [ -59.914589950719936, -3.076475293357365 ], [ -59.915328647482234, -3.07803477918676 ], [ -59.915609096595183, -3.078586347704189 ], [ -59.915754333604305, -3.07894423883161 ], [ -59.915831783775964, -3.07922667552518 ], [ -59.915866911865415, -3.079570299603948 ], [ -59.915807860555894, -3.079880114797689 ], [ -59.915688898059408, -3.080207473571922 ], [ -59.915009149155701, -3.081004874058214 ], [ -59.915009181111785, -3.081016611458543 ], [ -59.915274869105552, -3.081298839683084 ], [ -59.916577619517362, -3.082465932665442 ], [ -59.917054667352751, -3.082825649467185 ], [ -59.917062314613368, -3.08282562839993 ], [ -59.918657291608056, -3.083834382566284 ], [ -59.920163531061355, -3.084789802244262 ], [ -59.920933128371388, -3.08531106922818 ], [ -59.920933149557811, -3.085318824290793 ], [ -59.921397289843291, -3.085592048693082 ], [ -59.922275367016397, -3.085988041933441 ], [ -59.922722556815927, -3.086156272510436 ], [ -59.923108344711288, -3.086281554889098 ], [ -59.923115498519586, -3.08628153511822 ], [ -59.923893688368452, -3.086415369451884 ], [ -59.924737725642679, -3.086489380407903 ], [ -59.925330054363535, -3.08653876855389 ], [ -59.926295683358653, -3.086731834127707 ], [ -59.92710092678049, -3.087019030097461 ], [ -59.927737403299304, -3.087323980737119 ], [ -59.927949254030537, -3.087473950770506 ], [ -59.927949271870766, -3.087480460742822 ], [ -59.928658458856674, -3.087821920287392 ], [ -59.930672028726256, -3.088920314903469 ], [ -59.932355643008123, -3.089841281257343 ], [ -59.932847172323889, -3.090137594499982 ], [ -59.933245690902588, -3.090417225882975 ], [ -59.933601839900753, -3.090688444535729 ], [ -59.934127801059432, -3.091137897438806 ], [ -59.93446762952297, -3.09149460970031 ], [ -59.934875171230686, -3.091978391265939 ], [ -59.9352577282731, -3.092513646259086 ], [ -59.935530213145199, -3.093006886672113 ], [ -59.935828173513038, -3.093669492052513 ], [ -59.935981729182046, -3.09407767638984 ], [ -59.936229141795017, -3.094892844605137 ], [ -59.936664125959801, -3.096470439194707 ], [ -59.936910349090283, -3.097164192091816 ], [ -59.9370372117396, -3.097409073357242 ], [ -59.937164259847748, -3.097662753354515 ], [ -59.937307699253815, -3.097890357411151 ], [ -59.937484840138289, -3.098134833245384 ], [ -59.937720881013611, -3.098396076638855 ], [ -59.937956415551319, -3.098614715693885 ], [ -59.93835440124036, -3.098885484173704 ], [ -59.938362065054704, -3.098893145568073 ], [ -59.938753266303664, -3.099092582032175 ], [ -59.938760374235585, -3.099092562201103 ], [ -59.939189784893706, -3.099237993139055 ], [ -59.939197173440895, -3.099245379334377 ], [ -59.93958783650843, -3.099311102025502 ], [ -59.939965652616017, -3.099335363894233 ], [ -59.940327173791644, -3.099300538414833 ], [ -59.940944361689937, -3.099230802780777 ], [ -59.940951099853521, -3.09923078396648 ], [ -59.941715827376058, -3.098991910801977 ], [ -59.942423895348789, -3.098709995583277 ], [ -59.943158481624771, -3.098419041923923 ], [ -59.943434414480535, -3.098331253366836 ] ] } }
]
}
