{
"type": "FeatureCollection",
"name": "p15_sobreposicoes_titulos_intersec_21s",
"crs": { "type": "name", "properties": { "name": "urn:ogc:def:crs:EPSG::31981" } },
"features": [
{ "type": "Feature", "properties": { "id": 1, "pagina": 15, "titulo_id": 1, "rotulo": "Empresa de Plantacoes I - 30/09/1931", "camada": "terras_dest", "area_m2": 178464.161, "perc_tit": 3.8, "id_layer": "p15_sobreposicoes_titulos_intersec", "doc_fonte": "Resposta SECT_autos.pdf", "doc_pagina": 15, "doc_folha": 108, "doc_escala": "1:15.000", "doc_metodo": "Reconstituição Vetorial Afim", "doc_rms_m": 0.68 }, "geometry": { "type": "MultiPolygon", "coordinates": [ [ [ [ 176475.477905582869425, 9657074.484712239354849 ], [ 176476.431532276852522, 9656942.878769509494305 ], [ 176200.402906366885873, 9656806.307060366496444 ], [ 175925.51677054647007, 9657137.118454718962312 ], [ 175924.562225227506133, 9657138.073000019416213 ], [ 175889.438048835698282, 9657151.296295683830976 ], [ 176708.870976023201365, 9657268.817203057929873 ], [ 176476.351420730876271, 9657076.231631398200989 ], [ 176475.477905582869425, 9657074.484712239354849 ] ] ], [ [ [ 175435.237498036585748, 9657081.337445851415396 ], [ 175435.225146930548362, 9657086.15428027138114 ], [ 175807.554056161490735, 9657139.552709601819515 ], [ 175728.808880053518806, 9657081.934111269190907 ], [ 175435.237498036585748, 9657081.337445851415396 ] ] ] ] } },
{ "type": "Feature", "properties": { "id": 2, "pagina": 15, "titulo_id": 1, "rotulo": "Empresa de Plantacoes I - 30/09/1931", "camada": "dom_part", "area_m2": 5086.694, "perc_tit": 0.1083, "id_layer": "p15_sobreposicoes_titulos_intersec", "doc_fonte": "Resposta SECT_autos.pdf", "doc_pagina": 15, "doc_folha": 108, "doc_escala": "1:15.000", "doc_metodo": "Reconstituição Vetorial Afim", "doc_rms_m": 0.68 }, "geometry": { "type": "Polygon", "coordinates": [ [ [ 177020.690754576702602, 9657420.041780455037951 ], [ 177002.593464453530032, 9657421.743721501901746 ], [ 177288.119068035943201, 9657659.368652708828449 ], [ 177328.820902780629694, 9657675.649536667391658 ], [ 177020.690754576702602, 9657420.041780455037951 ] ] ] } },
{ "type": "Feature", "properties": { "id": 3, "pagina": 15, "titulo_id": 1, "rotulo": "Empresa de Plantacoes I - 30/09/1931", "camada": "aeis_lula", "area_m2": 221098.088, "perc_tit": 4.7078, "id_layer": "p15_sobreposicoes_titulos_intersec", "doc_fonte": "Resposta SECT_autos.pdf", "doc_pagina": 15, "doc_folha": 108, "doc_escala": "1:15.000", "doc_metodo": "Reconstituição Vetorial Afim", "doc_rms_m": 0.68 }, "geometry": { "type": "Polygon", "coordinates": [ [ [ 175049.354342004371574, 9657505.023757740855217 ], [ 175049.354342012054985, 9657506.124904055148363 ], [ 174883.057253303588368, 9657983.407092733308673 ], [ 174880.429728442104533, 9658056.738521035760641 ], [ 174886.026005078456365, 9658056.9928854778409 ], [ 174905.773275998915778, 9658056.9928854778409 ], [ 174929.265837351616938, 9658057.932549668475986 ], [ 174951.757613813620992, 9658057.932549668475986 ], [ 174980.76973492387333, 9658059.804341590031981 ], [ 175000.596735103754327, 9658060.748450128361583 ], [ 175035.353259153460385, 9658061.687896324321628 ], [ 175053.108945286192466, 9658062.622368568554521 ], [ 175095.657967989478493, 9658065.458978017792106 ], [ 175114.579689445818076, 9658064.463137958198786 ], [ 175130.582477215386461, 9658058.462124491110444 ], [ 175131.352503686066484, 9658058.077062305063009 ], [ 175161.170648134342628, 9658061.691445410251617 ], [ 175162.26951791162719, 9658061.691445410251617 ], [ 175172.192437227902701, 9658066.201769292354584 ], [ 175199.026706145319622, 9658070.993672523647547 ], [ 175228.426820219203364, 9658077.424925381317735 ], [ 175236.577306652296102, 9658052.973926862701774 ], [ 175237.182908759190468, 9658051.762645656242967 ], [ 175260.729606739769224, 9658018.797293037176132 ], [ 175270.218515703891171, 9657997.921379864215851 ], [ 175289.569290216051741, 9657965.025383593514562 ], [ 175289.569290212617489, 9657964.534027138724923 ], [ 175297.663259526307229, 9657954.821099478751421 ], [ 175298.392217220680322, 9657954.092049103230238 ], [ 175314.718512356193969, 9657938.672847582027316 ], [ 175315.447757631423883, 9657938.308271313086152 ], [ 175349.276989023666829, 9657929.850903943181038 ], [ 175369.286639522702899, 9657919.846078937873244 ], [ 175373.659881620871602, 9657915.472836932167411 ], [ 175393.835480858484516, 9657894.336408048868179 ], [ 175410.73215533272014, 9657865.512825822457671 ], [ 175411.722678685851861, 9657842.729903977364302 ], [ 175413.627360555867199, 9657816.06665656529367 ], [ 175409.801558971492341, 9657776.85310635343194 ], [ 175404.00456633255817, 9657748.834269378334284 ], [ 175394.023207014979562, 9657725.877296261489391 ], [ 175393.544898252002895, 9657725.398987514898181 ], [ 175388.237854788836557, 9657693.556728962808847 ], [ 175388.237854787323158, 9657693.341582855209708 ], [ 175391.745552416250575, 9657665.280670063570142 ], [ 175392.153464445844293, 9657664.872758043929935 ], [ 175397.791688636061735, 9657651.71698141284287 ], [ 175398.603127050271723, 9657650.905543014407158 ], [ 175407.793106842436828, 9657645.057509401813149 ], [ 175409.798493192647584, 9657644.556067205965519 ], [ 175465.05522650538478, 9657652.844694066792727 ], [ 175492.470813349209493, 9657658.556383430957794 ], [ 175498.183108342404012, 9657627.710106382146478 ], [ 175498.183108338504098, 9657627.151990024372935 ], [ 175509.27985577043728, 9657595.095277348533273 ], [ 175440.479745406075381, 9657610.145190028473735 ], [ 175435.708568731672131, 9657611.099376803264022 ], [ 175424.425056378444424, 9657613.920434167608619 ], [ 175364.283959013293497, 9657626.136538235470653 ], [ 175335.195302825944964, 9657633.408644298091531 ], [ 175332.834975716046756, 9657632.936602899804711 ], [ 175300.776216439437121, 9657606.373432159423828 ], [ 175231.966353057854576, 9657557.358319977298379 ], [ 175141.660405317816185, 9657497.15435678139329 ], [ 175051.027005239389837, 9657438.620367830619216 ], [ 175020.953331976896152, 9657426.345409085974097 ], [ 175049.354342004371574, 9657505.023757740855217 ] ] ] } },
{ "type": "Feature", "properties": { "id": 4, "pagina": 15, "titulo_id": 1, "rotulo": "Empresa de Plantacoes I - 30/09/1931", "camada": "aeis_maua", "area_m2": 17667.568, "perc_tit": 0.3762, "id_layer": "p15_sobreposicoes_titulos_intersec", "doc_fonte": "Resposta SECT_autos.pdf", "doc_pagina": 15, "doc_folha": 108, "doc_escala": "1:15.000", "doc_metodo": "Reconstituição Vetorial Afim", "doc_rms_m": 0.68 }, "geometry": { "type": "Polygon", "coordinates": [ [ [ 175728.808880053518806, 9657081.934111269190907 ], [ 175263.083734928979538, 9657080.98755412735045 ], [ 175262.506138919503428, 9657081.452732279896736 ], [ 175279.31450603416306, 9657081.452732279896736 ], [ 175532.840636266919319, 9657140.608819622546434 ], [ 175568.417378037731396, 9657143.493565622717142 ], [ 175596.314933000598103, 9657140.607518943026662 ], [ 175656.858643417945132, 9657129.255784049630165 ], [ 175755.839890310628107, 9657101.712959948927164 ], [ 175728.808880053518806, 9657081.934111269190907 ] ] ] } },
{ "type": "Feature", "properties": { "id": 5, "pagina": 15, "titulo_id": 1, "rotulo": "Empresa de Plantacoes I - 30/09/1931", "camada": "uniao", "area_m2": 3267353.084, "perc_tit": 69.5708, "id_layer": "p15_sobreposicoes_titulos_intersec", "doc_fonte": "Resposta SECT_autos.pdf", "doc_pagina": 15, "doc_folha": 108, "doc_escala": "1:15.000", "doc_metodo": "Reconstituição Vetorial Afim", "doc_rms_m": 0.68 }, "geometry": { "type": "Polygon", "coordinates": [ [ [ 174883.057253303588368, 9657983.407092733308673 ], [ 174872.666640300216386, 9658273.39806623570621 ], [ 174890.13686568805133, 9658264.66295375674963 ], [ 174891.596080500108656, 9658264.66295375674963 ], [ 176386.864746537234168, 9658373.477971704676747 ], [ 176388.333962665084982, 9658375.681749107316136 ], [ 176321.386841809406178, 9659434.579169005155563 ], [ 177837.084893561055651, 9659438.363770198076963 ], [ 177841.81279007345438, 9657671.945163827389479 ], [ 177620.896498215326574, 9657714.578144265338778 ], [ 177542.463875197252491, 9657755.265135031193495 ], [ 177528.58256338670617, 9657769.146446522325277 ], [ 177527.642899210157339, 9657774.784670641645789 ], [ 177528.179826780222356, 9657774.784670641645789 ], [ 177522.004906242567813, 9657818.010999834164977 ], [ 177521.065249994018814, 9657818.950679961591959 ], [ 177514.529126567824278, 9657867.969529155641794 ], [ 177513.547458654502407, 9657868.754913400858641 ], [ 177510.893811298825312, 9657891.639413893222809 ], [ 177507.908995682984823, 9657911.041474845260382 ], [ 177514.72145294182701, 9657904.229017728939652 ], [ 177501.331346457940526, 9657953.328155780211091 ], [ 177499.452107689226978, 9657968.362783286720514 ], [ 177470.321472802810604, 9658160.062522694468498 ], [ 177464.123006200679811, 9658207.019300939515233 ], [ 177455.200453188910615, 9658266.505257949233055 ], [ 177454.346225962945027, 9658267.188661439344287 ], [ 177447.455726694082841, 9658318.869597766548395 ], [ 177426.155344904633239, 9658458.88792297616601 ], [ 177426.417794138833415, 9658458.677956914529204 ], [ 177415.323500349739334, 9658529.996259050443769 ], [ 177408.300769260444213, 9658525.606828996911645 ], [ 177408.079685029224493, 9658525.938483444973826 ], [ 177381.989215176989092, 9658509.631940316408873 ], [ 177381.445000458334107, 9658510.176178090274334 ], [ 177350.583362217817921, 9658492.173120308667421 ], [ 177350.978862014482729, 9658491.777603756636381 ], [ 177328.425964787660632, 9658478.621707631275058 ], [ 177328.191058939963114, 9658478.856633387506008 ], [ 177301.174746424920158, 9658462.646818917244673 ], [ 177301.024240302649559, 9658462.872530257329345 ], [ 177270.708349220862146, 9658445.188207484781742 ], [ 177271.104057543794625, 9658444.792482392862439 ], [ 177243.394997075578431, 9658429.275335740298033 ], [ 177243.852839212748222, 9658428.817474205046892 ], [ 177221.299942005221965, 9658415.661697583273053 ], [ 177189.943288297654362, 9658398.327418485656381 ], [ 177190.290066767018288, 9658397.80736100487411 ], [ 177163.582502451172331, 9658382.227901812642813 ], [ 177163.978034694300732, 9658381.832352813333273 ], [ 177141.42513746212353, 9658368.676576176658273 ], [ 177140.881131266010925, 9658369.220605416223407 ], [ 177110.019252074474934, 9658351.217788621783257 ], [ 177110.41478431437281, 9658350.822239624336362 ], [ 177002.893488790665288, 9658288.257810464128852 ], [ 177003.289239487581654, 9658287.862110087648034 ], [ 176980.736342225660337, 9658274.706333434209228 ], [ 176980.501319383329246, 9658274.941356271505356 ], [ 176953.484645977208856, 9658258.731325270608068 ], [ 176953.334301234048326, 9658258.956851944327354 ], [ 176923.018684218637645, 9658241.272689048200846 ], [ 176923.414434921636712, 9658240.876988673582673 ], [ 176899.921873440383933, 9658227.721212016418576 ], [ 176899.700651927298168, 9658228.052959898486733 ], [ 176873.609841428580694, 9658211.746203860267997 ], [ 176842.142124105332186, 9658194.349728845059872 ], [ 176842.599966240959475, 9658193.891867311671376 ], [ 176828.504524961754214, 9658185.43453112244606 ], [ 176832.733024009387009, 9658161.472140040248632 ], [ 176833.202845875814091, 9658161.002306237816811 ], [ 176855.322165620018495, 9658054.309721933677793 ], [ 176855.755742251029005, 9658053.876167362555861 ], [ 176856.736366575030843, 9658047.380201952531934 ], [ 176854.816077964496799, 9658043.53950279019773 ], [ 176837.901644066907465, 9658035.082166621461511 ], [ 176837.703728994645644, 9658035.280056528747082 ], [ 176808.771575554797892, 9658021.92671182192862 ], [ 176780.579258866724558, 9658007.830829674378037 ], [ 176780.381517683970742, 9658008.028579235076904 ], [ 176746.948219684592914, 9657992.597776491194963 ], [ 176747.690055221348302, 9657991.855940969660878 ], [ 176723.257829585083527, 9657980.579492725431919 ], [ 176722.944443420157768, 9657980.892892170697451 ], [ 176690.368147946428508, 9657964.604484526440501 ], [ 176665.93592230201466, 9657953.328155763447285 ], [ 176665.62258582591312, 9657953.64143910817802 ], [ 176633.046240757626947, 9657937.353267084807158 ], [ 176603.470560800022213, 9657923.70276453346014 ], [ 176603.915694020484807, 9657923.257706781849265 ], [ 176579.477253841439961, 9657911.978270754218102 ], [ 176551.292107879678952, 9657897.885698217898607 ], [ 176551.104176407447085, 9657898.073629686608911 ], [ 176522.537560563388979, 9657884.918016854673624 ], [ 176469.760354332509451, 9657846.449104079976678 ], [ 176449.50745304179145, 9657823.945976620540023 ], [ 176449.804309263447067, 9657823.649120405316353 ], [ 176427.828504393430194, 9657800.516741488128901 ], [ 176412.216067431174451, 9657782.302342645823956 ], [ 176411.573181982239475, 9657782.945228081196547 ], [ 176388.426909515983425, 9657757.22693046182394 ], [ 176388.72122932045022, 9657756.932610662654042 ], [ 176366.079246086301282, 9657733.127400094643235 ], [ 176348.019573721627239, 9657713.060928082093596 ], [ 176348.314017241937108, 9657712.766459608450532 ], [ 176325.671414813259616, 9657688.960636056959629 ], [ 176297.572491465776693, 9657658.261531393975019 ], [ 176253.908280665054917, 9657640.403021590784192 ], [ 176225.215239820652641, 9657629.130746582522988 ], [ 176224.931602741562529, 9657629.556238263845444 ], [ 176171.652228475752054, 9657608.457417441532016 ], [ 176161.315443536499515, 9657524.823719725012779 ], [ 176154.93043151195161, 9657482.157632153481245 ], [ 176155.677218949276721, 9657481.597494112327695 ], [ 176149.596748912095791, 9657440.248445246368647 ], [ 176141.581776985898614, 9657374.471474738791585 ], [ 176137.822880960913608, 9657348.159682502970099 ], [ 176134.064224065019516, 9657345.340450944378972 ], [ 176118.715538806776749, 9657347.533598149195313 ], [ 176119.968782864423702, 9657346.280354117974639 ], [ 176073.110540605994174, 9657350.851981975138187 ], [ 176073.92332440710743, 9657350.039249865338206 ], [ 176027.064989138540113, 9657354.610596148297191 ], [ 176027.877627014706377, 9657353.797906618565321 ], [ 175981.139928569027688, 9657358.249237159267068 ], [ 175981.832407398236683, 9657357.556802377104759 ], [ 175935.09462085578707, 9657362.007831357419491 ], [ 175935.786949079745682, 9657361.315459128469229 ], [ 175896.319379121181555, 9657364.134690681472421 ], [ 175895.813478906697128, 9657364.640623053535819 ], [ 175850.273920656443806, 9657367.893586423248053 ], [ 175849.768224772735266, 9657368.399282295256853 ], [ 175804.228701188258128, 9657371.652243189513683 ], [ 175803.722469373315107, 9657372.158474992960691 ], [ 175758.183242744707968, 9657375.411138931289315 ], [ 175757.677230821194826, 9657375.917118676006794 ], [ 175712.137545338599011, 9657379.169795697554946 ], [ 175711.717024601064622, 9657379.590396650135517 ], [ 175620.046867390628904, 9657386.687587179243565 ], [ 175619.626536804134957, 9657387.107917757704854 ], [ 175574.001647927274462, 9657390.446482928469777 ], [ 175573.567944030161016, 9657390.880159242078662 ], [ 175527.016525260376511, 9657394.205139689147472 ], [ 175526.510590403107926, 9657394.711074536666274 ], [ 175480.971066825761227, 9657397.964035427197814 ], [ 175480.43406220342149, 9657398.500971768051386 ], [ 175446.202056918351445, 9657400.783028000965714 ], [ 175443.383064299938269, 9657405.481587937101722 ], [ 175463.11673026176868, 9657455.799091575667262 ], [ 175476.02617408518563, 9657487.485635463148355 ], [ 175485.669388714857632, 9657514.487174684181809 ], [ 175427.803335905307904, 9657530.066452652215958 ], [ 175428.347481030243216, 9657529.522279882803559 ], [ 175379.483269716467476, 9657541.738392135128379 ], [ 175378.592683304857928, 9657542.628933236002922 ], [ 175320.082786523475079, 9657557.542768320068717 ], [ 175291.868348343443358, 9657539.141926279291511 ], [ 175292.090912797750207, 9657538.919399559497833 ], [ 175265.489950316783506, 9657522.29365760833025 ], [ 175265.778880738129374, 9657522.004727194085717 ], [ 175244.165886704198783, 9657507.909286368638277 ], [ 175243.790068809292279, 9657508.285104256123304 ], [ 175217.85433260674472, 9657490.994614012539387 ], [ 175217.588594992965227, 9657491.39316974952817 ], [ 175188.500845400849357, 9657472.423094665631652 ], [ 175188.723546886845725, 9657472.200374299660325 ], [ 175162.190766279061791, 9657455.617527527734637 ], [ 175162.411992738227127, 9657455.285701904445887 ], [ 175140.798759680066723, 9657441.190261051058769 ], [ 175140.509699630667455, 9657441.479345597326756 ], [ 175110.507265151914908, 9657422.727784920483828 ], [ 175110.728309684403939, 9657422.396260289475322 ], [ 175085.133845264732372, 9657405.703923512250185 ], [ 175085.356180845905328, 9657405.481587937101722 ], [ 175062.803283620334696, 9657391.386147117242217 ], [ 175062.537641967472155, 9657391.784609587863088 ], [ 175036.93772194054327, 9657375.08918240852654 ], [ 175007.360704822698608, 9657364.134690683335066 ], [ 175008.30084702509339, 9657367.893586428835988 ], [ 175010.180175489629619, 9657372.59214636310935 ], [ 175015.818160922499374, 9657390.446482928469777 ], [ 175028.825776247686008, 9657426.303043432533741 ], [ 175028.372855584981153, 9657426.755956141278148 ], [ 175040.565318998531438, 9657458.109332395717502 ], [ 175046.994394467183156, 9657477.396230878308415 ], [ 175046.828514565713704, 9657477.838598374277353 ], [ 175048.238979117042618, 9657481.12992132268846 ], [ 175050.822398743854137, 9657488.880048440769315 ], [ 175050.58741050309618, 9657489.115046637132764 ], [ 175059.04462760585011, 9657513.54751049913466 ], [ 175059.044627676485106, 9657523.649129580706358 ], [ 175058.547414750704775, 9657523.441955776885152 ], [ 175056.225396055349847, 9657525.763383954763412 ], [ 175052.466500278474996, 9657536.100168019533157 ], [ 175066.506782809679862, 9657522.05988578312099 ], [ 175083.400765646714717, 9657541.065481539815664 ], [ 175068.780727450706763, 9657556.172705288976431 ], [ 175051.526836095523322, 9657538.91939957626164 ], [ 175044.949186687619658, 9657558.653064578771591 ], [ 175045.285895676264772, 9657558.765305666252971 ], [ 175034.38002908101771, 9657589.923848859965801 ], [ 175033.672738365043188, 9657590.602841891348362 ], [ 175030.853267805592623, 9657598.120633386075497 ], [ 175031.187358851981116, 9657598.240904664620757 ], [ 175016.758065839996561, 9657639.467530678957701 ], [ 175017.046877958287951, 9657639.539729118347168 ], [ 175011.589853012003005, 9657655.912191702052951 ], [ 175011.119841694744537, 9657656.382203008979559 ], [ 175002.301209977304097, 9657682.838378304615617 ], [ 175001.722721754136728, 9657682.693756254389882 ], [ 174994.204930211271858, 9657705.246652776375413 ], [ 174999.373651003086707, 9657710.414716215804219 ], [ 174998.903490313823568, 9657710.884876895695925 ], [ 175006.922442680282984, 9657717.901268800720572 ], [ 174991.385937750193989, 9657733.437773387879133 ], [ 174985.747713432298042, 9657727.799549268558621 ], [ 174983.868146065797191, 9657734.377437578514218 ], [ 174976.35083234377089, 9657736.256765965372324 ], [ 174970.235691063920967, 9657733.199973035603762 ], [ 174883.057253303588368, 9657983.407092733308673 ] ] ] } },
{ "type": "Feature", "properties": { "id": 6, "pagina": 15, "titulo_id": 2, "rotulo": "2o lote - legenda compartilhada I/II", "camada": "terras_dest", "area_m2": 2159.475, "perc_tit": 0.336, "id_layer": "p15_sobreposicoes_titulos_intersec", "doc_fonte": "Resposta SECT_autos.pdf", "doc_pagina": 15, "doc_folha": 108, "doc_escala": "1:15.000", "doc_metodo": "Reconstituição Vetorial Afim", "doc_rms_m": 0.68 }, "geometry": { "type": "MultiPolygon", "coordinates": [ [ [ [ 177847.521378194127465, 9656638.743371367454529 ], [ 177853.293152196449228, 9657135.112954437732697 ], [ 177854.904706460598391, 9656637.742921071127057 ], [ 177847.521378194127465, 9656638.743371367454529 ] ] ], [ [ [ 177118.648285960662179, 9657326.80652191862464 ], [ 177119.49440892713028, 9657327.52517812512815 ], [ 177121.511290162190562, 9656582.457082828506827 ], [ 177121.489216210931772, 9656582.451107915490866 ], [ 177118.648285960662179, 9657326.80652191862464 ] ] ] ] } },
{ "type": "Feature", "properties": { "id": 7, "pagina": 15, "titulo_id": 2, "rotulo": "2o lote - legenda compartilhada I/II", "camada": "dom_part", "area_m2": 642561.368, "perc_tit": 99.9686, "id_layer": "p15_sobreposicoes_titulos_intersec", "doc_fonte": "Resposta SECT_autos.pdf", "doc_pagina": 15, "doc_folha": 108, "doc_escala": "1:15.000", "doc_metodo": "Reconstituição Vetorial Afim", "doc_rms_m": 0.68 }, "geometry": { "type": "Polygon", "coordinates": [ [ [ 177120.296664266992593, 9656894.913019241765141 ], [ 177119.197956300427904, 9657327.273385502398014 ], [ 177483.701569714292418, 9657636.865246679633856 ], [ 177634.985416047857143, 9657561.699040934443474 ], [ 177636.206905114231631, 9657561.699040934443474 ], [ 177852.053932112787152, 9657517.570404414087534 ], [ 177853.22683156534913, 9657155.581327885389328 ], [ 177853.925694242760073, 9656830.595893923193216 ], [ 177854.356718209310202, 9656806.867188800126314 ], [ 177854.904706460598391, 9656637.742921071127057 ], [ 177720.889156562072458, 9656655.902197171002626 ], [ 177720.80468563886825, 9656655.97176137752831 ], [ 177640.948132962686941, 9656666.979055691510439 ], [ 177641.235294511017855, 9656666.695395978167653 ], [ 177502.878491300041787, 9656685.442917378619313 ], [ 177501.986139570159139, 9656685.442917378619313 ], [ 177170.07103554380592, 9656595.601094610989094 ], [ 177170.050723194814054, 9656595.793337257578969 ], [ 177121.488548857130809, 9656582.625962052494287 ], [ 177120.296664266992593, 9656894.913019241765141 ] ] ] } },
{ "type": "Feature", "properties": { "id": 8, "pagina": 15, "titulo_id": 3, "rotulo": "1o lote - legenda compartilhada I/II", "camada": "dom_part", "area_m2": 717987.824, "perc_tit": 36.3428, "id_layer": "p15_sobreposicoes_titulos_intersec", "doc_fonte": "Resposta SECT_autos.pdf", "doc_pagina": 15, "doc_folha": 108, "doc_escala": "1:15.000", "doc_metodo": "Reconstituição Vetorial Afim", "doc_rms_m": 0.68 }, "geometry": { "type": "MultiPolygon", "coordinates": [ [ [ [ 173689.730222446116386, 9656560.292908988893032 ], [ 174047.501546092855278, 9656928.824276627972722 ], [ 174165.935241197585128, 9656921.304741648957133 ], [ 174166.158373926649801, 9656921.527760932222009 ], [ 174308.992672613530885, 9656994.824231162667274 ], [ 174309.28883824282093, 9656995.12039678171277 ], [ 174422.719198318809504, 9657171.883169792592525 ], [ 174949.032782075635623, 9657238.971740737557411 ], [ 175013.856506290467223, 9657194.093505725264549 ], [ 174601.548552031046711, 9656513.738519018515944 ], [ 174577.717533224989893, 9656518.610370060428977 ], [ 174541.006550306570716, 9656547.854717094451189 ], [ 174539.137404613400577, 9656547.854717094451189 ], [ 174524.150089760456467, 9656529.561333062127233 ], [ 174364.100119595881552, 9656562.280857989564538 ], [ 174363.672254511620849, 9656562.280857989564538 ], [ 173689.730222446116386, 9656560.292908988893032 ] ] ], [ [ [ 173409.544192416185979, 9656988.879680830985308 ], [ 173460.216614360135281, 9657031.756401289254427 ], [ 173454.906708674127003, 9656867.147538302466273 ], [ 173460.056058796471916, 9657021.629699975252151 ], [ 173491.933895755268168, 9657050.694673409685493 ], [ 173537.621062519145198, 9657110.367598874494433 ], [ 173590.038048687885748, 9657209.959815165027976 ], [ 173599.318535728263669, 9657073.848180377855897 ], [ 173591.793297089578118, 9656698.53559659793973 ], [ 173570.720585704053519, 9656559.941862344741821 ], [ 173403.018433404387906, 9656559.447185784578323 ], [ 173401.58061336632818, 9656985.347684036940336 ], [ 173409.097455638402607, 9656988.879680830985308 ], [ 173409.544192416185979, 9656988.879680830985308 ] ] ], [ [ [ 173401.008430269168457, 9657154.835561316460371 ], [ 173472.535117083083605, 9657121.294709986075759 ], [ 173401.142991172528127, 9657114.976918183267117 ], [ 173401.008430269168457, 9657154.835561316460371 ] ] ], [ [ [ 173437.686786247824784, 9657382.36188843101263 ], [ 173539.153059710632078, 9657344.509178023785353 ], [ 173487.992284800391644, 9657203.818179592490196 ], [ 173400.734854932845337, 9657235.872039433568716 ], [ 173400.013031782058533, 9657449.685195067897439 ], [ 173555.914624777447898, 9657391.525056155398488 ], [ 173540.890898827405181, 9657344.450275683775544 ], [ 173437.686786247824784, 9657382.36188843101263 ] ] ], [ [ [ 173557.538959916360909, 9657444.351588942110538 ], [ 173519.733830087818205, 9657458.432074617594481 ], [ 173572.92820476781344, 9657438.484202232211828 ], [ 173556.624335717584472, 9657391.746096398681402 ], [ 173400.01271215552697, 9657449.779872493818402 ], [ 173399.537454788864125, 9657590.557121314108372 ], [ 173420.912706052389694, 9657655.118972500786185 ], [ 173608.702637001988478, 9657586.035822816193104 ], [ 173557.538959916360909, 9657444.351588942110538 ] ] ], [ [ [ 173473.299161965958774, 9657768.87914239615202 ], [ 173560.048773939488456, 9657890.899962594732642 ], [ 173741.059027266106568, 9657804.28738265670836 ], [ 173653.435730976751074, 9657682.205367522314191 ], [ 173653.613734898506664, 9657682.119733076542616 ], [ 173624.429636386048514, 9657641.04571639560163 ], [ 173534.048013986757724, 9657674.589601000770926 ], [ 173622.700250830414006, 9657636.595786157995462 ], [ 173605.43229765270371, 9657589.108505457639694 ], [ 173511.816433267696993, 9657624.214205715805292 ], [ 173511.978444261680124, 9657624.649071376770735 ], [ 173423.567988856346346, 9657666.845050802454352 ], [ 173443.088024702476105, 9657724.476598113775253 ], [ 173441.560681613802444, 9657724.858433876186609 ], [ 173473.64121871534735, 9657768.70123465359211 ], [ 173506.75276142245275, 9657752.771874172613025 ], [ 173473.299161965958774, 9657768.87914239615202 ] ], [ [ 173530.643954471073812, 9657674.750544264912605 ], [ 173529.999860835174331, 9657674.492900267243385 ], [ 173520.138666263985215, 9657646.552525224164128 ], [ 173530.643954471073812, 9657674.750544264912605 ] ] ], [ [ [ 173417.968937570985872, 9657783.265784321352839 ], [ 173417.968937567959074, 9657782.830282667651772 ], [ 173399.147222071012948, 9657706.148992737755179 ], [ 173398.286446243029786, 9657961.121690511703491 ], [ 173503.41742859579972, 9657961.367313716560602 ], [ 173518.23417994970805, 9657956.103464495390654 ], [ 173417.968937570985872, 9657783.265784321352839 ] ] ] ] } },
{ "type": "Feature", "properties": { "id": 9, "pagina": 15, "titulo_id": 3, "rotulo": "1o lote - legenda compartilhada I/II", "camada": "aeis_lula", "area_m2": 28490.379, "perc_tit": 1.4421, "id_layer": "p15_sobreposicoes_titulos_intersec", "doc_fonte": "Resposta SECT_autos.pdf", "doc_pagina": 15, "doc_folha": 108, "doc_escala": "1:15.000", "doc_metodo": "Reconstituição Vetorial Afim", "doc_rms_m": 0.68 }, "geometry": { "type": "Polygon", "coordinates": [ [ [ 174974.600982830743305, 9657729.026751175522804 ], [ 174980.838826739665819, 9657729.026751175522804 ], [ 175054.929766611079685, 9657515.413814697414637 ], [ 175023.978920392342843, 9657427.580342134460807 ], [ 174952.519504952360876, 9657398.413257397711277 ], [ 174919.671221799653722, 9657644.774158583953977 ], [ 174919.671221801749198, 9657645.076633688062429 ], [ 174907.489554538857192, 9657675.305338332429528 ], [ 174974.600982830743305, 9657729.026751175522804 ] ] ] } },
{ "type": "Feature", "properties": { "id": 10, "pagina": 15, "titulo_id": 3, "rotulo": "1o lote - legenda compartilhada I/II", "camada": "aeis_quar", "area_m2": 299774.738, "perc_tit": 15.1739, "id_layer": "p15_sobreposicoes_titulos_intersec", "doc_fonte": "Resposta SECT_autos.pdf", "doc_pagina": 15, "doc_folha": 108, "doc_escala": "1:15.000", "doc_metodo": "Reconstituição Vetorial Afim", "doc_rms_m": 0.68 }, "geometry": { "type": "Polygon", "coordinates": [ [ [ 174114.400879488850478, 9657275.420150091871619 ], [ 173951.314684911136283, 9657326.252057865262032 ], [ 173949.480119049170753, 9657326.252057865262032 ], [ 173813.153934073256096, 9657259.035640323534608 ], [ 173525.123397419287357, 9657381.401493640616536 ], [ 173522.202176155900816, 9657380.566813535988331 ], [ 173479.709181759390049, 9657305.967651939019561 ], [ 173400.535669537814101, 9657294.87327516078949 ], [ 173398.543631494743749, 9657884.940162954851985 ], [ 173900.289099007030018, 9657756.380896847695112 ], [ 174114.400879488850478, 9657275.420150091871619 ] ] ] } },
{ "type": "Feature", "properties": { "id": 11, "pagina": 15, "titulo_id": 3, "rotulo": "1o lote - legenda compartilhada I/II", "camada": "aeis_maua", "area_m2": 1272386.617, "perc_tit": 64.405, "id_layer": "p15_sobreposicoes_titulos_intersec", "doc_fonte": "Resposta SECT_autos.pdf", "doc_pagina": 15, "doc_folha": 108, "doc_escala": "1:15.000", "doc_metodo": "Reconstituição Vetorial Afim", "doc_rms_m": 0.68 }, "geometry": { "type": "Polygon", "coordinates": [ [ [ 174689.45346369271283, 9657500.771624041721225 ], [ 174927.523191907705041, 9657519.2986412756145 ], [ 174932.341045973967994, 9657452.812936736270785 ], [ 174936.1047802628309, 9657399.17756556160748 ], [ 174937.976642139314208, 9657355.192494451999664 ], [ 174945.411510068952339, 9657304.077510515227914 ], [ 174951.147373458225047, 9657284.001867163926363 ], [ 174951.147373450367013, 9657282.880212251096964 ], [ 174982.974397402053, 9657233.775364521890879 ], [ 174983.256446515384596, 9657233.493387127295136 ], [ 175094.617000068043126, 9657154.886037366464734 ], [ 175175.053581756917993, 9657105.314806155860424 ], [ 175199.459194897004636, 9657094.050291666761041 ], [ 175208.921856261178618, 9657088.372887495905161 ], [ 175210.241511972970329, 9657087.713059656322002 ], [ 175231.705394629127113, 9657081.452732279896736 ], [ 175279.31450603416306, 9657081.452732279896736 ], [ 175299.961639109009411, 9657086.270395873114467 ], [ 175435.205449853936443, 9657086.270395873114467 ], [ 175436.160966736730188, 9656486.178874215111136 ], [ 174745.626334997126833, 9656484.284239169210196 ], [ 174364.100119595881552, 9656562.280857989564538 ], [ 174363.672254511620849, 9656562.280857989564538 ], [ 173403.018433404387906, 9656559.447185784578323 ], [ 173402.544205844315002, 9656699.919392857700586 ], [ 173416.952633059961954, 9656716.603159109130502 ], [ 173493.623622601357056, 9656767.717070227488875 ], [ 173720.085752780578332, 9656918.06531298160553 ], [ 173865.750786360527854, 9657015.802062775939703 ], [ 174010.474009066208964, 9657110.717688104137778 ], [ 174147.245959423686145, 9657201.64002394862473 ], [ 174190.567662422457943, 9657104.326188258826733 ], [ 174193.331288287678035, 9657103.635325737297535 ], [ 174435.880517746845726, 9657297.791337944567204 ], [ 174590.489627579401713, 9657384.720074575394392 ], [ 174591.230875791516155, 9657385.831664148718119 ], [ 174601.584888441604562, 9657430.434512656182051 ], [ 174689.45346369271283, 9657500.771624041721225 ] ] ] } },
{ "type": "Feature", "properties": { "id": 12, "pagina": 15, "titulo_id": 3, "rotulo": "1o lote - legenda compartilhada I/II", "camada": "rvs_sauim", "area_m2": 380322.405, "perc_tit": 19.251, "id_layer": "p15_sobreposicoes_titulos_intersec", "doc_fonte": "Resposta SECT_autos.pdf", "doc_pagina": 15, "doc_folha": 108, "doc_escala": "1:15.000", "doc_metodo": "Reconstituição Vetorial Afim", "doc_rms_m": 0.68 }, "geometry": { "type": "MultiPolygon", "coordinates": [ [ [ [ 174052.134104480966926, 9657111.325432177633047 ], [ 174051.233175185363507, 9657111.325432177633047 ], [ 173975.597363960026996, 9657069.817644277587533 ], [ 173975.597363955923356, 9657069.231709655374289 ], [ 173761.743905936396914, 9656849.725985681638122 ], [ 173566.940314938081428, 9656649.164890952408314 ], [ 173590.26015248184558, 9656820.176689913496375 ], [ 173590.260152487375308, 9656820.966851782053709 ], [ 173584.623617584933527, 9657090.59217744320631 ], [ 173577.03851501038298, 9657194.884813209995627 ], [ 173618.130340051837265, 9657229.287507597357035 ], [ 173618.646439214382553, 9657229.803344363346696 ], [ 173631.678470626560738, 9657279.139227353036404 ], [ 173689.034732271626126, 9657470.953255746513605 ], [ 173768.086796658259118, 9657666.702002223581076 ], [ 173849.949441577278776, 9657781.880908673629165 ], [ 173850.624927376280539, 9657781.205422889441252 ], [ 173877.804904488060856, 9657806.88729570992291 ], [ 174162.815529981540749, 9657166.665991855785251 ], [ 174052.134104480966926, 9657111.325432177633047 ] ] ], [ [ [ 174870.162764224834973, 9657618.298388116061687 ], [ 174890.081333761278074, 9657387.811037488281727 ], [ 174793.342066075449111, 9657377.27525882422924 ], [ 174553.974272920313524, 9657344.420767856761813 ], [ 174435.077251961745787, 9657297.148339068517089 ], [ 174861.983459151466377, 9657638.878580633550882 ], [ 174870.162764224834973, 9657618.298388116061687 ] ] ] ] } },
{ "type": "Feature", "properties": { "id": 13, "pagina": 15, "titulo_id": 3, "rotulo": "1o lote - legenda compartilhada I/II", "camada": "uniao", "area_m2": 578133.256, "perc_tit": 29.2637, "id_layer": "p15_sobreposicoes_titulos_intersec", "doc_fonte": "Resposta SECT_autos.pdf", "doc_pagina": 15, "doc_folha": 108, "doc_escala": "1:15.000", "doc_metodo": "Reconstituição Vetorial Afim", "doc_rms_m": 0.68 }, "geometry": { "type": "MultiPolygon", "coordinates": [ [ [ [ 174193.331288287678035, 9657103.635325737297535 ], [ 174880.996945875813253, 9657654.098512556403875 ], [ 174888.019049458263908, 9657629.130746619775891 ], [ 174887.455509994266322, 9657629.694314736872911 ], [ 174893.657273566059303, 9657602.818954339250922 ], [ 174896.476505059370538, 9657583.08528939448297 ], [ 174896.16326596858562, 9657583.398528479039669 ], [ 174899.295497482031351, 9657550.195847814902663 ], [ 174899.295497376908315, 9657535.16050379909575 ], [ 174900.235161507269368, 9657522.944391384720802 ], [ 174875.950425614049891, 9657516.873207591474056 ], [ 174876.475544988468755, 9657512.607607325538993 ], [ 174900.234922457369976, 9657512.607607325538993 ], [ 174901.174825611378765, 9657506.969383200630546 ], [ 174901.174825532536488, 9657495.692935029044747 ], [ 174902.114489520346979, 9657462.803254391998053 ], [ 174901.508263988478575, 9657463.409479910507798 ], [ 174904.357572169566993, 9657416.39407928660512 ], [ 174904.933481845044298, 9657415.818133009597659 ], [ 174906.238573662907584, 9657370.50367777608335 ], [ 174907.752474010601873, 9657346.280115142464638 ], [ 174908.69237718815566, 9657341.581794111058116 ], [ 174910.571705448324792, 9657319.028897691518068 ], [ 174907.75247379267239, 9657315.270001946017146 ], [ 174858.888022688013734, 9657308.692113632336259 ], [ 174838.000892706244485, 9657306.603471517562866 ], [ 174762.098784483299823, 9657296.476001190021634 ], [ 174761.586212719645118, 9657297.159473640844226 ], [ 174694.440093044220703, 9657288.018784489482641 ], [ 174693.927543000521837, 9657288.702184531837702 ], [ 174621.143416278675431, 9657278.621664622798562 ], [ 174586.972160323522985, 9657275.204712934792042 ], [ 174587.314074650814291, 9657274.862769428640604 ], [ 174553.484724873938831, 9657270.164447927847505 ], [ 174551.60539642101503, 9657270.164447927847505 ], [ 174505.559937792655546, 9657248.551215622574091 ], [ 174505.311200253257994, 9657248.7999531570822 ], [ 174474.79835477823508, 9657234.206824261695147 ], [ 174475.489248855621554, 9657233.515871629118919 ], [ 174448.776503963774303, 9657221.901596548035741 ], [ 174449.177694836864248, 9657221.299759220331907 ], [ 174402.192571891966509, 9657198.746862675994635 ], [ 174401.943848612252623, 9657198.995607029646635 ], [ 174350.509127956494922, 9657174.314637804403901 ], [ 174350.260218220064417, 9657174.563568633049726 ], [ 174298.825206094741588, 9657149.882412945851684 ], [ 174298.576482823234983, 9657150.131157301366329 ], [ 174272.513651995162945, 9657137.666300494223833 ], [ 174272.200448298273841, 9657137.979530736804008 ], [ 174247.141762126120739, 9657125.450188048183918 ], [ 174246.893024586548563, 9657125.698925582692027 ], [ 174220.830208033788949, 9657113.234075618907809 ], [ 174220.516780853417004, 9657113.547502793371677 ], [ 174181.394111489120405, 9657093.985546890646219 ], [ 174181.06927863965393, 9657094.504030954092741 ], [ 174164.15870990374242, 9657086.416538612917066 ], [ 174164.447965015540831, 9657085.982619173824787 ], [ 174138.250165784702403, 9657074.592486137524247 ], [ 174139.076075172692072, 9657073.766506746411324 ], [ 174117.462842202949105, 9657063.42972269654274 ], [ 174117.214118932461133, 9657063.67846705019474 ], [ 174065.779398247657809, 9657038.997497810050845 ], [ 174065.530491803743644, 9657039.246383154764771 ], [ 174014.09547634673072, 9657014.565272931009531 ], [ 174013.846753067598911, 9657014.814017293974757 ], [ 173987.783922238973901, 9657002.34916047938168 ], [ 173987.470700832636794, 9657002.662381879985332 ], [ 173971.809152539208299, 9656994.831607973203063 ], [ 173942.208271010051249, 9656965.231015669181943 ], [ 173942.678127720224438, 9656964.761158969253302 ], [ 173923.414418388449121, 9656945.497162133455276 ], [ 173923.884365297883051, 9656945.027255062013865 ], [ 173907.909117555624107, 9656929.052485838532448 ], [ 173903.398791118088411, 9656935.81797537393868 ], [ 173887.235548797907541, 9656919.655365979298949 ], [ 173888.175212903181091, 9656918.715701892971992 ], [ 173887.235393323964672, 9656917.775822645053267 ], [ 173892.874012021959061, 9656914.017380833625793 ], [ 173885.825947834731778, 9656906.969764966517687 ], [ 173886.295884490653407, 9656906.499828319996595 ], [ 173867.496863111678977, 9656887.700526373460889 ], [ 173851.522095657652244, 9656870.786095442250371 ], [ 173829.443784550850978, 9656848.708115397021174 ], [ 173829.913641261548037, 9656848.238258695229888 ], [ 173791.855657552048797, 9656810.180374730378389 ], [ 173792.325594658730552, 9656809.710397792980075 ], [ 173759.435956717206864, 9656776.820912437513471 ], [ 173755.651091875508428, 9656782.497728308662772 ], [ 173754.737635660130763, 9656781.518994433805346 ], [ 173751.918540636979742, 9656785.27826570905745 ], [ 173736.412968557240674, 9656769.772694170475006 ], [ 173742.52247892646119, 9656763.663701765239239 ], [ 173745.340037438756553, 9656761.785329468548298 ], [ 173735.473284295323538, 9656751.918218184262514 ], [ 173735.94291725079529, 9656751.448545422405005 ], [ 173719.968147466017399, 9656735.473537217825651 ], [ 173719.398655903904, 9656736.043077042326331 ], [ 173682.380144672060851, 9656696.94587155431509 ], [ 173681.716999484488042, 9656697.609016738831997 ], [ 173663.585904260340612, 9656677.21196761354804 ], [ 173663.016412699536886, 9656677.781507445499301 ], [ 173625.997901415714296, 9656638.684301901608706 ], [ 173625.385083251341712, 9656639.297120053321123 ], [ 173611.902460101118777, 9656624.588861078023911 ], [ 173601.565936529339524, 9656634.925384433940053 ], [ 173596.867832654534141, 9656629.287421012297273 ], [ 173596.397821321152151, 9656629.757432334125042 ], [ 173586.530570284114219, 9656619.89054011926055 ], [ 173594.518319483409869, 9656611.902791088446975 ], [ 173594.9880261629296, 9656612.372509652748704 ], [ 173596.867832521995297, 9656609.553517090156674 ], [ 173588.410376541723963, 9656600.156397219747305 ], [ 173587.814080432232004, 9656600.752743868157268 ], [ 173561.159158127440605, 9656571.96551557444036 ], [ 173554.581030669360189, 9656574.78450814448297 ], [ 173563.038487154582981, 9656657.47830256447196 ], [ 173563.387503719772212, 9656657.012917561456561 ], [ 173567.294613293081056, 9656697.38803512044251 ], [ 173566.79714431570028, 9656697.885535717010498 ], [ 173569.616137165983673, 9656727.0163204818964 ], [ 173570.117292470880784, 9656726.515197044238448 ], [ 173571.495465733081801, 9656745.810321286320686 ], [ 173571.49546589734382, 9656769.30288191139698 ], [ 173570.26667350315256, 9656812.312500238418579 ], [ 173592.408995260717347, 9656828.919241005554795 ], [ 173589.22133468784159, 9656834.077277366071939 ], [ 173570.555324113054667, 9656824.745459023863077 ], [ 173570.55532427073922, 9656847.298116557300091 ], [ 173568.675996324105654, 9656917.775798747316003 ], [ 173568.675996646023123, 9656963.821255953982472 ], [ 173567.736332653643331, 9656995.771272283047438 ], [ 173567.736332969012437, 9657040.87682612426579 ], [ 173565.642000366409775, 9657119.819904571399093 ], [ 173579.952446736773709, 9657181.45627686008811 ], [ 173579.952446745999623, 9657182.772093491628766 ], [ 173583.711581676412607, 9657197.807198507711291 ], [ 173585.590910120343324, 9657199.310756808146834 ], [ 173585.590910175524186, 9657207.204318379983306 ], [ 173586.379005207825685, 9657206.810270875692368 ], [ 173599.686351828568149, 9657269.224544757977128 ], [ 173600.404838778893463, 9657268.506057823076844 ], [ 173608.143807991989888, 9657304.933217884972692 ], [ 173616.013491222867742, 9657336.413378685712814 ], [ 173615.661121934681432, 9657336.883234266191721 ], [ 173635.846411272272235, 9657330.154804674908519 ], [ 173638.561624711350305, 9657336.709909535944462 ], [ 173617.541406375967199, 9657347.220018332824111 ], [ 173622.615597264084499, 9657367.517748614773154 ], [ 173622.239727601408958, 9657367.893586413934827 ], [ 173630.172156852902845, 9657398.489027189090848 ], [ 173629.757519520528149, 9657398.903699655085802 ], [ 173635.395982951245969, 9657424.275588693097234 ], [ 173635.908525751205161, 9657423.763045903295279 ], [ 173644.109239802433876, 9657460.667647378519177 ], [ 173643.852961161290295, 9657460.923926014453173 ], [ 173649.491424590378301, 9657486.296054013073444 ], [ 173650.028366896498483, 9657485.893313147127628 ], [ 173658.204685407748912, 9657522.688130548223853 ], [ 173657.948402817972237, 9657522.944391407072544 ], [ 173665.880839287856361, 9657553.539860026910901 ], [ 173665.466194729029667, 9657553.954504577443004 ], [ 173672.044322418776574, 9657584.96485672518611 ], [ 173679.749587423575576, 9657615.787034844979644 ], [ 173685.200099821900949, 9657642.286523211747408 ], [ 173685.918659122660756, 9657641.567963926121593 ], [ 173700.000427808845416, 9657707.596328504383564 ], [ 173702.114534180873306, 9657711.824541091918945 ], [ 173716.868988877598895, 9657731.1189383007586 ], [ 173716.20997553691268, 9657731.558206038549542 ], [ 173719.969110384292435, 9657735.317101774737239 ], [ 173723.727647710591555, 9657731.558564526960254 ], [ 173738.385974687203998, 9657746.218754956498742 ], [ 173733.124409555195598, 9657754.111102532595396 ], [ 173734.064073785411892, 9657755.990430919453502 ], [ 173748.159515112289228, 9657775.724334802478552 ], [ 173757.5566353550239, 9657787.94044728204608 ], [ 173763.628372036007931, 9657785.916277742013335 ], [ 173768.981449354439974, 9657792.416449690237641 ], [ 173765.074427126557566, 9657798.277231339365244 ], [ 173779.169868454278912, 9657815.191903706640005 ], [ 173779.169868460856378, 9657816.131567910313606 ], [ 173779.304033054533647, 9657815.930312491953373 ], [ 173800.11989458987955, 9657839.347659595310688 ], [ 173799.843437315459596, 9657839.624128583818674 ], [ 173812.059550209611189, 9657853.719688907265663 ], [ 173836.961717606231105, 9657878.621735947206616 ], [ 173836.491775967559079, 9657879.091697489842772 ], [ 173839.310768628318328, 9657881.910690052434802 ], [ 173839.448313165892614, 9657881.635592237114906 ], [ 173840.155127904494293, 9657882.291922019794583 ], [ 173844.635505825688597, 9657864.369840402156115 ], [ 173858.296749229950365, 9657850.708597365766764 ], [ 174190.567662422457943, 9657104.326188258826733 ], [ 174193.331288287678035, 9657103.635325737297535 ] ] ], [ [ [ 174979.883854395360686, 9657690.437182240188122 ], [ 174997.964064563217107, 9657637.587963279336691 ], [ 174997.024400341353612, 9657636.648299090564251 ], [ 174991.385937128652586, 9657643.226187407970428 ], [ 174976.350859164638678, 9657628.191109968349338 ], [ 174991.385936913255136, 9657613.155738394707441 ], [ 175001.722721336846007, 9657623.492522455751896 ], [ 175003.602288738038624, 9657622.552858268842101 ], [ 175012.99916969879996, 9657596.241066044196486 ], [ 175012.313129411631962, 9657595.955228051170707 ], [ 175020.516961239278316, 9657573.688408525660634 ], [ 175040.25062634749338, 9657517.306167261675 ], [ 175031.792965590982931, 9657517.306167261675 ], [ 175044.009522113512503, 9657505.09005481749773 ], [ 175040.250626304390607, 9657494.753271067515016 ], [ 175039.928319755126722, 9657495.666475266218185 ], [ 175035.552066044940148, 9657482.537158308550715 ], [ 175025.215281498618424, 9657454.34603769890964 ], [ 175024.980440124403685, 9657454.58087906986475 ], [ 175016.758064301713603, 9657429.914051758125424 ], [ 175005.481376640673261, 9657397.964035466313362 ], [ 174992.729885678243591, 9657363.063986269757152 ], [ 174990.446270916901994, 9657358.496466562151909 ], [ 174970.842945206415607, 9657350.424457412213087 ], [ 174946.280379732808797, 9657341.581794187426567 ], [ 174944.400812332751229, 9657343.461361546069384 ], [ 174943.461148170084925, 9657350.978914052248001 ], [ 174943.461148202914046, 9657355.677235007286072 ], [ 174942.521484033117304, 9657362.255362305790186 ], [ 174942.521484190801857, 9657384.808019822463393 ], [ 174941.581819974526297, 9657384.808019822463393 ], [ 174939.389274499553721, 9657424.901949809864163 ], [ 174938.762588622659678, 9657425.21525289863348 ], [ 174937.823163578956155, 9657452.466709315776825 ], [ 174936.883021449641092, 9657459.984261872246861 ], [ 174937.641960332286544, 9657459.225419502705336 ], [ 174934.064029038476292, 9657493.813606573268771 ], [ 174935.003693256498082, 9657493.813606573268771 ], [ 174933.494497357110959, 9657515.697716418653727 ], [ 174941.617293161310954, 9657516.501148344948888 ], [ 174939.702492547425209, 9657529.52227970212698 ], [ 174939.702492619719123, 9657539.859063759446144 ], [ 174937.822925217478769, 9657540.798727948218584 ], [ 174934.064678258204367, 9657572.74526185169816 ], [ 174928.823239903606009, 9657598.953786827623844 ], [ 174930.275887299503665, 9657599.28041928075254 ], [ 174925.526348841289291, 9657634.901203710585833 ], [ 174926.218997884803684, 9657635.016518050804734 ], [ 174924.666584102116758, 9657645.106319459155202 ], [ 174923.727245756861521, 9657646.045418951660395 ], [ 174913.390461603034055, 9657673.296875383704901 ], [ 174913.390461650094949, 9657680.028901444748044 ], [ 174967.856826562987408, 9657723.628183266147971 ], [ 174980.109727863920853, 9657690.211308777332306 ], [ 174979.883854395360686, 9657690.437182240188122 ] ] ], [ [ [ 173809.614634127734462, 9657948.304480943828821 ], [ 173819.915275762468809, 9657926.414635386317968 ], [ 173801.253136382700177, 9657907.752348342910409 ], [ 173801.722766230144771, 9657907.282698599621654 ], [ 173782.930747507343767, 9657888.490539971739054 ], [ 173767.893420299282297, 9657871.574025478214025 ], [ 173767.230180011334596, 9657872.237293869256973 ], [ 173749.098196308332263, 9657851.838596783578396 ], [ 173727.016446250898298, 9657829.757342988625169 ], [ 173727.486424784554401, 9657829.287344541400671 ], [ 173717.149640359915793, 9657818.950679967179894 ], [ 173693.573841521021677, 9657830.738586319610476 ], [ 173691.565651458222419, 9657826.065260034054518 ], [ 173579.952929503284395, 9657868.754913398995996 ], [ 173579.354572283977177, 9657869.267775479704142 ], [ 173563.978159884631168, 9657874.393137531355023 ], [ 173562.09883146759239, 9657876.272465908899903 ], [ 173558.340174637181917, 9657881.910690033808351 ], [ 173562.098822995903902, 9657885.669338261708617 ], [ 173549.882240875333082, 9657897.885698214173317 ], [ 173533.907471344515216, 9657914.800370596349239 ], [ 173514.174044998711906, 9657941.111923865973949 ], [ 173514.337211463018321, 9657941.438360553234816 ], [ 173502.89759654836962, 9657956.147267850115895 ], [ 173507.595917648490286, 9657956.147267850115895 ], [ 173523.382849929039367, 9657950.884622598066926 ], [ 173518.12465803095256, 9657961.401675011962652 ], [ 173808.716699009848526, 9657962.080600926652551 ], [ 173813.798166212305659, 9657950.666066635400057 ], [ 173809.614634127734462, 9657948.304480943828821 ] ] ] ] } }
]
}
