{
"type": "FeatureCollection",
"name": "p15_rvs_sauim",
"crs": { "type": "name", "properties": { "name": "urn:ogc:def:crs:OGC:1.3:CRS84" } },
"features": [
{ "type": "Feature", "properties": { "id": 1, "pagina": 15, "classe": "RVS Sauim Castanheiras", "rotulo": "RVS Sauim Castanheiras", "seq_pdf": "936", "metodo": "CONTORNO_PDF", "situacao": "DERIV_PDF", "recortado": 1, "area_m2": 954507.216, "area_ha": 95.450722, "documento": "Resposta SECT_autos.pdf", "origem": "RVS Sauim Castanheiras" }, "geometry": { "type": "Polygon", "coordinates": [ [ [ -59.933988644108368, -3.092046578801162 ], [ -59.933982589703596, -3.092052698762754 ], [ -59.932918052512392, -3.091047134476972 ], [ -59.932087057433165, -3.090530360862885 ], [ -59.929371266587715, -3.08904328584774 ], [ -59.928896284312785, -3.088793203481154 ], [ -59.92809991406763, -3.089401351425925 ], [ -59.92809316957073, -3.089401370116236 ], [ -59.927722061577931, -3.089589187840385 ], [ -59.927719055646804, -3.089589196169838 ], [ -59.926942970517189, -3.089464202004239 ], [ -59.926833050438375, -3.089447514556091 ], [ -59.926721197139287, -3.089430532504387 ], [ -59.926617249524035, -3.089439529959504 ], [ -59.926497524624956, -3.08945838605701 ], [ -59.925604144397496, -3.09155850432386 ], [ -59.924823098271595, -3.093550021036563 ], [ -59.924649784364121, -3.095633013368418 ], [ -59.925519537093159, -3.095725794131571 ], [ -59.927671784848805, -3.096016668640623 ], [ -59.929076477972394, -3.096573581176482 ], [ -59.929084219278003, -3.096573559666974 ], [ -59.930611390888998, -3.09732316564875 ], [ -59.932188098084048, -3.098110180028896 ], [ -59.932196195592887, -3.098110157494587 ], [ -59.932877039474313, -3.09848329323823 ], [ -59.932877054058579, -3.098488587227061 ], [ -59.934804625349187, -3.100466491398155 ], [ -59.936560511942922, -3.102273696599747 ], [ -59.936346648593208, -3.100729174540038 ], [ -59.936346628888089, -3.100722035356418 ], [ -59.936390568353019, -3.098285805010156 ], [ -59.936456144137082, -3.097343321693712 ], [ -59.936085957549629, -3.097033519134206 ], [ -59.936081306048884, -3.097028871422599 ], [ -59.935962946684988, -3.096583443363935 ], [ -59.93544265950004, -3.094851820398969 ], [ -59.934727279153876, -3.093085187194669 ], [ -59.933988644108368, -3.092046578801162 ] ] ] } }
]
}
