{
"type": "FeatureCollection",
"name": "p15_camadas_dom_part_21s",
"crs": { "type": "name", "properties": { "name": "urn:ogc:def:crs:EPSG::31981" } },
"features": [
{ "type": "Feature", "properties": { "id": 1, "pagina": 15, "classe": "Area de dominio particular", "rotulo": "Area de dominio particular", "seq_pdf": "2145", "metodo": "CONTORNO_PDF", "situacao": "DERIV_PDF", "recortado": 1, "area_m2": 26145.238, "area_ha": 2.614524, "id_layer": "p15_camadas_dom_part", "doc_fonte": "Resposta SECT_autos.pdf", "doc_pagina": 15, "doc_folha": 108, "doc_escala": "1:15.000", "doc_metodo": "Reconstituição Vetorial Afim", "doc_rms_m": 0.68 }, "geometry": { "type": "Polygon", "coordinates": [ [ [ 173237.09442997185397, 9657157.953496973961592 ], [ 173269.093096167402109, 9657157.064456788823009 ], [ 173270.974659116065595, 9657158.00535786524415 ], [ 173291.60335333738476, 9657206.138642497360706 ], [ 173472.535117083083605, 9657121.294709986075759 ], [ 173354.182001148205018, 9657110.821141142398119 ], [ 173352.411895057070069, 9657110.230955736711621 ], [ 173268.926653431379236, 9657035.284117108210921 ], [ 173171.077535456075566, 9657058.016810968518257 ], [ 173202.874364117742516, 9657254.953356966376305 ], [ 173236.044698249053909, 9657158.653318107128143 ], [ 173237.09442997185397, 9657157.953496973961592 ] ] ] } },
{ "type": "Feature", "properties": { "id": 2, "pagina": 15, "classe": "Area de dominio particular", "rotulo": "Area de dominio particular", "seq_pdf": "2146", "metodo": "CONTORNO_PDF", "situacao": "DERIV_PDF", "recortado": 1, "area_m2": 637894.97, "area_ha": 63.789497, "id_layer": "p15_camadas_dom_part", "doc_fonte": "Resposta SECT_autos.pdf", "doc_pagina": 15, "doc_folha": 108, "doc_escala": "1:15.000", "doc_metodo": "Reconstituição Vetorial Afim", "doc_rms_m": 0.68 }, "geometry": { "type": "Polygon", "coordinates": [ [ [ 173038.101067777286517, 9657246.108781406655908 ], [ 172800.93959141918458, 9657319.360478058457375 ], [ 172800.939600847661495, 9658667.866909082978964 ], [ 172925.7580571899598, 9658498.939982229843736 ], [ 172927.123837446531979, 9658498.939982229843736 ], [ 172995.783286773541477, 9658583.071807254105806 ], [ 173069.809603084402625, 9658468.136121582239866 ], [ 173169.533475484349765, 9658282.800715519115329 ], [ 173215.660947204160038, 9658182.072447394952178 ], [ 173255.400816627050517, 9658081.777355218306184 ], [ 173255.400816622714046, 9658081.156197465956211 ], [ 173266.831425949989352, 9658062.691307120025158 ], [ 173300.358988201856846, 9658033.819982936605811 ], [ 173300.845428838802036, 9658033.333727784454823 ], [ 173518.23417994970805, 9657956.103464495390654 ], [ 173417.968937570985872, 9657783.265784321352839 ], [ 173417.968937567959074, 9657782.830282667651772 ], [ 173290.471732360019814, 9657263.395688120275736 ], [ 173150.704469431220787, 9657241.37774839438498 ], [ 173038.101067777286517, 9657246.108781406655908 ] ] ] } },
{ "type": "Feature", "properties": { "id": 3, "pagina": 15, "classe": "Area de dominio particular", "rotulo": "Area de dominio particular", "seq_pdf": "2147", "metodo": "CONTORNO_PDF", "situacao": "DERIV_PDF", "recortado": 1, "area_m2": 533341.512, "area_ha": 53.334151, "id_layer": "p15_camadas_dom_part", "doc_fonte": "Resposta SECT_autos.pdf", "doc_pagina": 15, "doc_folha": 108, "doc_escala": "1:15.000", "doc_metodo": "Reconstituição Vetorial Afim", "doc_rms_m": 0.68 }, "geometry": { "type": "Polygon", "coordinates": [ [ [ 174047.501546092855278, 9656928.824276627972722 ], [ 174165.935241197585128, 9656921.304741648957133 ], [ 174166.158373926649801, 9656921.527760932222009 ], [ 174308.992672613530885, 9656994.824231162667274 ], [ 174309.28883824282093, 9656995.12039678171277 ], [ 174422.719198318809504, 9657171.883169792592525 ], [ 174949.032782075635623, 9657238.971740737557411 ], [ 175013.856506290467223, 9657194.093505725264549 ], [ 174595.780764491704758, 9656504.221014022827148 ], [ 174541.006550306570716, 9656547.854717094451189 ], [ 174539.137404613400577, 9656547.854717094451189 ], [ 174500.861324704921572, 9656501.135272292420268 ], [ 174500.861324753379449, 9656508.06577917560935 ], [ 173666.386456175649073, 9656508.06577917560935 ], [ 173670.66341144987382, 9656540.652659844607115 ], [ 174047.501546092855278, 9656928.824276627972722 ] ] ] } },
{ "type": "Feature", "properties": { "id": 4, "pagina": 15, "classe": "Area de dominio particular", "rotulo": "Area de dominio particular", "seq_pdf": "2148", "metodo": "CONTORNO_PDF", "situacao": "DERIV_PDF", "recortado": 1, "area_m2": 29598.624, "area_ha": 2.959862, "id_layer": "p15_camadas_dom_part", "doc_fonte": "Resposta SECT_autos.pdf", "doc_pagina": 15, "doc_folha": 108, "doc_escala": "1:15.000", "doc_metodo": "Reconstituição Vetorial Afim", "doc_rms_m": 0.68 }, "geometry": { "type": "Polygon", "coordinates": [ [ [ 173473.299161965958774, 9657768.87914239615202 ], [ 173560.048773939488456, 9657890.899962594732642 ], [ 173741.059027266106568, 9657804.28738265670836 ], [ 173653.404506721301004, 9657682.161864023655653 ], [ 173473.299161965958774, 9657768.87914239615202 ] ] ] } },
{ "type": "Feature", "properties": { "id": 5, "pagina": 15, "classe": "Area de dominio particular", "rotulo": "Area de dominio particular", "seq_pdf": "2149", "metodo": "CONTORNO_PDF", "situacao": "DERIV_PDF", "recortado": 1, "area_m2": 16702.774, "area_ha": 1.670277, "id_layer": "p15_camadas_dom_part", "doc_fonte": "Resposta SECT_autos.pdf", "doc_pagina": 15, "doc_folha": 108, "doc_escala": "1:15.000", "doc_metodo": "Reconstituição Vetorial Afim", "doc_rms_m": 0.68 }, "geometry": { "type": "Polygon", "coordinates": [ [ [ 173423.567988856346346, 9657666.845050802454352 ], [ 173443.088024702476105, 9657724.476598113775253 ], [ 173441.560681613802444, 9657724.858433876186609 ], [ 173473.64121871534735, 9657768.70123465359211 ], [ 173653.613734898506664, 9657682.119733076542616 ], [ 173624.429636386048514, 9657641.04571639560163 ], [ 173532.073548577260226, 9657675.32239643111825 ], [ 173529.999860835174331, 9657674.492900267243385 ], [ 173512.346180755266687, 9657624.473560443148017 ], [ 173423.567988856346346, 9657666.845050802454352 ] ] ] } },
{ "type": "Feature", "properties": { "id": 6, "pagina": 15, "classe": "Area de dominio particular", "rotulo": "Area de dominio particular", "seq_pdf": "2150", "metodo": "CONTORNO_PDF", "situacao": "DERIV_PDF", "recortado": 1, "area_m2": 5270.628, "area_ha": 0.527063, "id_layer": "p15_camadas_dom_part", "doc_fonte": "Resposta SECT_autos.pdf", "doc_pagina": 15, "doc_folha": 108, "doc_escala": "1:15.000", "doc_metodo": "Reconstituição Vetorial Afim", "doc_rms_m": 0.68 }, "geometry": { "type": "Polygon", "coordinates": [ [ [ 173511.816433267696993, 9657624.214205715805292 ], [ 173531.060930250096135, 9657675.869779713451862 ], [ 173622.700250830414006, 9657636.595786157995462 ], [ 173605.43229765270371, 9657589.108505457639694 ], [ 173511.816433267696993, 9657624.214205715805292 ] ] ] } },
{ "type": "Feature", "properties": { "id": 7, "pagina": 15, "classe": "Area de dominio particular", "rotulo": "Area de dominio particular", "seq_pdf": "2151", "metodo": "CONTORNO_PDF", "situacao": "DERIV_PDF", "recortado": 1, "area_m2": 29759.717, "area_ha": 2.975972, "id_layer": "p15_camadas_dom_part", "doc_fonte": "Resposta SECT_autos.pdf", "doc_pagina": 15, "doc_folha": 108, "doc_escala": "1:15.000", "doc_metodo": "Reconstituição Vetorial Afim", "doc_rms_m": 0.68 }, "geometry": { "type": "Polygon", "coordinates": [ [ [ 173373.789782289299183, 9657512.788800377398729 ], [ 173420.912706052389694, 9657655.118972500786185 ], [ 173608.702637001988478, 9657586.035822816193104 ], [ 173557.538959916360909, 9657444.351588942110538 ], [ 173373.789782289299183, 9657512.788800377398729 ] ] ] } },
{ "type": "Feature", "properties": { "id": 8, "pagina": 15, "classe": "Area de dominio particular", "rotulo": "Area de dominio particular", "seq_pdf": "2152", "metodo": "CONTORNO_PDF", "situacao": "DERIV_PDF", "recortado": 1, "area_m2": 9937.511, "area_ha": 0.993751, "id_layer": "p15_camadas_dom_part", "doc_fonte": "Resposta SECT_autos.pdf", "doc_pagina": 15, "doc_folha": 108, "doc_escala": "1:15.000", "doc_metodo": "Reconstituição Vetorial Afim", "doc_rms_m": 0.68 }, "geometry": { "type": "Polygon", "coordinates": [ [ [ 173369.984685772360535, 9657460.907014401629567 ], [ 173386.19062378295348, 9657508.510731492191553 ], [ 173572.92820476781344, 9657438.484202232211828 ], [ 173556.624335717584472, 9657391.746096398681402 ], [ 173369.984685772360535, 9657460.907014401629567 ] ] ] } },
{ "type": "Feature", "properties": { "id": 9, "pagina": 15, "classe": "Area de dominio particular", "rotulo": "Area de dominio particular", "seq_pdf": "2153", "metodo": "CONTORNO_PDF", "situacao": "DERIV_PDF", "recortado": 1, "area_m2": 10006.589, "area_ha": 1.000659, "id_layer": "p15_camadas_dom_part", "doc_fonte": "Resposta SECT_autos.pdf", "doc_pagina": 15, "doc_folha": 108, "doc_escala": "1:15.000", "doc_metodo": "Reconstituição Vetorial Afim", "doc_rms_m": 0.68 }, "geometry": { "type": "Polygon", "coordinates": [ [ [ 173540.890898827405181, 9657344.450275683775544 ], [ 173352.086684048030293, 9657413.806739266961813 ], [ 173368.345809104328509, 9657461.498865695670247 ], [ 173555.914624777447898, 9657391.525056155398488 ], [ 173540.890898827405181, 9657344.450275683775544 ] ] ] } },
{ "type": "Feature", "properties": { "id": 10, "pagina": 15, "classe": "Area de dominio particular", "rotulo": "Area de dominio particular", "seq_pdf": "2154", "metodo": "CONTORNO_PDF", "situacao": "DERIV_PDF", "recortado": 1, "area_m2": 29771.568, "area_ha": 2.977157, "id_layer": "p15_camadas_dom_part", "doc_fonte": "Resposta SECT_autos.pdf", "doc_pagina": 15, "doc_folha": 108, "doc_escala": "1:15.000", "doc_metodo": "Reconstituição Vetorial Afim", "doc_rms_m": 0.68 }, "geometry": { "type": "Polygon", "coordinates": [ [ [ 173303.99296067643445, 9657271.410000199452043 ], [ 173351.386215350648854, 9657414.556926315650344 ], [ 173539.153059710632078, 9657344.509178023785353 ], [ 173487.992284800391644, 9657203.818179592490196 ], [ 173303.99296067643445, 9657271.410000199452043 ] ] ] } },
{ "type": "Feature", "properties": { "id": 11, "pagina": 15, "classe": "Area de dominio particular", "rotulo": "Area de dominio particular", "seq_pdf": "2155", "metodo": "CONTORNO_PDF", "situacao": "DERIV_PDF", "recortado": 1, "area_m2": 193638.568, "area_ha": 19.363857, "id_layer": "p15_camadas_dom_part", "doc_fonte": "Resposta SECT_autos.pdf", "doc_pagina": 15, "doc_folha": 108, "doc_escala": "1:15.000", "doc_metodo": "Reconstituição Vetorial Afim", "doc_rms_m": 0.68 }, "geometry": { "type": "Polygon", "coordinates": [ [ [ 177167.147138459724374, 9656623.27380309253931 ], [ 177383.208077856892487, 9656673.061925489455462 ], [ 177599.291124934068648, 9656708.12807104177773 ], [ 177753.63999135614722, 9656555.661435188725591 ], [ 177754.711788329295814, 9656555.661435188725591 ], [ 177857.18100616816082, 9656518.65860940143466 ], [ 177891.619463498878758, 9656494.90994518622756 ], [ 177323.101027710916242, 9656494.909945188090205 ], [ 177323.101026561140316, 9656330.462020363658667 ], [ 178130.088995552679989, 9656330.462020363658667 ], [ 178239.103638777276501, 9656255.285826157778502 ], [ 177251.404796237358823, 9656255.285826159641147 ], [ 177193.520727894559968, 9656373.665615445002913 ], [ 177167.147138459724374, 9656623.27380309253931 ] ] ] } },
{ "type": "Feature", "properties": { "id": 12, "pagina": 15, "classe": "Area de dominio particular", "rotulo": "Area de dominio particular", "seq_pdf": "2156", "metodo": "CONTORNO_PDF", "situacao": "DERIV_PDF", "recortado": 1, "area_m2": 642680.578, "area_ha": 64.268058, "id_layer": "p15_camadas_dom_part", "doc_fonte": "Resposta SECT_autos.pdf", "doc_pagina": 15, "doc_folha": 108, "doc_escala": "1:15.000", "doc_metodo": "Reconstituição Vetorial Afim", "doc_rms_m": 0.68 }, "geometry": { "type": "Polygon", "coordinates": [ [ [ 177158.936907939205412, 9657362.051283191889524 ], [ 177483.927488422865281, 9657636.970708031207323 ], [ 177635.57900007389253, 9657561.14495406113565 ], [ 177636.045916449831566, 9657561.14495406113565 ], [ 177852.44694160160725, 9657518.2461066711694 ], [ 177854.340795405121753, 9656637.565366253256798 ], [ 177502.975278985657496, 9656685.997004251927137 ], [ 177502.727975449844962, 9656685.997004251927137 ], [ 177121.090517916192766, 9656582.518038081005216 ], [ 177119.195790351019241, 9657328.12572361715138 ], [ 177158.936907939205412, 9657362.051283191889524 ] ] ] } },
{ "type": "Feature", "properties": { "id": 13, "pagina": 15, "classe": "Area de dominio particular", "rotulo": "Area de dominio particular", "seq_pdf": "2157", "metodo": "CONTORNO_PDF", "situacao": "DERIV_PDF", "recortado": 1, "area_m2": 485726.028, "area_ha": 48.572603, "id_layer": "p15_camadas_dom_part", "doc_fonte": "Resposta SECT_autos.pdf", "doc_pagina": 15, "doc_folha": 108, "doc_escala": "1:15.000", "doc_metodo": "Reconstituição Vetorial Afim", "doc_rms_m": 0.68 }, "geometry": { "type": "Polygon", "coordinates": [ [ [ 177002.593464453530032, 9657421.743721501901746 ], [ 177288.119068035943201, 9657659.368652708828449 ], [ 177340.688690495822811, 9657680.39669550769031 ], [ 177348.105838667572243, 9657681.456211084499955 ], [ 177365.596607817657059, 9657679.51260013692081 ], [ 177427.978118241764605, 9657667.225420664995909 ], [ 177526.155853314703563, 9657634.184929929673672 ], [ 177645.927579938812414, 9657573.363150706514716 ], [ 177646.505193266901188, 9657573.363150706514716 ], [ 177688.076267050695606, 9657562.025629110634327 ], [ 177736.806653900013771, 9657555.465787852182984 ], [ 177811.161437379283598, 9657541.34785802103579 ], [ 177841.127743688353803, 9657535.1478874348104 ], [ 177859.167468160681892, 9656542.026075832545757 ], [ 177678.64283886764315, 9656690.693241002038121 ], [ 177676.775423974904697, 9656690.693241002038121 ], [ 177468.317296442721272, 9656607.501133678480983 ], [ 177389.106089385139057, 9657365.664374547079206 ], [ 177387.169881951558637, 9657366.632478239014745 ], [ 177319.698872287961422, 9657309.917988713830709 ], [ 177301.791674345673528, 9657392.491024265065789 ], [ 177300.561145685642259, 9657393.72165721654892 ], [ 177002.593464453530032, 9657421.743721501901746 ] ] ] } },
{ "type": "Feature", "properties": { "id": 14, "pagina": 15, "classe": "Area de dominio particular", "rotulo": "Area de dominio particular", "seq_pdf": "2158", "metodo": "CONTORNO_PDF", "situacao": "DERIV_PDF", "recortado": 1, "area_m2": 78370.843, "area_ha": 7.837084, "id_layer": "p15_camadas_dom_part", "doc_fonte": "Resposta SECT_autos.pdf", "doc_pagina": 15, "doc_folha": 108, "doc_escala": "1:15.000", "doc_metodo": "Reconstituição Vetorial Afim", "doc_rms_m": 0.68 }, "geometry": { "type": "Polygon", "coordinates": [ [ [ 173460.056058796471916, 9657021.629699975252151 ], [ 173491.933895755268168, 9657050.694673409685493 ], [ 173537.621062519145198, 9657110.367598874494433 ], [ 173590.038048687885748, 9657209.959815165027976 ], [ 173599.318535728263669, 9657073.848180377855897 ], [ 173591.793297089578118, 9656698.53559659793973 ], [ 173566.875520124536706, 9656534.653137635439634 ], [ 173443.955845785938436, 9656538.618125667795539 ], [ 173460.056058796471916, 9657021.629699975252151 ] ] ] } },
{ "type": "Feature", "properties": { "id": 15, "pagina": 15, "classe": "Area de dominio particular", "rotulo": "Area de dominio particular", "seq_pdf": "2159", "metodo": "CONTORNO_PDF", "situacao": "DERIV_PDF", "recortado": 1, "area_m2": 324686.033, "area_ha": 32.468603, "id_layer": "p15_camadas_dom_part", "doc_fonte": "Resposta SECT_autos.pdf", "doc_pagina": 15, "doc_folha": 108, "doc_escala": "1:15.000", "doc_metodo": "Reconstituição Vetorial Afim", "doc_rms_m": 0.68 }, "geometry": { "type": "Polygon", "coordinates": [ [ [ 172802.69625856494531, 9656384.273962296545506 ], [ 172800.939584880543407, 9656384.175726793706417 ], [ 172800.939589606976369, 9657060.170116042718291 ], [ 172837.879241795511916, 9657047.856839315965772 ], [ 172963.861135072540492, 9656993.327489383518696 ], [ 173070.680817242420744, 9656953.03580573387444 ], [ 173146.234414350881707, 9656936.246038859710097 ], [ 173249.224226936406922, 9656933.437342755496502 ], [ 173249.74088274303358, 9656933.437342755496502 ], [ 173329.206298743549269, 9656950.993633214384317 ], [ 173329.860812044033082, 9656951.648146491497755 ], [ 173409.097455638402607, 9656988.879680830985308 ], [ 173409.544192416185979, 9656988.879680830985308 ], [ 173460.216614360135281, 9657031.756401289254427 ], [ 173444.3593066559406, 9656540.17452666349709 ], [ 173445.458896111580543, 9656538.708314199000597 ], [ 173567.146711766952649, 9656534.875780694186687 ], [ 173562.24595952781965, 9656508.06577917560935 ], [ 172859.201137885189382, 9656508.065779177471995 ], [ 172859.201134541275678, 9656029.805788477882743 ], [ 172804.328306690964382, 9656383.049978107213974 ], [ 172802.69625856494531, 9656384.273962296545506 ] ] ] } }
]
}
