{
"type": "FeatureCollection",
"name": "p16_moldura",
"crs": { "type": "name", "properties": { "name": "urn:ogc:def:crs:OGC:1.3:CRS84" } },
"features": [
{ "type": "Feature", "properties": { "id": 1, "pagina": 16, "documento": "Resposta SECT_autos.pdf", "tipo": "Moldura Cartográfica" }, "geometry": { "type": "Polygon", "coordinates": [ [ [ -59.943441191971772, -3.055899806830899 ], [ -59.943454782893653, -3.060835007399031 ], [ -59.95030615961273, -3.060816074991081 ], [ -59.950292537453635, -3.055880905005574 ], [ -59.943441191971772, -3.055899806830899 ] ] ] } }
]
}
