{
"type": "FeatureCollection",
"name": "p16_apoio_pontos_controle_21s",
"crs": { "type": "name", "properties": { "name": "urn:ogc:def:crs:EPSG::31981" } },
"features": [
{ "type": "Feature", "properties": { "id": 1, "pagina": 16, "pdf_x": 175.32001, "pdf_y": 51.24, "E": 172176.0, "N": 9661759.0, "resid_m": 0.012521283510938, "loo_m": 0.02683262131891, "E_grid": 172176.0, "N_grid": 9661759.0, "id_layer": "p16_apoio_pontos_controle", "doc_fonte": "Resposta SECT_autos.pdf", "doc_pagina": 16, "doc_folha": 109, "doc_escala": "1:2.000", "doc_metodo": "Reconstituição Vetorial Afim", "doc_rms_m": 0.12 }, "geometry": { "type": "Point", "coordinates": [ 172176.0, 9661759.0 ] } },
{ "type": "Feature", "properties": { "id": 2, "pagina": 16, "pdf_x": 414.84, "pdf_y": 51.24, "E": 172426.0, "N": 9661759.0, "resid_m": 0.043848032587153002, "loo_m": 0.061182803448321998, "E_grid": 172426.0, "N_grid": 9661759.0, "id_layer": "p16_apoio_pontos_controle", "doc_fonte": "Resposta SECT_autos.pdf", "doc_pagina": 16, "doc_folha": 109, "doc_escala": "1:2.000", "doc_metodo": "Reconstituição Vetorial Afim", "doc_rms_m": 0.12 }, "geometry": { "type": "Point", "coordinates": [ 172426.0, 9661759.0 ] } },
{ "type": "Feature", "properties": { "id": 3, "pagina": 16, "pdf_x": 654.23999, "pdf_y": 51.24, "E": 172676.0, "N": 9661759.0, "resid_m": 0.025061400400082999, "loo_m": 0.046986594166971998, "E_grid": 172676.0, "N_grid": 9661759.0, "id_layer": "p16_apoio_pontos_controle", "doc_fonte": "Resposta SECT_autos.pdf", "doc_pagina": 16, "doc_folha": 109, "doc_escala": "1:2.000", "doc_metodo": "Reconstituição Vetorial Afim", "doc_rms_m": 0.12 }, "geometry": { "type": "Point", "coordinates": [ 172676.0, 9661759.0 ] } },
{ "type": "Feature", "properties": { "id": 4, "pagina": 16, "pdf_x": 175.32001, "pdf_y": 290.7, "E": 172176.0, "N": 9661509.0, "resid_m": 0.018786636473110001, "loo_m": 0.026214919119768001, "E_grid": 172176.0, "N_grid": 9661509.0, "id_layer": "p16_apoio_pontos_controle", "doc_fonte": "Resposta SECT_autos.pdf", "doc_pagina": 16, "doc_folha": 109, "doc_escala": "1:2.000", "doc_metodo": "Reconstituição Vetorial Afim", "doc_rms_m": 0.12 }, "geometry": { "type": "Point", "coordinates": [ 172176.0, 9661509.0 ] } },
{ "type": "Feature", "properties": { "id": 5, "pagina": 16, "pdf_x": 414.84, "pdf_y": 290.7, "E": 172426.0, "N": 9661509.0, "resid_m": 0.037582683331273001, "loo_m": 0.043365136562295001, "E_grid": 172426.0, "N_grid": 9661509.0, "id_layer": "p16_apoio_pontos_controle", "doc_fonte": "Resposta SECT_autos.pdf", "doc_pagina": 16, "doc_folha": 109, "doc_escala": "1:2.000", "doc_metodo": "Reconstituição Vetorial Afim", "doc_rms_m": 0.12 }, "geometry": { "type": "Point", "coordinates": [ 172426.0, 9661509.0 ] } },
{ "type": "Feature", "properties": { "id": 6, "pagina": 16, "pdf_x": 654.23999, "pdf_y": 290.7, "E": 172676.0, "N": 9661509.0, "resid_m": 0.031326750750513999, "loo_m": 0.053697235026835002, "E_grid": 172676.0, "N_grid": 9661509.0, "id_layer": "p16_apoio_pontos_controle", "doc_fonte": "Resposta SECT_autos.pdf", "doc_pagina": 16, "doc_folha": 109, "doc_escala": "1:2.000", "doc_metodo": "Reconstituição Vetorial Afim", "doc_rms_m": 0.12 }, "geometry": { "type": "Point", "coordinates": [ 172676.0, 9661509.0 ] } },
{ "type": "Feature", "properties": { "id": 7, "pagina": 16, "pdf_x": 175.32001, "pdf_y": 530.15997, "E": 172176.0, "N": 9661259.0, "resid_m": 0.025051983445788, "loo_m": 0.046974821580607999, "E_grid": 172176.0, "N_grid": 9661259.0, "id_layer": "p16_apoio_pontos_controle", "doc_fonte": "Resposta SECT_autos.pdf", "doc_pagina": 16, "doc_folha": 109, "doc_escala": "1:2.000", "doc_metodo": "Reconstituição Vetorial Afim", "doc_rms_m": 0.12 }, "geometry": { "type": "Point", "coordinates": [ 172176.0, 9661259.0 ] } },
{ "type": "Feature", "properties": { "id": 8, "pagina": 16, "pdf_x": 414.84, "pdf_y": 530.15997, "E": 172426.0, "N": 9661259.0, "resid_m": 0.031317333763853997, "loo_m": 0.053688778851883001, "E_grid": 172426.0, "N_grid": 9661259.0, "id_layer": "p16_apoio_pontos_controle", "doc_fonte": "Resposta SECT_autos.pdf", "doc_pagina": 16, "doc_folha": 109, "doc_escala": "1:2.000", "doc_metodo": "Reconstituição Vetorial Afim", "doc_rms_m": 0.12 }, "geometry": { "type": "Point", "coordinates": [ 172426.0, 9661259.0 ] } }
]
}
