{
"type": "FeatureCollection",
"name": "p16_sobreposicoes_uniao_sobrepos",
"crs": { "type": "name", "properties": { "name": "urn:ogc:def:crs:OGC:1.3:CRS84" } },
"features": [
{ "type": "Feature", "properties": { "id": 1, "pagina": 16, "area_m2": 152230.8654370608, "area_ha": 15.22308654370608, "id_layer": "p16_sobreposicoes_uniao_sobrepos", "doc_fonte": "Resposta SECT_autos.pdf", "doc_pagina": 16, "doc_folha": 109, "doc_escala": "1:2.000", "doc_metodo": "Reconstituição Vetorial Afim", "doc_rms_m": 0.12 }, "geometry": { "type": "MultiPolygon", "coordinates": [ [ [ [ -59.947585454114311, -3.060358010147603 ], [ -59.947585722879857, -3.060358374029893 ], [ -59.9481635725706, -3.060031577341164 ], [ -59.947916704243674, -3.060166581147407 ], [ -59.947585454114311, -3.060358010147603 ] ] ], [ [ [ -59.948626614518083, -3.059778355467579 ], [ -59.948588661312023, -3.05979911079054 ], [ -59.948643629619461, -3.059773637975521 ], [ -59.948882126314516, -3.059699403421161 ], [ -59.948908938929428, -3.059681442893012 ], [ -59.948626614518083, -3.059778355467579 ] ] ], [ [ [ -59.94918019516625, -3.059587650286564 ], [ -59.949126108194982, -3.059464909070037 ], [ -59.949117371991534, -3.059467389842905 ], [ -59.949172320144349, -3.05958993582268 ], [ -59.94918019516625, -3.059587650286564 ] ] ], [ [ [ -59.949561992856523, -3.059341133159993 ], [ -59.949436303450291, -3.059376824545639 ], [ -59.949429919960679, -3.059502065239708 ], [ -59.949566030912791, -3.059455279732576 ], [ -59.949561992856523, -3.059341133159993 ] ] ], [ [ [ -59.947479007715053, -3.05764228617908 ], [ -59.947801178607108, -3.057645672127343 ], [ -59.948013015870387, -3.057606895377214 ], [ -59.947947581910121, -3.057476068271567 ], [ -59.947479007715053, -3.05764228617908 ] ] ], [ [ [ -59.950152484655113, -3.055881291829667 ], [ -59.948052375068038, -3.055887090105859 ], [ -59.948271801503161, -3.056317684596129 ], [ -59.948268145815476, -3.056310968512402 ], [ -59.947825121324747, -3.056528390194298 ], [ -59.947822878896552, -3.056531792182603 ], [ -59.947906669616415, -3.056702482398067 ], [ -59.94835532263054, -3.05648158322115 ], [ -59.94858172852345, -3.056925872790277 ], [ -59.948843644394515, -3.05677007516411 ], [ -59.949464852407999, -3.056247672028972 ], [ -59.949650382871596, -3.056156605268872 ], [ -59.950152484655113, -3.055881291829667 ] ] ], [ [ [ -59.947510664255283, -3.055888585067477 ], [ -59.947568091903442, -3.056006147458346 ], [ -59.947655281998223, -3.056184751911169 ], [ -59.948079190145123, -3.055976438637683 ], [ -59.948030739192532, -3.055887149819724 ], [ -59.947808504865939, -3.055887763149447 ], [ -59.947808441870478, -3.055887763323298 ], [ -59.94772996525289, -3.055887979894654 ], [ -59.947510664255283, -3.055888585067477 ] ] ], [ [ [ -59.946860310927249, -3.060825602401367 ], [ -59.947621891065644, -3.060408079319707 ], [ -59.947585092827381, -3.06035821893477 ], [ -59.946775924898198, -3.060825835580345 ], [ -59.946860310927249, -3.060825602401367 ] ] ], [ [ [ -59.943452859103544, -3.060136913046382 ], [ -59.943453090334614, -3.060220829283741 ], [ -59.943468813815215, -3.060206344898598 ], [ -59.943468587820327, -3.060124329000049 ], [ -59.943452859103544, -3.060136913046382 ] ] ], [ [ [ -59.943808164560622, -3.059852644386058 ], [ -59.943864469258592, -3.059852489009526 ], [ -59.943883741148156, -3.059835456803785 ], [ -59.943829459972619, -3.059835606596481 ], [ -59.943808164560622, -3.059852644386058 ] ] ], [ [ [ -59.946929092151677, -3.059469358131131 ], [ -59.94692909195787, -3.059469358257211 ], [ -59.946929457078625, -3.059469852596888 ], [ -59.946929092151677, -3.059469358131131 ] ] ], [ [ [ -59.947448387952953, -3.057653147959181 ], [ -59.947266849561338, -3.057825992672175 ], [ -59.947073140749346, -3.057786259728555 ], [ -59.94599129959348, -3.058170021547911 ], [ -59.946846466251536, -3.059177148441385 ], [ -59.948380524603188, -3.058357108897634 ], [ -59.948296841743485, -3.058174369224253 ], [ -59.948013177786194, -3.057607219107731 ], [ -59.947941852554614, -3.057620381203329 ], [ -59.947801178607499, -3.057645672271281 ], [ -59.94747900769309, -3.057642286186864 ], [ -59.947448387952953, -3.057653147959181 ] ] ], [ [ [ -59.946621373703479, -3.057847044888129 ], [ -59.946894277676336, -3.057749571856015 ], [ -59.946842126176399, -3.057738874684964 ], [ -59.946268637985185, -3.057863457960663 ], [ -59.946842126176008, -3.057738874541042 ], [ -59.946894277932152, -3.057749571764651 ], [ -59.947238137293269, -3.057626755530886 ], [ -59.947684902778207, -3.057419356059696 ], [ -59.947902178786244, -3.057309759935206 ], [ -59.947233480981147, -3.055889349905166 ], [ -59.946556538798717, -3.055891217504027 ], [ -59.944025938151889, -3.055898195318523 ], [ -59.94465539692807, -3.056464691164878 ], [ -59.943445867487696, -3.057598497524315 ], [ -59.943451260435175, -3.05955667641357 ], [ -59.943452859102507, -3.060136912672238 ], [ -59.943468587819225, -3.06012432859876 ], [ -59.943467841823569, -3.059853583465898 ], [ -59.94380816331968, -3.059852644389483 ], [ -59.943829458685485, -3.059835606600033 ], [ -59.943468920990739, -3.059836601458914 ], [ -59.943466270517007, -3.058874463768268 ], [ -59.944936520866946, -3.058870407306078 ], [ -59.945150935870345, -3.058649913203797 ], [ -59.945152013560666, -3.058648823797346 ], [ -59.945415259635496, -3.058389481351847 ], [ -59.94541623328346, -3.058389478664848 ], [ -59.945584138562857, -3.0582380922649 ], [ -59.945640425999024, -3.058188018810299 ], [ -59.945640892236177, -3.058187547504196 ], [ -59.945777952374883, -3.0581266029728 ], [ -59.945783514667298, -3.058124690815201 ], [ -59.945628806258767, -3.058312717458951 ], [ -59.945755313848011, -3.058458387766299 ], [ -59.946721157750538, -3.059604625013395 ], [ -59.946252299126485, -3.059026378098314 ], [ -59.945628998009376, -3.058312936940324 ], [ -59.945783775070389, -3.05812460129605 ], [ -59.946182606147758, -3.057987494473315 ], [ -59.946621373703479, -3.057847044888129 ] ], [ [ -59.945939653398661, -3.057934925787695 ], [ -59.94593951403926, -3.057935095159767 ], [ -59.945939653195488, -3.057934925831827 ], [ -59.945939653398661, -3.057934925787695 ] ] ], [ [ [ -59.947073141006278, -3.057786259637422 ], [ -59.94726684956094, -3.057825992528254 ], [ -59.947448387938422, -3.057653147964337 ], [ -59.947073141006278, -3.057786259637422 ] ] ] ] } }
]
}
