{
"type": "FeatureCollection",
"name": "p16_devoluta_21s",
"crs": { "type": "name", "properties": { "name": "urn:ogc:def:crs:EPSG::31981" } },
"features": [
{ "type": "Feature", "properties": { "id": 1, "pagina": 16, "classe": "Terra Devoluta - Processo C39419 - Tancredo Neves", "rotulo": "Terra Devoluta - Processo C39419 - Tancredo Neves", "seq_pdf": "4,6,8,10,12", "metodo": "PREENCH_PDF", "situacao": "DERIV_PDF", "recortado": 1, "area_m2": 89401.352, "area_ha": 8.940135, "documento": "Resposta SECT_autos.pdf", "origem": "Terra Devoluta - Processo C39419 - Tancredo Neves" }, "geometry": { "type": "MultiPolygon", "coordinates": [ [ [ [ 172024.898272481805179, 9661638.23802744038403 ], [ 172024.899223072221503, 9661676.168488029390574 ], [ 172027.780588077555876, 9661674.935858873650432 ], [ 172025.399570548936026, 9661647.37383321300149 ], [ 172025.399338208488189, 9661638.102984089404345 ], [ 172024.898272481805179, 9661638.23802744038403 ] ] ], [ [ [ 172037.047390923748026, 9661519.586310526356101 ], [ 172036.170484795002267, 9661519.962172761559486 ], [ 172034.667319382395362, 9661527.228513527661562 ], [ 172031.535463728912873, 9661531.73866924084723 ], [ 172026.649656742403749, 9661533.993715217337012 ], [ 172024.895673341990914, 9661534.527144927531481 ], [ 172024.898187432205305, 9661634.844377845525742 ], [ 172025.399380875489442, 9661634.720367288216949 ], [ 172029.031897844484774, 9661612.921329056844115 ], [ 172033.165805472643115, 9661600.393124021589756 ], [ 172035.921613190585049, 9661589.368320152163506 ], [ 172037.424631035450147, 9661576.21373113244772 ], [ 172037.799485870229546, 9661535.121270149946213 ], [ 172037.047390923748026, 9661519.586310526356101 ] ] ], [ [ [ 172203.920994340121979, 9661615.802791986614466 ], [ 172239.625236582884099, 9661607.283619778230786 ], [ 172247.392405298363883, 9661602.648187298327684 ], [ 172248.519994661357487, 9661605.153834689408541 ], [ 172256.663053400377976, 9661603.274603186175227 ], [ 172255.28490103938384, 9661600.142555894330144 ], [ 172246.264313577499706, 9661580.09745641425252 ], [ 172233.485197658184916, 9661552.410153895616531 ], [ 172215.444105293398025, 9661513.071663489565253 ], [ 172192.26625582962879, 9661462.457735925912857 ], [ 172150.671353979036212, 9661369.498595256358385 ], [ 172149.794444709899835, 9661369.749148838222027 ], [ 172163.951747527928092, 9661401.946623031049967 ], [ 172134.887386051937938, 9661415.35174953378737 ], [ 172159.944664579612436, 9661476.364033306017518 ], [ 172116.097398135549156, 9661488.14056139998138 ], [ 172121.982782980863703, 9661379.1452905125916 ], [ 172106.824162888049614, 9661384.28186197951436 ], [ 172107.325640534923878, 9661399.566236155107617 ], [ 172106.950108441873454, 9661411.092179073020816 ], [ 172104.945967740233755, 9661423.119229156523943 ], [ 172104.319953357276972, 9661439.781743636354804 ], [ 172103.693958737392677, 9661454.690287422388792 ], [ 172104.195474061212735, 9661471.478046841919422 ], [ 172109.457715171505697, 9661491.147331848740578 ], [ 172099.811356010584859, 9661494.905763037502766 ], [ 172099.310302228055662, 9661496.53442507237196 ], [ 172098.05762981454609, 9661504.176628081128001 ], [ 172097.055789127683965, 9661518.082925656810403 ], [ 172097.807817213702947, 9661533.492576627060771 ], [ 172097.933590082509909, 9661553.412415187805891 ], [ 172097.683397573477123, 9661567.56926635466516 ], [ 172097.433170527103357, 9661580.348009070381522 ], [ 172095.053403540485306, 9661600.142554892227054 ], [ 172090.919608942349441, 9661617.180883798748255 ], [ 172087.412076767679537, 9661627.454010970890522 ], [ 172085.407875485980185, 9661639.606353778392076 ], [ 172085.408001075236825, 9661644.617616686969995 ], [ 172086.159904497442767, 9661652.510373294353485 ], [ 172203.920994340121979, 9661615.802791986614466 ] ] ], [ [ [ 172409.377170591178583, 9661575.08616266772151 ], [ 172509.850210754317231, 9661553.663003213703632 ], [ 172544.551336187403649, 9661511.944110685959458 ], [ 172530.519772626255872, 9661495.782735150307417 ], [ 172423.403218555555213, 9661368.621627548709512 ], [ 172400.227043036633404, 9661383.530171195045114 ], [ 172327.437618563824799, 9661284.933319732546806 ], [ 172224.334643561596749, 9661342.563001831993461 ], [ 172209.551948953914689, 9661349.328203478828073 ], [ 172182.993056044913828, 9661357.471513502299786 ], [ 172173.346762819826836, 9661363.860916662961245 ], [ 172276.582116702222265, 9661589.744152039289474 ], [ 172286.98016485752305, 9661587.864936480298638 ], [ 172302.639939204411348, 9661585.108719674870372 ], [ 172340.599428784713382, 9661585.609858948737383 ], [ 172362.146848127711564, 9661565.314190143719316 ], [ 172409.377170591178583, 9661575.08616266772151 ] ] ] ] } }
]
}
