{
"type": "FeatureCollection",
"name": "p16_matr_26696_21s",
"crs": { "type": "name", "properties": { "name": "urn:ogc:def:crs:EPSG::31981" } },
"features": [
{ "type": "Feature", "properties": { "id": 1, "pagina": 16, "classe": "Matricula 26.696 - Estado do Amazonas - 09/06/2006 - 4o Oficio", "rotulo": "Matricula 26.696 - Estado do Amazonas - 09/06/2006 - 4o Oficio", "seq_pdf": "14,16,18,20,22", "metodo": "PREENCH_PDF", "situacao": "DERIV_PDF", "recortado": 1, "area_m2": 148396.765, "area_ha": 14.839677, "documento": "Resposta SECT_autos.pdf", "origem": "Matrícula 26.696 - Estado do Amazonas (09/06/2006)" }, "geometry": { "type": "MultiPolygon", "coordinates": [ [ [ [ 172276.563378694059793, 9661779.671515827998519 ], [ 172301.290506487595849, 9661779.671515982598066 ], [ 172301.29751574061811, 9661779.671515982598066 ], [ 172334.430036357633071, 9661779.671516189351678 ], [ 172328.076059111161157, 9661766.642197383567691 ], [ 172318.429109679971589, 9661746.847663434222341 ], [ 172271.199606687994674, 9661769.774244310334325 ], [ 172276.563378694059793, 9661779.671515827998519 ] ] ], [ [ [ 172299.886880973528605, 9661708.386118546128273 ], [ 172290.615774469828466, 9661689.468557998538017 ], [ 172240.629200335795758, 9661713.780556181445718 ], [ 172215.57317488786066, 9661664.537456061691046 ], [ 172186.383697675104486, 9661681.701069571077824 ], [ 172117.106009951268788, 9661739.330743916332722 ], [ 172096.43521683808649, 9661749.353301463648677 ], [ 172040.484966282208916, 9661779.67151434905827 ], [ 172274.156040791713167, 9661779.671515811234713 ], [ 172249.872376254876144, 9661731.946351796388626 ], [ 172250.277085733046988, 9661732.690803874284029 ], [ 172299.636343093210598, 9661708.761964855715632 ], [ 172299.886880973528605, 9661708.386118546128273 ] ] ], [ [ [ 172362.146848128089914, 9661565.314206073060632 ], [ 172340.599428784713382, 9661585.609858948737383 ], [ 172302.639939204818802, 9661585.108735606074333 ], [ 172276.08096152311191, 9661589.869444761425257 ], [ 172365.271099220146425, 9661779.671516383066773 ], [ 172722.160864790232154, 9661779.671518616378307 ], [ 172652.296205145888962, 9661716.780008424073458 ], [ 172787.218282934249146, 9661591.660079061985016 ], [ 172787.211241875716951, 9661310.70774888433516 ], [ 172785.457374197576428, 9661312.095742471516132 ], [ 172785.458125190722058, 9661342.061872681602836 ], [ 172747.592194355645915, 9661342.061872443184257 ], [ 172745.217602785764029, 9661343.941100798547268 ], [ 172785.332893539452925, 9661343.941101050004363 ], [ 172785.335562318010489, 9661450.430708659812808 ], [ 172603.0490003261948, 9661450.430707518011332 ], [ 172599.296703918633284, 9661454.189183350652456 ], [ 172558.456927787454333, 9661495.156351357698441 ], [ 172558.426708235812839, 9661495.19272586517036 ], [ 172558.456864066596609, 9661495.156319495290518 ], [ 172603.039731087483233, 9661450.430707518011332 ], [ 172513.230123025132343, 9661450.430706957355142 ], [ 172513.22745424657478, 9661343.941099345684052 ], [ 172745.217459573177621, 9661343.941100798547268 ], [ 172747.592056282301201, 9661342.061872443184257 ], [ 172432.547893842653139, 9661342.061870472505689 ], [ 172432.545171688514529, 9661233.442470708861947 ], [ 172408.292455538583454, 9661233.44247055798769 ], [ 172323.428500601730775, 9661279.420885903760791 ], [ 172400.227011176611995, 9661383.530171195045114 ], [ 172423.403218554740306, 9661368.621595688164234 ], [ 172475.395493516960414, 9661432.765926910564303 ], [ 172544.5300678050844, 9661511.919760005548596 ], [ 172509.850242613931186, 9661553.662987282499671 ], [ 172409.377170591586037, 9661575.086178597062826 ], [ 172362.146848128089914, 9661565.314206073060632 ] ] ], [ [ [ 172787.209305499796756, 9661233.442472929134965 ], [ 172785.455403036583448, 9661233.442472917959094 ], [ 172785.457374196470482, 9661312.095698056742549 ], [ 172787.211241874698317, 9661310.707707474008203 ], [ 172787.209305499796756, 9661233.442472929134965 ] ] ] ] } }
]
}
