{
"type": "FeatureCollection",
"name": "p16_camadas_matr_26696",
"crs": { "type": "name", "properties": { "name": "urn:ogc:def:crs:OGC:1.3:CRS84" } },
"features": [
{ "type": "Feature", "properties": { "id": 1, "pagina": 16, "classe": "Matricula 26.696 - Estado do Amazonas - 09/06/2006 - 4o Oficio", "rotulo": "Matricula 26.696 - Estado do Amazonas - 09/06/2006 - 4o Oficio", "seq_pdf": "14,16,18,20,22", "metodo": "PREENCH_PDF", "situacao": "DERIV_PDF", "recortado": 1, "area_m2": 148396.765, "area_ha": 14.839677, "id_layer": "p16_camadas_matr_26696", "doc_fonte": "Resposta SECT_autos.pdf", "doc_pagina": 16, "doc_folha": 109, "doc_escala": "1:2.000", "doc_metodo": "Reconstituição Vetorial Afim", "doc_rms_m": 0.12 }, "geometry": { "type": "MultiPolygon", "coordinates": [ [ [ [ -59.948030739192532, -3.055887149819724 ], [ -59.947808504865939, -3.055887763149447 ], [ -59.947808441870478, -3.055887763323298 ], [ -59.947510664255283, -3.055888585067477 ], [ -59.947568091903442, -3.056006147458346 ], [ -59.947655281998223, -3.056184751911169 ], [ -59.948079190145123, -3.055976438637683 ], [ -59.948030739192532, -3.055887149819724 ] ] ], [ [ [ -59.947822878896552, -3.056531792182603 ], [ -59.947906669616415, -3.056702482398067 ], [ -59.94835532263054, -3.05648158322115 ], [ -59.94858172852345, -3.056925872790277 ], [ -59.948843644394515, -3.05677007516411 ], [ -59.949464852407999, -3.056247672028972 ], [ -59.949650382871596, -3.056156605268872 ], [ -59.950152484655113, -3.055881291829667 ], [ -59.948052375068038, -3.055887090105859 ], [ -59.948271801503161, -3.056317684596129 ], [ -59.948268145815476, -3.056310968512402 ], [ -59.947825121324747, -3.056528390194298 ], [ -59.947822878896552, -3.056531792182603 ] ] ], [ [ [ -59.94726684956094, -3.057825992528254 ], [ -59.947460005807621, -3.05764208646996 ], [ -59.947801178607108, -3.057645672127343 ], [ -59.948039759483514, -3.057601999963871 ], [ -59.947233480981147, -3.055889349905166 ], [ -59.944025938151889, -3.055898195318523 ], [ -59.94465539692807, -3.056464691164878 ], [ -59.943445867487696, -3.057598497524315 ], [ -59.943452859102507, -3.060136912672238 ], [ -59.943468587819225, -3.06012432859876 ], [ -59.943467841823569, -3.059853583465898 ], [ -59.94380816331968, -3.059852644389483 ], [ -59.943829458685485, -3.059835606600033 ], [ -59.943468920990739, -3.059836601458914 ], [ -59.943466270517007, -3.058874463768268 ], [ -59.945104575490596, -3.058869943509738 ], [ -59.94513820658424, -3.058835892510732 ], [ -59.945504243833426, -3.058464740154755 ], [ -59.945504514534484, -3.05846441076068 ], [ -59.945504244406905, -3.058464740441052 ], [ -59.945104658798051, -3.058869943279819 ], [ -59.945911823971798, -3.058867715300658 ], [ -59.945914476619976, -3.059829850864721 ], [ -59.943829459972619, -3.059835606596481 ], [ -59.943808164560622, -3.059852644386058 ], [ -59.946639631904056, -3.059844827085108 ], [ -59.946642339133717, -3.060826204696416 ], [ -59.946860310927249, -3.060825602401367 ], [ -59.947621891065644, -3.060408079319707 ], [ -59.946929092151677, -3.059469358131131 ], [ -59.946721163916003, -3.059604632617311 ], [ -59.946252299126485, -3.059026378098314 ], [ -59.945628998009376, -3.058312936940324 ], [ -59.945939653195488, -3.057934925831827 ], [ -59.946842126176008, -3.057738874541042 ], [ -59.94726684956094, -3.057825992528254 ] ] ], [ [ [ -59.943454782893653, -3.060835007399031 ], [ -59.943470546175718, -3.060834963890835 ], [ -59.943468587820327, -3.060124329000049 ], [ -59.943452859103544, -3.060136913046382 ], [ -59.943454782893653, -3.060835007399031 ] ] ] ] } }
]
}
