{
"type": "FeatureCollection",
"name": "p16_sobreposicoes_titulos_intersec_21s",
"crs": { "type": "name", "properties": { "name": "urn:ogc:def:crs:EPSG::31981" } },
"features": [
{ "type": "Feature", "properties": { "id": 1, "pagina": 16, "titulo_id": 1, "rotulo": "Titulo Definitivo de Jose Afonso", "camada": "matr_26696", "area_m2": 776.348, "perc_tit": 2.9479, "id_layer": "p16_sobreposicoes_titulos_intersec", "doc_fonte": "Resposta SECT_autos.pdf", "doc_pagina": 16, "doc_folha": 109, "doc_escala": "1:2.000", "doc_metodo": "Reconstituição Vetorial Afim", "doc_rms_m": 0.12 }, "geometry": { "type": "MultiPolygon", "coordinates": [ [ [ [ 172362.146848128089914, 9661565.314206073060632 ], [ 172341.895452838798519, 9661584.389125555753708 ], [ 172383.687734116596403, 9661569.771023960784078 ], [ 172362.146848128089914, 9661565.314206073060632 ] ] ], [ [ [ 172338.485243230621563, 9661585.581948464736342 ], [ 172302.639939204818802, 9661585.108735606074333 ], [ 172279.058078239148017, 9661589.335795199498534 ], [ 172286.298814189358382, 9661603.835714429616928 ], [ 172338.485243230621563, 9661585.581948464736342 ] ] ] ] } },
{ "type": "Feature", "properties": { "id": 2, "pagina": 16, "titulo_id": 1, "rotulo": "Titulo Definitivo de Jose Afonso", "camada": "devoluta", "area_m2": 25549.947, "perc_tit": 97.0168, "id_layer": "p16_sobreposicoes_titulos_intersec", "doc_fonte": "Resposta SECT_autos.pdf", "doc_pagina": 16, "doc_folha": 109, "doc_escala": "1:2.000", "doc_metodo": "Reconstituição Vetorial Afim", "doc_rms_m": 0.12 }, "geometry": { "type": "Polygon", "coordinates": [ [ [ 172504.175255898269825, 9661527.626905946061015 ], [ 172409.331501698325155, 9661415.897114623337984 ], [ 172238.395355149172246, 9661506.189934188500047 ], [ 172247.650749309308594, 9661526.441120425239205 ], [ 172279.040161100332625, 9661589.299915274605155 ], [ 172286.98016485752305, 9661587.864936480298638 ], [ 172302.639939204411348, 9661585.108719674870372 ], [ 172338.485245675081387, 9661585.581947609782219 ], [ 172341.895451220683753, 9661584.389126121997833 ], [ 172362.146848127711564, 9661565.314190143719316 ], [ 172383.687762731307885, 9661569.771013952791691 ], [ 172504.175255898269825, 9661527.626905946061015 ] ] ] } }
]
}
