{
"type": "FeatureCollection",
"name": "p16_pontos_controle",
"crs": { "type": "name", "properties": { "name": "urn:ogc:def:crs:OGC:1.3:CRS84" } },
"features": [
{ "type": "Feature", "properties": { "id": 1, "pagina": 16, "pdf_x": 175.32001, "pdf_y": 51.24, "E": 172176.0, "N": 9661759.0, "resid_m": 0.012521283510938, "loo_m": 0.02683262131891, "E_grid": 172176.0, "N_grid": 9661759.0, "documento": "Resposta SECT_autos.pdf", "tipo": "Pontos de Controle de Quadrícula" }, "geometry": { "type": "Point", "coordinates": [ -59.948935059338758, -3.05607142201311 ] } },
{ "type": "Feature", "properties": { "id": 2, "pagina": 16, "pdf_x": 414.84, "pdf_y": 51.24, "E": 172426.0, "N": 9661759.0, "resid_m": 0.043848032587153002, "loo_m": 0.061182803448321998, "E_grid": 172426.0, "N_grid": 9661759.0, "documento": "Resposta SECT_autos.pdf", "tipo": "Pontos de Controle de Quadrícula" }, "geometry": { "type": "Point", "coordinates": [ -59.9466881911559, -3.056077623159691 ] } },
{ "type": "Feature", "properties": { "id": 3, "pagina": 16, "pdf_x": 654.23999, "pdf_y": 51.24, "E": 172676.0, "N": 9661759.0, "resid_m": 0.025061400400082999, "loo_m": 0.046986594166971998, "E_grid": 172676.0, "N_grid": 9661759.0, "documento": "Resposta SECT_autos.pdf", "tipo": "Pontos de Controle de Quadrícula" }, "geometry": { "type": "Point", "coordinates": [ -59.944441318394162, -3.056083819596294 ] } },
{ "type": "Feature", "properties": { "id": 4, "pagina": 16, "pdf_x": 175.32001, "pdf_y": 290.7, "E": 172176.0, "N": 9661509.0, "resid_m": 0.018786636473110001, "loo_m": 0.026214919119768001, "E_grid": 172176.0, "N_grid": 9661509.0, "documento": "Resposta SECT_autos.pdf", "tipo": "Pontos de Controle de Quadrícula" }, "geometry": { "type": "Point", "coordinates": [ -59.948941232496111, -3.058330170677414 ] } },
{ "type": "Feature", "properties": { "id": 5, "pagina": 16, "pdf_x": 414.84, "pdf_y": 290.7, "E": 172426.0, "N": 9661509.0, "resid_m": 0.037582683331273001, "loo_m": 0.043365136562295001, "E_grid": 172426.0, "N_grid": 9661509.0, "documento": "Resposta SECT_autos.pdf", "tipo": "Pontos de Controle de Quadrícula" }, "geometry": { "type": "Point", "coordinates": [ -59.946694359626392, -3.058336376415641 ] } },
{ "type": "Feature", "properties": { "id": 6, "pagina": 16, "pdf_x": 654.23999, "pdf_y": 290.7, "E": 172676.0, "N": 9661509.0, "resid_m": 0.031326750750513999, "loo_m": 0.053697235026835002, "E_grid": 172676.0, "N_grid": 9661509.0, "documento": "Resposta SECT_autos.pdf", "tipo": "Pontos de Controle de Quadrícula" }, "geometry": { "type": "Point", "coordinates": [ -59.944447482177715, -3.058342577440401 ] } },
{ "type": "Feature", "properties": { "id": 7, "pagina": 16, "pdf_x": 175.32001, "pdf_y": 530.15997, "E": 172176.0, "N": 9661259.0, "resid_m": 0.025051983445788, "loo_m": 0.046974821580607999, "E_grid": 172176.0, "N_grid": 9661259.0, "documento": "Resposta SECT_autos.pdf", "tipo": "Pontos de Controle de Quadrícula" }, "geometry": { "type": "Point", "coordinates": [ -59.948947410235917, -3.060588919233985 ] } },
{ "type": "Feature", "properties": { "id": 8, "pagina": 16, "pdf_x": 414.84, "pdf_y": 530.15997, "E": 172426.0, "N": 9661259.0, "resid_m": 0.031317333763853997, "loo_m": 0.053688778851883001, "E_grid": 172426.0, "N_grid": 9661259.0, "documento": "Resposta SECT_autos.pdf", "tipo": "Pontos de Controle de Quadrícula" }, "geometry": { "type": "Point", "coordinates": [ -59.946700532675827, -3.060595129563875 ] } }
]
}
