{
"type": "FeatureCollection",
"name": "p16_sobreposicoes_titulos_intersec",
"crs": { "type": "name", "properties": { "name": "urn:ogc:def:crs:OGC:1.3:CRS84" } },
"features": [
{ "type": "Feature", "properties": { "id": 1, "pagina": 16, "titulo_id": 1, "rotulo": "Titulo Definitivo de Jose Afonso", "camada": "matr_26696", "area_m2": 776.348, "perc_tit": 2.9479, "id_layer": "p16_sobreposicoes_titulos_intersec", "doc_fonte": "Resposta SECT_autos.pdf", "doc_pagina": 16, "doc_folha": 109, "doc_escala": "1:2.000", "doc_metodo": "Reconstituição Vetorial Afim", "doc_rms_m": 0.12 }, "geometry": { "type": "MultiPolygon", "coordinates": [ [ [ [ -59.94726684956094, -3.057825992528254 ], [ -59.947448387938422, -3.057653147964337 ], [ -59.947073141006278, -3.057786259637422 ], [ -59.94726684956094, -3.057825992528254 ] ] ], [ [ [ -59.947479007715053, -3.05764228617908 ], [ -59.947801178607108, -3.057645672127343 ], [ -59.948013015870387, -3.057606895377214 ], [ -59.947947581910121, -3.057476068271567 ], [ -59.947479007715053, -3.05764228617908 ] ] ] ] } },
{ "type": "Feature", "properties": { "id": 2, "pagina": 16, "titulo_id": 1, "rotulo": "Titulo Definitivo de Jose Afonso", "camada": "devoluta", "area_m2": 25549.947, "perc_tit": 97.0168, "id_layer": "p16_sobreposicoes_titulos_intersec", "doc_fonte": "Resposta SECT_autos.pdf", "doc_pagina": 16, "doc_folha": 109, "doc_escala": "1:2.000", "doc_metodo": "Reconstituição Vetorial Afim", "doc_rms_m": 0.12 }, "geometry": { "type": "Polygon", "coordinates": [ [ [ -59.94599129959348, -3.058170021547911 ], [ -59.946846466251536, -3.059177148441385 ], [ -59.948380524603188, -3.058357108897634 ], [ -59.948296841743485, -3.058174369224253 ], [ -59.948013177786194, -3.057607219107731 ], [ -59.947941852554614, -3.057620381203329 ], [ -59.947801178607499, -3.057645672271281 ], [ -59.94747900769309, -3.057642286186864 ], [ -59.947448387952953, -3.057653147959181 ], [ -59.947266849561338, -3.057825992672175 ], [ -59.947073140749346, -3.057786259728555 ], [ -59.94599129959348, -3.058170021547911 ] ] ] } }
]
}
