{
"type": "FeatureCollection",
"name": "p15_aeis_maua_21s",
"crs": { "type": "name", "properties": { "name": "urn:ogc:def:crs:EPSG::31981" } },
"features": [
{ "type": "Feature", "properties": { "id": 1, "pagina": 15, "classe": "AEIS Mauazinho", "rotulo": "AEIS Mauazinho", "seq_pdf": "315", "metodo": "CONTORNO_PDF", "situacao": "DERIV_PDF", "recortado": 1, "area_m2": 2543605.695, "area_ha": 254.36057, "documento": "Resposta SECT_autos.pdf", "origem": "AEIS Mauazinho" }, "geometry": { "type": "MultiPolygon", "coordinates": [ [ [ [ 174718.375661512836814, 9655440.563821464776993 ], [ 173006.169147365319077, 9655440.563821466639638 ], [ 173002.545981264411239, 9655450.900548169389367 ], [ 174500.861317361879628, 9655450.900548167526722 ], [ 174500.861324753379449, 9656508.06577917560935 ], [ 173325.994213395693805, 9656508.065779177471995 ], [ 173326.079360762261786, 9656510.451204866170883 ], [ 173333.704429433768382, 9656554.291711138561368 ], [ 173336.634617323492421, 9656564.059500413015485 ], [ 173347.041414259292651, 9656594.33502035215497 ], [ 173354.642641659942456, 9656613.336396679282188 ], [ 173371.723260900907917, 9656651.293702071532607 ], [ 173398.401793836150318, 9656695.122822584584355 ], [ 173416.952633059961954, 9656716.603159109130502 ], [ 173493.623622601357056, 9656767.717070227488875 ], [ 173720.085752780578332, 9656918.06531298160553 ], [ 173865.750786360527854, 9657015.802062775939703 ], [ 174010.474009066208964, 9657110.717688104137778 ], [ 174175.821922149130842, 9657220.636559957638383 ], [ 174229.232517466443824, 9657257.18077571503818 ], [ 174356.944548342202324, 9657253.451872605830431 ], [ 174357.623273159668315, 9657253.791321311146021 ], [ 174590.489627579401713, 9657384.720074575394392 ], [ 174591.230875791516155, 9657385.831664148718119 ], [ 174616.1916805623041, 9657493.357415895909071 ], [ 174641.246034525625873, 9657497.714779030531645 ], [ 174686.581683794385754, 9657500.548136930912733 ], [ 174927.523191907705041, 9657519.2986412756145 ], [ 174932.341045973967994, 9657452.812936736270785 ], [ 174936.1047802628309, 9657399.17756556160748 ], [ 174937.976642139314208, 9657355.192494451999664 ], [ 174945.411510068952339, 9657304.077510515227914 ], [ 174951.147373458225047, 9657284.001867163926363 ], [ 174951.147373450367013, 9657282.880212251096964 ], [ 174982.974397402053, 9657233.775364521890879 ], [ 174983.256446515384596, 9657233.493387127295136 ], [ 175094.617000068043126, 9657154.886037366464734 ], [ 175175.053581756917993, 9657105.314806155860424 ], [ 175199.459194897004636, 9657094.050291666761041 ], [ 175208.921856261178618, 9657088.372887495905161 ], [ 175210.241511972970329, 9657087.713059656322002 ], [ 175231.705394629127113, 9657081.452732279896736 ], [ 175279.31450603416306, 9657081.452732279896736 ], [ 175532.840636266919319, 9657140.608819622546434 ], [ 175568.417378037731396, 9657143.493565622717142 ], [ 175596.314933000598103, 9657140.607518943026662 ], [ 175656.858643417945132, 9657129.255784049630165 ], [ 175769.331541134219151, 9657097.958731980994344 ], [ 175726.401894752401859, 9656836.564569294452667 ], [ 175726.401894746784819, 9656835.761114759370685 ], [ 175683.175665090180701, 9656433.568351494148374 ], [ 175683.175665002607275, 9656421.044770438224077 ], [ 175674.557172895350959, 9656384.656178927049041 ], [ 175670.019409683998674, 9656369.228431014344096 ], [ 175670.019409578235354, 9656354.104462021961808 ], [ 175664.381424156454159, 9656337.190028626471758 ], [ 175664.381424019054975, 9656317.537503093481064 ], [ 175666.260991294286214, 9656297.803838146850467 ], [ 175666.260991289600497, 9656297.134278694167733 ], [ 175670.941680742951576, 9656274.667397717013955 ], [ 175671.901689800608438, 9656247.779080495238304 ], [ 175670.947938804631121, 9656217.249836634844542 ], [ 175667.081087339873193, 9656192.117762224748731 ], [ 175661.442893702391302, 9656175.203182140365243 ], [ 175659.48456194170285, 9656162.471909649670124 ], [ 175649.299327305139741, 9656145.157374087721109 ], [ 175628.935961140930885, 9656124.793762033805251 ], [ 175614.128662373201223, 9656112.948074046522379 ], [ 175598.619016103300964, 9656106.162434533238411 ], [ 175597.356325439846842, 9656105.531330039724708 ], [ 175588.265514163125772, 9656097.955236794427037 ], [ 175588.265514162194449, 9656097.821708504110575 ], [ 175573.23016959236702, 9656075.268573028966784 ], [ 175573.230169589223806, 9656074.819951314479113 ], [ 175565.286527963733533, 9656055.952793167904019 ], [ 175554.827967964927666, 9656034.085181675851345 ], [ 175542.441868103982415, 9656012.17120174318552 ], [ 175534.670356050948612, 9656000.514181155711412 ], [ 175524.023071976116626, 9655987.930826298892498 ], [ 175523.49852235490107, 9655987.406410068273544 ], [ 175515.041634386143414, 9655970.49311276525259 ], [ 175514.217820359655889, 9655969.668670061975718 ], [ 175507.03763542464003, 9655952.616359278559685 ], [ 175495.616617167688673, 9655927.870377035811543 ], [ 175486.668366247729864, 9655912.95696322247386 ], [ 175473.191276492667384, 9655900.442243378609419 ], [ 175460.094505887973355, 9655885.474336149170995 ], [ 175459.720985063409898, 9655885.101005278527737 ], [ 175455.167040860280395, 9655874.171400707215071 ], [ 175441.445295132260071, 9655855.54921024478972 ], [ 175425.32565267389873, 9655839.429809492081404 ], [ 175412.239567446551519, 9655824.474114261567593 ], [ 175401.643901621195255, 9655812.915006075054407 ], [ 175395.924171718594152, 9655808.148564649745822 ], [ 175395.254997061361792, 9655807.479560159146786 ], [ 175381.780700900038937, 9655792.080435033887625 ], [ 175364.504153313755523, 9655780.562248835340142 ], [ 175354.683029676496517, 9655772.705550003796816 ], [ 175343.327014200156555, 9655768.338022764772177 ], [ 175342.154262479656609, 9655766.383237801492214 ], [ 175343.050902213406516, 9655752.929763153195381 ], [ 175334.283595734101254, 9655723.705244559794664 ], [ 175316.925344924704405, 9655679.34532679989934 ], [ 175300.23070390310022, 9655662.651185858994722 ], [ 175282.6172479854431, 9655645.037232846021652 ], [ 175242.091199463466182, 9655628.634136570617557 ], [ 175118.233619564358378, 9655587.348039230331779 ], [ 175117.332466685096733, 9655586.897405501455069 ], [ 175088.837140264193295, 9655559.352359050884843 ], [ 175053.161716136179166, 9655548.45149333588779 ], [ 174982.193908707442461, 9655549.397692240774632 ], [ 174896.555940312566236, 9655541.020389350131154 ], [ 174894.715870145882946, 9655540.406720664352179 ], [ 174772.000889449293027, 9655470.150196420028806 ], [ 174718.375661512836814, 9655440.563821464776993 ] ] ], [ [ [ 172859.201133504684549, 9655881.544804096221924 ], [ 172851.852249078277964, 9655907.129883391782641 ], [ 172859.201133734924952, 9655914.47861204855144 ], [ 172859.201133504684549, 9655881.544804096221924 ] ] ] ] } }
]
}
