{
"type": "FeatureCollection",
"name": "p15_sobreposicoes_uniao_sobrepos",
"crs": { "type": "name", "properties": { "name": "urn:ogc:def:crs:OGC:1.3:CRS84" } },
"features": [
{ "type": "Feature", "properties": { "id": 1, "pagina": 15, "area_m2": 7942278.7143265549, "area_ha": 794.22787143265555, "id_layer": "p15_sobreposicoes_uniao_sobrepos", "doc_fonte": "Resposta SECT_autos.pdf", "doc_pagina": 15, "doc_folha": 108, "doc_escala": "1:15.000", "doc_metodo": "Reconstituição Vetorial Afim", "doc_rms_m": 0.68 }, "geometry": { "type": "MultiPolygon", "coordinates": [ [ [ [ -59.943006245980307, -3.108960052624725 ], [ -59.942940010369064, -3.108893841738173 ], [ -59.942940353859768, -3.109017680137433 ], [ -59.94294083572948, -3.109191399840888 ], [ -59.943006245980307, -3.108960052624725 ] ] ], [ [ [ -59.939409027814172, -3.099697303334943 ], [ -59.939404384160085, -3.099697316296088 ], [ -59.9386897181884, -3.099540687238475 ], [ -59.938683819152132, -3.099534790079097 ], [ -59.938040495082774, -3.099233108482816 ], [ -59.938040057935197, -3.101814739554849 ], [ -59.938036828197248, -3.101811001209148 ], [ -59.938038367255956, -3.099232110654406 ], [ -59.937970718437938, -3.099200387245212 ], [ -59.937966703206207, -3.099200398445054 ], [ -59.937510194653726, -3.098814274085265 ], [ -59.937562024792072, -3.100301395303187 ], [ -59.937511890200938, -3.098905765626409 ], [ -59.937224650287334, -3.098643960122256 ], [ -59.936812530596761, -3.098105954888962 ], [ -59.936450827475419, -3.097419734675268 ], [ -59.936456144137082, -3.097343321693712 ], [ -59.936379097606128, -3.0972788428648 ], [ -59.93637896908573, -3.097232228021492 ], [ -59.936371895574062, -3.097235808010898 ], [ -59.936250735789287, -3.09667222255935 ], [ -59.936244295989255, -3.096678732142084 ], [ -59.936173831722854, -3.096349803139019 ], [ -59.936102315918347, -3.096065573956912 ], [ -59.936105471280555, -3.096061319948651 ], [ -59.935924215369901, -3.096122617148335 ], [ -59.93591080605237, -3.096090327501597 ], [ -59.936700229584517, -3.09575059251122 ], [ -59.936777310109569, -3.095991079423725 ], [ -59.937068828450712, -3.095882506558429 ], [ -59.93707054253391, -3.095885512145172 ], [ -59.936792928160763, -3.095990503730321 ], [ -59.937256260796403, -3.097260377747186 ], [ -59.938039722979362, -3.096968582693732 ], [ -59.938040042929522, -3.096435497000596 ], [ -59.938877080932876, -3.096551026695177 ], [ -59.938478810557143, -3.095352915201519 ], [ -59.938471193763661, -3.095355795823043 ], [ -59.938325210484777, -3.094929215983281 ], [ -59.938040883639715, -3.095036746282364 ], [ -59.938040884154404, -3.095035890856509 ], [ -59.938310495207766, -3.09493460443962 ], [ -59.938164585132427, -3.09450763558477 ], [ -59.938275003317784, -3.094465943868758 ], [ -59.938041650159292, -3.093763945633941 ], [ -59.938042280199035, -3.092719554352922 ], [ -59.938992975392978, -3.096567022623784 ], [ -59.940016212551051, -3.096708250714747 ], [ -59.94281121669195, -3.095391531263182 ], [ -59.942826035608974, -3.095391489910527 ], [ -59.943426986078968, -3.095643176552433 ], [ -59.943416067245572, -3.091687772233942 ], [ -59.942775217447547, -3.09139213936189 ], [ -59.939401112419311, -3.092666312836667 ], [ -59.939380037495958, -3.092655792380345 ], [ -59.938436209758201, -3.091001768053705 ], [ -59.938043256619096, -3.091104147137937 ], [ -59.938043673368661, -3.09041583467105 ], [ -59.937098766480005, -3.090416243296462 ], [ -59.936965726639045, -3.090464172922025 ], [ -59.936981102273045, -3.090490647823718 ], [ -59.93691958091469, -3.090511454283678 ], [ -59.936966579289994, -3.09041630039339 ], [ -59.934354762230491, -3.090417425144199 ], [ -59.934309374182476, -3.09052068357476 ], [ -59.934347033885594, -3.090541916297002 ], [ -59.934254996773241, -3.090739950631343 ], [ -59.93442319330196, -3.090908100384443 ], [ -59.934418983995947, -3.090912355448454 ], [ -59.934588351144505, -3.091081675283778 ], [ -59.934723925049965, -3.091234142185609 ], [ -59.934729869688717, -3.091228132919502 ], [ -59.934893344549586, -3.091411984338288 ], [ -59.935092361290614, -3.091610939066289 ], [ -59.935088148864402, -3.091615197292311 ], [ -59.935181311488833, -3.091708331837485 ], [ -59.935392914753692, -3.091601237844427 ], [ -59.935404939985879, -3.091629156104428 ], [ -59.934966781369994, -3.091841413616166 ], [ -59.935005660894639, -3.091895550854332 ], [ -59.934730778430456, -3.091967167316501 ], [ -59.93471611309598, -3.09194936636111 ], [ -59.934751083277867, -3.091896315972425 ], [ -59.934623974799223, -3.09174384227408 ], [ -59.934623951447549, -3.091735352308785 ], [ -59.934622750593924, -3.091737174024383 ], [ -59.934435078263519, -3.091526115780786 ], [ -59.93443755615813, -3.091523610948428 ], [ -59.934327409000019, -3.091396561169643 ], [ -59.93410297270237, -3.091172190378491 ], [ -59.934107184805484, -3.091167932488642 ], [ -59.934081778015717, -3.091142532977725 ], [ -59.93408054861613, -3.091145021951562 ], [ -59.93407417954753, -3.091139109590359 ], [ -59.934034355676147, -3.091301149461259 ], [ -59.933911909435182, -3.091424921470311 ], [ -59.933737661071781, -3.091821339037458 ], [ -59.932918052512392, -3.091047134476972 ], [ -59.932087057433165, -3.090530360862885 ], [ -59.929371266587715, -3.08904328584774 ], [ -59.928910511765245, -3.088800694367436 ], [ -59.928915293470197, -3.088805474777184 ], [ -59.928476541049889, -3.089128881416143 ], [ -59.928476610899423, -3.089154351453819 ], [ -59.928442828443771, -3.089154445075745 ], [ -59.928375081526127, -3.089207715503548 ], [ -59.928299690457436, -3.089248792292208 ], [ -59.92809991406763, -3.089401351425925 ], [ -59.92809316957073, -3.089401370116236 ], [ -59.927722061577931, -3.089589187840385 ], [ -59.927719055646804, -3.089589196169838 ], [ -59.926942970517189, -3.089464202004239 ], [ -59.926833050438375, -3.089447514556091 ], [ -59.926721197139287, -3.089430532504387 ], [ -59.926617249524035, -3.089439529959504 ], [ -59.926510862894361, -3.089456285344141 ], [ -59.926495004167755, -3.089464311032542 ], [ -59.925604144397496, -3.09155850432386 ], [ -59.924896103610749, -3.093363871431724 ], [ -59.924724833794208, -3.093226830168578 ], [ -59.92466233802174, -3.09345259349828 ], [ -59.924667389133774, -3.093447487517267 ], [ -59.924612313846737, -3.093690465902291 ], [ -59.924587463711788, -3.093868833483684 ], [ -59.92459027133453, -3.093865995506218 ], [ -59.924562941809349, -3.094166065966938 ], [ -59.924563314475016, -3.094301913110178 ], [ -59.924555171590313, -3.094412311382782 ], [ -59.924747379566547, -3.094460049946931 ], [ -59.924745818601671, -3.094478810555467 ], [ -59.924309997596858, -3.094445931343734 ], [ -59.924268342815076, -3.095046762302848 ], [ -59.924235844116339, -3.095531461830872 ], [ -59.924220110443088, -3.095928921934026 ], [ -59.924154553410879, -3.09639094084537 ], [ -59.924103497335373, -3.096572471095909 ], [ -59.92410352515342, -3.096582605461414 ], [ -59.923818681510184, -3.09702707065643 ], [ -59.923816153443518, -3.097029625408572 ], [ -59.922817192396074, -3.097742634568114 ], [ -59.92209545533953, -3.09819252585878 ], [ -59.921876376150358, -3.098294911423741 ], [ -59.921791466174916, -3.098346443816661 ], [ -59.921779621420477, -3.098352438392013 ], [ -59.921586858436633, -3.098409536746832 ], [ -59.921158945771623, -3.098410723284574 ], [ -59.918878774395111, -3.097882549880933 ], [ -59.918558937125844, -3.097857371228838 ], [ -59.918308263680437, -3.097884141798393 ], [ -59.91776437399102, -3.09798821438581 ], [ -59.917523372170116, -3.098056347811778 ], [ -59.916409657899464, -3.097898928757947 ], [ -59.916875405301411, -3.09823953375159 ], [ -59.916754234233849, -3.098273789840744 ], [ -59.917146562545881, -3.100634482184482 ], [ -59.917146582451011, -3.10064174159376 ], [ -59.917545075088682, -3.104274574101487 ], [ -59.917545385766083, -3.104387727687314 ], [ -59.917623752620294, -3.10471629246473 ], [ -59.917664921394923, -3.104855572707082 ], [ -59.917665296668353, -3.104992221411067 ], [ -59.917716391321747, -3.105144906751443 ], [ -59.917716879020304, -3.105322472045697 ], [ -59.917700474962871, -3.105500817345149 ], [ -59.917700491580057, -3.105506866975877 ], [ -59.917658978524429, -3.105709977431134 ], [ -59.917651017209792, -3.105952943806608 ], [ -59.917660347461485, -3.106228759078764 ], [ -59.91769572714945, -3.106455736921997 ], [ -59.917746823948931, -3.106608423506463 ], [ -59.917764741799182, -3.106723404732019 ], [ -59.917856718032986, -3.106879591488717 ], [ -59.918040252512782, -3.10706307326579 ], [ -59.918173636786463, -3.107169732206887 ], [ -59.918313208201781, -3.107230654840891 ], [ -59.918324573117765, -3.10723632549251 ], [ -59.918406470780418, -3.107304550295272 ], [ -59.918406474097061, -3.107305756754693 ], [ -59.91854217410733, -3.107509154177942 ], [ -59.918542185251688, -3.107513207579846 ], [ -59.918614052530124, -3.107683478379701 ], [ -59.918708598845875, -3.107880796133046 ], [ -59.918820471380748, -3.108078484646843 ], [ -59.918890612512925, -3.108183614392717 ], [ -59.91898662453864, -3.108297041922746 ], [ -59.918991352298725, -3.108301767039754 ], [ -59.919067784365232, -3.108454371284781 ], [ -59.919075209415197, -3.108461799731573 ], [ -59.919140169783681, -3.108615691865258 ], [ -59.919243438664481, -3.108838992081504 ], [ -59.919324237587411, -3.10897351455564 ], [ -59.91944568277696, -3.109086251078314 ], [ -59.919563770620933, -3.109221162167462 ], [ -59.919567137163526, -3.109224525960069 ], [ -59.919608340442963, -3.109323163569024 ], [ -59.919732136585594, -3.109491076237616 ], [ -59.919759688012412, -3.109518618722352 ], [ -59.91975750516621, -3.098415649700587 ], [ -59.919757722619387, -3.098415649542239 ], [ -59.919763965067418, -3.103793064115249 ], [ -59.925970589073188, -3.103792933996586 ], [ -59.927264833648096, -3.103523206306471 ], [ -59.927316911570458, -3.103609054239052 ], [ -59.927478906471052, -3.103478592216705 ], [ -59.927960099866553, -3.103378308420142 ], [ -59.928170127522627, -3.103634559640696 ], [ -59.928169955009785, -3.103571941429663 ], [ -59.935670214912243, -3.103551034548745 ], [ -59.935630960611746, -3.103256716263731 ], [ -59.935459098700555, -3.103079742952776 ], [ -59.936528761637099, -3.103079929355211 ], [ -59.936563631954776, -3.103306240796535 ], [ -59.93656150910892, -3.103306313938413 ], [ -59.936606226103876, -3.10354842167866 ], [ -59.938039768365186, -3.103544418339936 ], [ -59.938729645712101, -3.103542491078913 ], [ -59.94292514797668, -3.103530760668971 ], [ -59.942937120758479, -3.107851856664583 ], [ -59.943421468501342, -3.104658902367629 ], [ -59.943436106576222, -3.104647802567755 ], [ -59.94345189786975, -3.104648645928731 ], [ -59.943434994421565, -3.098541014975433 ], [ -59.943103293362753, -3.098653193427265 ], [ -59.941972345848008, -3.099149031289331 ], [ -59.941013268770611, -3.099515749927328 ], [ -59.940334620114591, -3.099669342530267 ], [ -59.939409027814172, -3.099697303334943 ] ], [ [ -59.929444940878099, -3.096833667238103 ], [ -59.9294388320899, -3.096830617222768 ], [ -59.928752058619828, -3.096444960346116 ], [ -59.929076477972394, -3.096573581176482 ], [ -59.929084219278003, -3.096573559666974 ], [ -59.929603739546259, -3.09682856459139 ], [ -59.929444940878099, -3.096833667238103 ] ], [ [ -59.936682725936173, -3.090990966507195 ], [ -59.936825884292816, -3.090837741689013 ], [ -59.937002591226964, -3.090599521318949 ], [ -59.937001116595532, -3.090596576013224 ], [ -59.937024766582859, -3.090565832239483 ], [ -59.937430167254178, -3.091263879740238 ], [ -59.936848410215582, -3.091415448817628 ], [ -59.93660344919779, -3.091071100528925 ], [ -59.936682725936173, -3.090990966507195 ] ] ], [ [ [ -59.912886937200064, -3.100919663339012 ], [ -59.915349459643807, -3.097923856804941 ], [ -59.915358015565992, -3.097915208502247 ], [ -59.915673387488454, -3.097794859121823 ], [ -59.908305333183883, -3.096753373177498 ], [ -59.910400003317896, -3.098487673721549 ], [ -59.910407897734927, -3.098503435972397 ], [ -59.910402577717228, -3.099692558910497 ], [ -59.912886937200064, -3.100919663339012 ] ] ], [ [ [ -59.940078830223513, -3.098389499589955 ], [ -59.938845453738239, -3.098433044720615 ], [ -59.939229403108037, -3.098777605179379 ], [ -59.940108293604681, -3.098569759739024 ], [ -59.940078830223513, -3.098389499589955 ] ] ], [ [ [ -59.90118303359958, -3.10204404418234 ], [ -59.901191054265929, -3.102044022070375 ], [ -59.904176598149071, -3.102847545515901 ], [ -59.904176775975955, -3.10284580803229 ], [ -59.904613388007604, -3.102963520847731 ], [ -59.904613388069833, -3.102965101295409 ], [ -59.904613586622737, -3.102965154733031 ], [ -59.904613588304514, -3.102963574848729 ], [ -59.904617168556271, -3.102964540101672 ], [ -59.904616595417622, -3.100141923395884 ], [ -59.90462076577429, -3.096239574704357 ], [ -59.904615813750326, -3.096235370040632 ], [ -59.904615813048288, -3.096231830986067 ], [ -59.904613142929826, -3.09623145353868 ], [ -59.904613142984978, -3.096233102347552 ], [ -59.901331978848624, -3.093447112523963 ], [ -59.89997406167064, -3.094130005836849 ], [ -59.899963082710457, -3.094130036014841 ], [ -59.89802409358002, -3.094534086856028 ], [ -59.898022447762258, -3.097804832238584 ], [ -59.898022563978252, -3.098004399906477 ], [ -59.898022354981002, -3.097989773830698 ], [ -59.898020871169471, -3.100955632019982 ], [ -59.897984152335333, -3.103348696488777 ], [ -59.898030464512303, -3.103310142508901 ], [ -59.898087684799471, -3.102561035206083 ], [ -59.898086448323433, -3.102474528725581 ], [ -59.899224228683231, -3.102316356469073 ], [ -59.89922498621543, -3.102315725837419 ], [ -59.899942485586223, -3.102214292822879 ], [ -59.899939911497334, -3.102216862910463 ], [ -59.90118303359958, -3.10204404418234 ] ] ], [ [ [ -59.938039283948747, -3.097700760353323 ], [ -59.937397244965545, -3.098005596873342 ], [ -59.938039068181723, -3.098060889624456 ], [ -59.938039283948747, -3.097700760353323 ] ] ], [ [ [ -59.905498926124416, -3.095394736349466 ], [ -59.90566154522714, -3.09537891057703 ], [ -59.9030893508777, -3.093238951430839 ], [ -59.902723116449664, -3.093092854029472 ], [ -59.905498926124416, -3.095394736349466 ] ] ], [ [ [ -59.924170920196694, -3.095967129142681 ], [ -59.92417080369529, -3.095924678921177 ], [ -59.924179086283665, -3.095865220870549 ], [ -59.92417852709066, -3.095661453330456 ], [ -59.92418697278849, -3.095661429909949 ], [ -59.924205685332844, -3.095299119003534 ], [ -59.924211310213437, -3.095296272632695 ], [ -59.924219078180165, -3.095050027147104 ], [ -59.924227341813101, -3.094982081207166 ], [ -59.924220539289351, -3.094988956403978 ], [ -59.924251840323286, -3.094676356425853 ], [ -59.924243394633741, -3.094676379839433 ], [ -59.924256416845303, -3.094478615159189 ], [ -59.924226362577919, -3.094475710960918 ], [ -59.924377461506772, -3.093312040759689 ], [ -59.924377454012344, -3.093309307840088 ], [ -59.924486193549093, -3.093035882404388 ], [ -59.924433039339327, -3.092993351088371 ], [ -59.924432880181101, -3.092935306973465 ], [ -59.924466753868046, -3.092969180020504 ], [ -59.92465131011101, -3.092510183471799 ], [ -59.924785492818643, -3.092161702276007 ], [ -59.925238699222966, -3.091124698803338 ], [ -59.925431833122204, -3.090699555898514 ], [ -59.92543178657197, -3.090682572588231 ], [ -59.925448605912791, -3.090657056782112 ], [ -59.925532461638063, -3.090436073297576 ], [ -59.925549283121612, -3.090410556409872 ], [ -59.925624786277936, -3.090223556482072 ], [ -59.925616294096955, -3.090206599804655 ], [ -59.925641561216317, -3.090181057370878 ], [ -59.925709529637942, -3.090020417672884 ], [ -59.925530336746831, -3.089957926324112 ], [ -59.925525739410773, -3.089957939055313 ], [ -59.925087709793765, -3.089718576022412 ], [ -59.924867134731485, -3.089595205025391 ], [ -59.924719960709197, -3.089588888645404 ], [ -59.924784374143201, -3.087631136199178 ], [ -59.924627569141421, -3.087710493961237 ], [ -59.924614453827942, -3.087710530243312 ], [ -59.911172331082057, -3.086764447611652 ], [ -59.911159071489244, -3.086744572180803 ], [ -59.911734766778871, -3.077175467482019 ], [ -59.898111587451901, -3.077178577591951 ], [ -59.898112351713678, -3.093138996192812 ], [ -59.900096938743019, -3.092748336250736 ], [ -59.900800904106291, -3.092378776659432 ], [ -59.900925330422112, -3.092253010898687 ], [ -59.900933637737865, -3.09220204420305 ], [ -59.900928811750575, -3.09220205746447 ], [ -59.900983250874958, -3.091811338737884 ], [ -59.900991673560711, -3.091802825167183 ], [ -59.901049217031641, -3.091359759952707 ], [ -59.901058021113236, -3.091352639469402 ], [ -59.901081310361413, -3.091145803851247 ], [ -59.901107661757585, -3.090970425217708 ], [ -59.901046597747204, -3.091032146539273 ], [ -59.901165744025057, -3.090588186728888 ], [ -59.901182265656189, -3.090452296815917 ], [ -59.901439388924594, -3.088719498707593 ], [ -59.901493948931545, -3.088295073693446 ], [ -59.901572685976447, -3.087757375700299 ], [ -59.9015803470948, -3.087751179821699 ], [ -59.901641011498839, -3.087284053292426 ], [ -59.901829026502831, -3.086018410258081 ], [ -59.901826672734458, -3.086020313850758 ], [ -59.90192464011696, -3.085375652958314 ], [ -59.901987868687556, -3.085415139955395 ], [ -59.901989847678358, -3.085412137883982 ], [ -59.902224751036648, -3.085558830268228 ], [ -59.902229629137025, -3.085553899460675 ], [ -59.902507457817826, -3.085715802704998 ], [ -59.902503912734119, -3.085719386095187 ], [ -59.902706942859155, -3.085837698236308 ], [ -59.902709048449353, -3.085835569802887 ], [ -59.902952271083173, -3.085981365028513 ], [ -59.902953618306633, -3.08597932193222 ], [ -59.903226534046652, -3.086138358353545 ], [ -59.903222987098424, -3.086141943634543 ], [ -59.903472419275936, -3.086281463013875 ], [ -59.903468315390455, -3.086285611253443 ], [ -59.903671345611983, -3.086403921924765 ], [ -59.903953607318748, -3.086559769500949 ], [ -59.903950503213082, -3.086564476963063 ], [ -59.904190935476642, -3.08670458372097 ], [ -59.904187390112888, -3.086708167408481 ], [ -59.904390420409008, -3.086826477788983 ], [ -59.904395296621175, -3.08682154886485 ], [ -59.904673127766259, -3.0869834487281 ], [ -59.904669582405631, -3.08698703241654 ], [ -59.905637529150432, -3.087549668356493 ], [ -59.905633981836196, -3.087553253420009 ], [ -59.90583701228072, -3.087671563216076 ], [ -59.905839118908162, -3.087669433898915 ], [ -59.906082345195372, -3.087815229544416 ], [ -59.90608369096217, -3.087813188120189 ], [ -59.906356604667927, -3.087972221402315 ], [ -59.90635305735826, -3.087975806467247 ], [ -59.906564533648336, -3.088094092749588 ], [ -59.9065665138477, -3.088091089829626 ], [ -59.906801420882267, -3.088237781948237 ], [ -59.907084682774808, -3.088394187003702 ], [ -59.907080578916158, -3.088398335251541 ], [ -59.907207477738751, -3.088474401604446 ], [ -59.907170061005857, -3.088691014217188 ], [ -59.907165849767537, -3.088695270935674 ], [ -59.906969663944516, -3.089659820499444 ], [ -59.906965777587175, -3.08966374853029 ], [ -59.906957123458426, -3.089722465972206 ], [ -59.906974477659375, -3.089757120466955 ], [ -59.907126714081009, -3.089833116964152 ], [ -59.907128488089533, -3.089831324068876 ], [ -59.907388861245259, -3.089951260302694 ], [ -59.907642602972309, -3.090077923785775 ], [ -59.907644375419686, -3.090076132162454 ], [ -59.907945256381147, -3.090214727290845 ], [ -59.907938606962581, -3.09022144836851 ], [ -59.908158483324705, -3.09032273015295 ], [ -59.908161292349902, -3.090319890733812 ], [ -59.908454491646687, -3.090466255527749 ], [ -59.908674368026361, -3.090567536030245 ], [ -59.908677176605181, -3.09056469766067 ], [ -59.90897037637707, -3.090711060049329 ], [ -59.909236541004589, -3.090833664407141 ], [ -59.909232551075036, -3.090837696663343 ], [ -59.909452483419415, -3.090939004781319 ], [ -59.909706160738551, -3.091065637584202 ], [ -59.909707845250765, -3.091063934911586 ], [ -59.909964928180393, -3.091182092430521 ], [ -59.91044024142542, -3.091528363401496 ], [ -59.910622830568869, -3.091731184146703 ], [ -59.910620169720772, -3.091733873687024 ], [ -59.910818260034127, -3.09194233711456 ], [ -59.910959034770713, -3.092106522727112 ], [ -59.910964797221915, -3.09210069813327 ], [ -59.911173471686354, -3.092332496893855 ], [ -59.911170833575824, -3.092335163455508 ], [ -59.91137492837408, -3.092549689286072 ], [ -59.911537744903093, -3.092730548013775 ], [ -59.911535105685978, -3.092733215922777 ], [ -59.911739206223459, -3.092947747062498 ], [ -59.911992518721796, -3.09322442555121 ], [ -59.912385416440166, -3.093384699299139 ], [ -59.91264358969341, -3.093485835719331 ], [ -59.912646128542654, -3.093481984244721 ], [ -59.913125527989841, -3.093671296093576 ], [ -59.913220500490453, -3.094426693362054 ], [ -59.913278943018277, -3.094812034847532 ], [ -59.91327224466842, -3.09481711438929 ], [ -59.913327917590138, -3.095190563582123 ], [ -59.913401581572934, -3.095784677734441 ], [ -59.913436016877242, -3.096022318710333 ], [ -59.913469869657987, -3.096047697897238 ], [ -59.913607770751412, -3.096027500996562 ], [ -59.913596537453152, -3.09603885552851 ], [ -59.914017590222564, -3.095996385715904 ], [ -59.914010304939652, -3.096003749161492 ], [ -59.914431358367537, -3.095961281753981 ], [ -59.914424074400735, -3.095968644811144 ], [ -59.914844046317995, -3.095927264638469 ], [ -59.914837839382685, -3.095933538176423 ], [ -59.915257811915538, -3.095892160589546 ], [ -59.91525160633708, -3.095898433558506 ], [ -59.915606273842442, -3.095871980235312 ], [ -59.91561080839891, -3.095867396432098 ], [ -59.916020040461149, -3.095836873202741 ], [ -59.916024573183464, -3.095832291541491 ], [ -59.916433804758647, -3.09580176819857 ], [ -59.916438342281218, -3.095797181681772 ], [ -59.916847571019119, -3.095766660892518 ], [ -59.916852106568065, -3.095762076658651 ], [ -59.917261339254267, -3.095731555602995 ], [ -59.917265108512474, -3.095727744913368 ], [ -59.918088868732305, -3.095661340313213 ], [ -59.918092636282346, -3.095657532071295 ], [ -59.918502632128479, -3.095626232466146 ], [ -59.918506519545261, -3.095622303309737 ], [ -59.918924843236603, -3.095591103257878 ], [ -59.918929378076584, -3.095586519431835 ], [ -59.919338608418968, -3.095555995128509 ], [ -59.919343421744223, -3.095551130423841 ], [ -59.919651043625628, -3.095529659715345 ], [ -59.919676264506741, -3.095487137013087 ], [ -59.919497652281294, -3.095032997955875 ], [ -59.919380837675938, -3.094747023955494 ], [ -59.919293496065492, -3.094503298733046 ], [ -59.919813211942063, -3.094361096992622 ], [ -59.919808334621344, -3.094366027252768 ], [ -59.920247224691352, -3.094254436297918 ], [ -59.920255207255252, -3.094246367904152 ], [ -59.920780725811092, -3.094110162330638 ], [ -59.921034772958784, -3.094275715816511 ], [ -59.921032778056343, -3.094277731932205 ], [ -59.921272279365994, -3.094427287032225 ], [ -59.921269689610661, -3.09442990477159 ], [ -59.921464296399733, -3.094556722110018 ], [ -59.921467664947933, -3.094553317160776 ], [ -59.921701203728098, -3.094708894745639 ], [ -59.921703582309348, -3.094705287095173 ], [ -59.921965493048539, -3.094875961479241 ], [ -59.921963496922629, -3.094877979349116 ], [ -59.922202384496615, -3.095027148114088 ], [ -59.922200404331889, -3.095030151735984 ], [ -59.922395013395423, -3.095156968685449 ], [ -59.922397604306738, -3.095154349548454 ], [ -59.922667730950927, -3.095323026442074 ], [ -59.922665752416293, -3.095326027340047 ], [ -59.922896209221811, -3.09547620839453 ], [ -59.922894216378495, -3.095478222779765 ], [ -59.923097271241424, -3.095605016031686 ], [ -59.923099648953929, -3.095601409225788 ], [ -59.923330154939158, -3.095751617855989 ], [ -59.923596264797496, -3.095849856791472 ], [ -59.923587721612719, -3.095815917866295 ], [ -59.923570713727734, -3.095773512296273 ], [ -59.923519596917977, -3.0956123353794 ], [ -59.923401795723436, -3.095288688444787 ], [ -59.923405855348534, -3.095284585005262 ], [ -59.923394902148303, -3.095256500045815 ], [ -59.923529896206276, -3.09531145289196 ], [ -59.923612317586624, -3.095544155251878 ], [ -59.923727793164737, -3.095859166192205 ], [ -59.923748431535074, -3.095900377702752 ], [ -59.923924826372897, -3.095972821273801 ], [ -59.924145813964927, -3.096052104179739 ], [ -59.924162660907314, -3.096035075079426 ], [ -59.924170920196694, -3.095967129142681 ] ], [ [ -59.923950407781405, -3.092554577945319 ], [ -59.923957229094157, -3.09255982259152 ], [ -59.923942417201772, -3.092600779570595 ], [ -59.923902172074179, -3.092568577378569 ], [ -59.92392079896991, -3.092514355836484 ], [ -59.923957893403241, -3.092532867502856 ], [ -59.923950407781405, -3.092554577945319 ] ] ], [ [ [ -59.94095948818125, -3.085871600754558 ], [ -59.942036988591617, -3.086521639985786 ], [ -59.943398825297812, -3.085431410725345 ], [ -59.943394927829551, -3.084015419767712 ], [ -59.942277290612111, -3.085544801133855 ], [ -59.942265015301352, -3.085544835273593 ], [ -59.941645828895403, -3.084786416135174 ], [ -59.940983354207937, -3.085826715706776 ], [ -59.94095948818125, -3.085871600754558 ] ] ], [ [ [ -59.940846658686752, -3.084883324263322 ], [ -59.938524469819214, -3.082321063194115 ], [ -59.936406227883523, -3.082848474913682 ], [ -59.931460877865057, -3.083761075572866 ], [ -59.931946549869288, -3.087001517172421 ], [ -59.939003488677052, -3.086460447873512 ], [ -59.940500762256384, -3.085811525736937 ], [ -59.940556113589452, -3.085735631447633 ], [ -59.940561834342304, -3.08573314784956 ], [ -59.941016207494933, -3.085112091191743 ], [ -59.941016184142725, -3.085103601274426 ], [ -59.940906084944999, -3.084993533200859 ], [ -59.940834584119479, -3.084907769172494 ], [ -59.940846658686752, -3.084883324263322 ] ] ] ] } }
]
}
