{
"type": "FeatureCollection",
"name": "p15_aeis_lula",
"crs": { "type": "name", "properties": { "name": "urn:ogc:def:crs:OGC:1.3:CRS84" } },
"features": [
{ "type": "Feature", "properties": { "id": 1, "pagina": 15, "classe": "AEIS Conjunto Habitacional Presidente Lula", "rotulo": "AEIS Conjunto Habitacional Presidente Lula", "seq_pdf": "62", "metodo": "CONTORNO_PDF", "situacao": "DERIV_PDF", "recortado": 1, "area_m2": 280015.96, "area_ha": 28.001596, "documento": "Resposta SECT_autos.pdf", "origem": "AEIS Conjunto Habitacional Presidente Lula" }, "geometry": { "type": "Polygon", "coordinates": [ [ [ -59.925530336746831, -3.089957926324112 ], [ -59.925525739410773, -3.089957939055313 ], [ -59.925087709793765, -3.089718576022412 ], [ -59.924867134731485, -3.089595205025391 ], [ -59.924669655413339, -3.089586729649653 ], [ -59.924492168102873, -3.08958722093929 ], [ -59.924280995052072, -3.089579315324318 ], [ -59.924078840215721, -3.089579874816137 ], [ -59.923818034517637, -3.089563684444541 ], [ -59.923639807115052, -3.089555647365585 ], [ -59.923327393981047, -3.08954802365345 ], [ -59.923167783616883, -3.089540022045281 ], [ -59.922785284809329, -3.089515450680787 ], [ -59.922615241841996, -3.089524918735973 ], [ -59.922471557880357, -3.089579536966819 ], [ -59.922464646437533, -3.089583035226001 ], [ -59.92219655278933, -3.08955111979726 ], [ -59.922186676191515, -3.089551147113258 ], [ -59.922097377855465, -3.089510642062653 ], [ -59.921856073997574, -3.089468013208085 ], [ -59.92159166785671, -3.08941063617583 ], [ -59.921519016063002, -3.08963175869396 ], [ -59.921513602878441, -3.089642717928071 ], [ -59.921302780919554, -3.089941152136951 ], [ -59.921218011015682, -3.090130006327568 ], [ -59.921044900099169, -3.090427709704699 ], [ -59.921044912248291, -3.090432149216431 ], [ -59.920972403992977, -3.090520108800021 ], [ -59.920965870163386, -3.090526714046864 ], [ -59.92081951100824, -3.090666435682952 ], [ -59.920812965580161, -3.090669747834766 ], [ -59.92050911815344, -3.090747002812615 ], [ -59.920329519068169, -3.090837895921596 ], [ -59.92029032054684, -3.090877517820894 ], [ -59.92010950505118, -3.091068991584662 ], [ -59.919958350497879, -3.091329839045828 ], [ -59.919950010974802, -3.091535712483408 ], [ -59.919933550980453, -3.091776668260196 ], [ -59.919968906974951, -3.092130876392301 ], [ -59.920021703293543, -3.092383888746657 ], [ -59.9201119835855, -3.092591061958267 ], [ -59.920116294456889, -3.092595371691399 ], [ -59.920164781847895, -3.092882941630746 ], [ -59.920164787170158, -3.092884885523757 ], [ -59.920133954155304, -3.093138509356802 ], [ -59.920130297930719, -3.093142205077465 ], [ -59.920079947000573, -3.09326121067752 ], [ -59.920072673860325, -3.093268562385311 ], [ -59.919990218918649, -3.093321629232265 ], [ -59.919972206892147, -3.093326209748437 ], [ -59.919475353696484, -3.093252694215724 ], [ -59.919228800746424, -3.093201769444223 ], [ -59.919178221479214, -3.093480614693238 ], [ -59.919178235283866, -3.093485657403265 ], [ -59.919079290429551, -3.093775573128955 ], [ -59.919697294740615, -3.093637882814702 ], [ -59.919740154539006, -3.093629142861981 ], [ -59.919841501108742, -3.093603373345366 ], [ -59.920381747669282, -3.093491502249232 ], [ -59.920643016752308, -3.093425073580742 ], [ -59.920664243065971, -3.093429279861739 ], [ -59.920953044756324, -3.093668486307406 ], [ -59.921572721475926, -3.094109635971667 ], [ -59.922385882528928, -3.094651343099165 ], [ -59.923201945834357, -3.095177952100821 ], [ -59.924088327607521, -3.095538776606839 ], [ -59.924377461506772, -3.093312040759689 ], [ -59.924377454012344, -3.093309307840088 ], [ -59.924826910539345, -3.092179150198443 ], [ -59.925464078429044, -3.090718691758376 ], [ -59.925472002324561, -3.090702650329666 ], [ -59.925497877038595, -3.090650266367186 ], [ -59.92575163687453, -3.090035102054143 ], [ -59.925530336746831, -3.089957926324112 ] ] ] } }
]
}
