{
"type": "FeatureCollection",
"name": "p15_apoio_pontos_controle",
"crs": { "type": "name", "properties": { "name": "urn:ogc:def:crs:OGC:1.3:CRS84" } },
"features": [
{ "type": "Feature", "properties": { "id": 1, "pagina": 15, "pdf_x": 182.64001, "pdf_y": 125.64, "E": 174000.0, "N": 9658800.0, "resid_m": 1.1186988559e-05, "loo_m": 1.9576955706e-05, "E_grid": 174000.0, "N_grid": 9658800.0, "id_layer": "p15_apoio_pontos_controle", "doc_fonte": "Resposta SECT_autos.pdf", "doc_pagina": 15, "doc_folha": 108, "doc_escala": "1:15.000", "doc_metodo": "Reconstituição Vetorial Afim", "doc_rms_m": 0.68 }, "geometry": { "type": "Point", "coordinates": [ -59.932614757031899, -3.082851495238256 ] } },
{ "type": "Feature", "properties": { "id": 2, "pagina": 15, "pdf_x": 335.88, "pdf_y": 125.64, "E": 175200.0, "N": 9658800.0, "resid_m": 3.3560761949e-05, "loo_m": 4.4048357343000001e-05, "E_grid": 175200.0, "N_grid": 9658800.0, "id_layer": "p15_apoio_pontos_controle", "doc_fonte": "Resposta SECT_autos.pdf", "doc_pagina": 15, "doc_folha": 108, "doc_escala": "1:15.000", "doc_metodo": "Reconstituição Vetorial Afim", "doc_rms_m": 0.68 }, "geometry": { "type": "Point", "coordinates": [ -59.921829320912174, -3.082881311878581 ] } },
{ "type": "Feature", "properties": { "id": 3, "pagina": 15, "pdf_x": 489.12001, "pdf_y": 125.64, "E": 176400.0, "N": 9658800.0, "resid_m": 7.8308570687e-05, "loo_m": 0.00010278006126500001, "E_grid": 176400.0, "N_grid": 9658800.0, "id_layer": "p15_apoio_pontos_controle", "doc_fonte": "Resposta SECT_autos.pdf", "doc_pagina": 15, "doc_folha": 108, "doc_escala": "1:15.000", "doc_metodo": "Reconstituição Vetorial Afim", "doc_rms_m": 0.68 }, "geometry": { "type": "Point", "coordinates": [ -59.911043780171212, -3.082911019037716 ] } },
{ "type": "Feature", "properties": { "id": 4, "pagina": 15, "pdf_x": 642.35999, "pdf_y": 125.64, "E": 177600.0, "N": 9658800.0, "resid_m": 4.4747721443000003e-05, "loo_m": 7.8308454448000007e-05, "E_grid": 177600.0, "N_grid": 9658800.0, "id_layer": "p15_apoio_pontos_controle", "doc_fonte": "Resposta SECT_autos.pdf", "doc_pagina": 15, "doc_folha": 108, "doc_escala": "1:15.000", "doc_metodo": "Reconstituição Vetorial Afim", "doc_rms_m": 0.68 }, "geometry": { "type": "Point", "coordinates": [ -59.900258135193873, -3.082940616710399 ] } },
{ "type": "Feature", "properties": { "id": 5, "pagina": 15, "pdf_x": 182.64001, "pdf_y": 278.88, "E": 174000.0, "N": 9657600.0, "resid_m": 2.79682238e-06, "loo_m": 4.121539371e-06, "E_grid": 174000.0, "N_grid": 9657600.0, "id_layer": "p15_apoio_pontos_controle", "doc_fonte": "Resposta SECT_autos.pdf", "doc_pagina": 15, "doc_folha": 108, "doc_escala": "1:15.000", "doc_metodo": "Reconstituição Vetorial Afim", "doc_rms_m": 0.68 }, "geometry": { "type": "Point", "coordinates": [ -59.932644524522317, -3.093693642117543 ] } },
{ "type": "Feature", "properties": { "id": 6, "pagina": 15, "pdf_x": 335.88, "pdf_y": 278.88, "E": 175200.0, "N": 9657600.0, "resid_m": 4.195093065e-05, "loo_m": 4.8272253803000001e-05, "E_grid": 175200.0, "N_grid": 9657600.0, "id_layer": "p15_apoio_pontos_controle", "doc_fonte": "Resposta SECT_autos.pdf", "doc_pagina": 15, "doc_folha": 108, "doc_escala": "1:15.000", "doc_metodo": "Reconstituição Vetorial Afim", "doc_rms_m": 0.68 }, "geometry": { "type": "Point", "coordinates": [ -59.921858979305632, -3.093723563816236 ] } },
{ "type": "Feature", "properties": { "id": 7, "pagina": 15, "pdf_x": 489.12001, "pdf_y": 278.88, "E": 176400.0, "N": 9657600.0, "resid_m": 6.991840203000001e-05, "loo_m": 8.0453930444000001e-05, "E_grid": 176400.0, "N_grid": 9657600.0, "id_layer": "p15_apoio_pontos_controle", "doc_fonte": "Resposta SECT_autos.pdf", "doc_pagina": 15, "doc_folha": 108, "doc_escala": "1:15.000", "doc_metodo": "Reconstituição Vetorial Afim", "doc_rms_m": 0.68 }, "geometry": { "type": "Point", "coordinates": [ -59.911073329462461, -3.093753375647989 ] } },
{ "type": "Feature", "properties": { "id": 8, "pagina": 15, "pdf_x": 642.35999, "pdf_y": 278.88, "E": 177600.0, "N": 9657600.0, "resid_m": 5.3137890062999997e-05, "loo_m": 7.830865853e-05, "E_grid": 177600.0, "N_grid": 9657600.0, "id_layer": "p15_apoio_pontos_controle", "doc_fonte": "Resposta SECT_autos.pdf", "doc_pagina": 15, "doc_folha": 108, "doc_escala": "1:15.000", "doc_metodo": "Reconstituição Vetorial Afim", "doc_rms_m": 0.68 }, "geometry": { "type": "Point", "coordinates": [ -59.900287575377661, -3.093783077607521 ] } },
{ "type": "Feature", "properties": { "id": 9, "pagina": 15, "pdf_x": 335.88, "pdf_y": 432.12, "E": 175200.0, "N": 9656400.0, "resid_m": 5.0341099577999998e-05, "loo_m": 8.1320409748000003e-05, "E_grid": 175200.0, "N_grid": 9656400.0, "id_layer": "p15_apoio_pontos_controle", "doc_fonte": "Resposta SECT_autos.pdf", "doc_pagina": 15, "doc_folha": 108, "doc_escala": "1:15.000", "doc_metodo": "Reconstituição Vetorial Afim", "doc_rms_m": 0.68 }, "geometry": { "type": "Point", "coordinates": [ -59.921888742325585, -3.104565813248275 ] } },
{ "type": "Feature", "properties": { "id": 10, "pagina": 15, "pdf_x": 489.12001, "pdf_y": 432.12, "E": 176400.0, "N": 9656400.0, "resid_m": 6.1528233458e-05, "loo_m": 9.9391647398999993e-05, "E_grid": 176400.0, "N_grid": 9656400.0, "id_layer": "p15_apoio_pontos_controle", "doc_fonte": "Resposta SECT_autos.pdf", "doc_pagina": 15, "doc_folha": 108, "doc_escala": "1:15.000", "doc_metodo": "Reconstituição Vetorial Afim", "doc_rms_m": 0.68 }, "geometry": { "type": "Point", "coordinates": [ -59.911102982995317, -3.104595729754678 ] } }
]
}
