{
"type": "FeatureCollection",
"name": "p15_sobreposicoes_uniao_sobrepos_21s",
"crs": { "type": "name", "properties": { "name": "urn:ogc:def:crs:EPSG::31981" } },
"features": [
{ "type": "Feature", "properties": { "id": 1, "pagina": 15, "area_m2": 7942278.7143265549, "area_ha": 794.22787143265555, "id_layer": "p15_sobreposicoes_uniao_sobrepos", "doc_fonte": "Resposta SECT_autos.pdf", "doc_pagina": 15, "doc_folha": 108, "doc_escala": "1:15.000", "doc_metodo": "Reconstituição Vetorial Afim", "doc_rms_m": 0.68 }, "geometry": { "type": "MultiPolygon", "coordinates": [ [ [ [ 172851.852249078277964, 9655907.129883391782641 ], [ 172859.201133734924952, 9655914.47861204855144 ], [ 172859.201133639115142, 9655900.772145938128233 ], [ 172859.201133504655445, 9655881.544804096221924 ], [ 172851.852249078277964, 9655907.129883391782641 ] ] ], [ [ [ 173249.224226936406922, 9656933.437342755496502 ], [ 173249.74088274303358, 9656933.437342755496502 ], [ 173329.206298743549269, 9656950.993633214384317 ], [ 173329.860812044033082, 9656951.648146491497755 ], [ 173401.344178510393249, 9656985.236588561907411 ], [ 173402.186016218736768, 9656699.504638915881515 ], [ 173402.544205844315002, 9656699.919392857700586 ], [ 173401.58061336632818, 9656985.347684036940336 ], [ 173409.097455638402607, 9656988.879680830985308 ], [ 173409.544192416185979, 9656988.879680830985308 ], [ 173460.216614360135281, 9657031.756401289254427 ], [ 173454.906708674127003, 9656867.147538302466273 ], [ 173460.056058796471916, 9657021.629699975252151 ], [ 173491.933895755268168, 9657050.694673409685493 ], [ 173537.621062519145198, 9657110.367598874494433 ], [ 173577.653486457711551, 9657186.429160496219993 ], [ 173577.03851501038298, 9657194.884813209995627 ], [ 173585.59091013946454, 9657202.045007131993771 ], [ 173585.590910175524186, 9657207.204318379983306 ], [ 173586.379005207825685, 9657206.810270875692368 ], [ 173599.686351828568149, 9657269.224544757977128 ], [ 173600.404838778893463, 9657268.506057823076844 ], [ 173608.143807991989888, 9657304.933217884972692 ], [ 173616.013491222867742, 9657336.413378685712814 ], [ 173615.661121934681432, 9657336.883234266191721 ], [ 173635.846411272272235, 9657330.154804674908519 ], [ 173637.328429450746626, 9657333.732712926343083 ], [ 173549.393124243419152, 9657371.090830517932773 ], [ 173540.890898827405181, 9657344.450275683775544 ], [ 173508.423299479123671, 9657356.377116801217198 ], [ 173508.233512487320695, 9657356.043933633714914 ], [ 173539.153059710632078, 9657344.509178023785353 ], [ 173487.992284800391644, 9657203.818179592490196 ], [ 173400.734854932845337, 9657235.872039433568716 ], [ 173400.535669537784997, 9657294.87327516078949 ], [ 173307.442277723981533, 9657281.828342134132981 ], [ 173351.386215350648854, 9657414.556926315650344 ], [ 173352.234544426872162, 9657414.240451158955693 ], [ 173368.345809104328509, 9657461.498865695670247 ], [ 173400.013031782058533, 9657449.685195067897439 ], [ 173400.01271215552697, 9657449.779872493818402 ], [ 173369.984685772360535, 9657460.907014401629567 ], [ 173386.087715596833732, 9657508.208446480333805 ], [ 173373.789782289299183, 9657512.788800377398729 ], [ 173399.537454788864125, 9657590.557121312245727 ], [ 173399.147222071012948, 9657706.148992737755179 ], [ 173294.55276548943948, 9657280.022168563678861 ], [ 173180.750668855354888, 9657264.075379000976682 ], [ 172869.373115721100476, 9657408.945852372795343 ], [ 172867.724342165834969, 9657408.945852372795343 ], [ 172800.939591849484714, 9657380.903693627566099 ], [ 172800.939594910392771, 9657818.68893207795918 ], [ 172872.150445769133512, 9657851.607099760323763 ], [ 173247.946653274091659, 9657711.62297778762877 ], [ 173250.288233955070609, 9657712.793867344036698 ], [ 173354.792088415386388, 9657896.15036141872406 ], [ 173398.543631494743749, 9657884.940162954851985 ], [ 173398.286446243029786, 9657961.121690511703491 ], [ 173503.41742859579972, 9657961.367313716560602 ], [ 173518.23417994970805, 9657956.103464495390654 ], [ 173516.531584586482495, 9657953.168522875756025 ], [ 173523.382849929039367, 9657950.884622598066926 ], [ 173518.12465803095256, 9657961.401675011962652 ], [ 173808.716699009848526, 9657962.080600926652551 ], [ 173813.798166212305659, 9657950.666066635400057 ], [ 173809.614634127734462, 9657948.304480943828821 ], [ 173819.915275762468809, 9657926.414635386317968 ], [ 173801.253136382700177, 9657907.752348342910409 ], [ 173801.722766230144771, 9657907.282698599621654 ], [ 173782.930747507343767, 9657888.490539971739054 ], [ 173767.893420299282297, 9657871.574025478214025 ], [ 173767.230180011334596, 9657872.237293869256973 ], [ 173749.098196308332263, 9657851.838596783578396 ], [ 173727.016446250898298, 9657829.757342988625169 ], [ 173727.486424784554401, 9657829.287344541400671 ], [ 173717.149640359915793, 9657818.950679967179894 ], [ 173693.573841521021677, 9657830.738586319610476 ], [ 173692.24445720584481, 9657827.64493160136044 ], [ 173741.059027266106568, 9657804.28738265670836 ], [ 173736.749855868809391, 9657798.28358743339777 ], [ 173767.355230778921396, 9657790.441753691062331 ], [ 173768.981449354439974, 9657792.416449690237641 ], [ 173765.074427126557566, 9657798.277231339365244 ], [ 173779.169868454278912, 9657815.191903706640005 ], [ 173779.169868460856378, 9657816.131567910313606 ], [ 173779.304033054533647, 9657815.930312491953373 ], [ 173800.11989458987955, 9657839.347659595310688 ], [ 173799.843437315459596, 9657839.624128583818674 ], [ 173812.059550209611189, 9657853.719688907265663 ], [ 173836.961717606231105, 9657878.621735947206616 ], [ 173836.491775967559079, 9657879.091697489842772 ], [ 173839.310768628318328, 9657881.910690052434802 ], [ 173839.448313165892614, 9657881.635592237114906 ], [ 173840.155127904494293, 9657882.291922019794583 ], [ 173844.635505825688597, 9657864.369840402156115 ], [ 173858.296749229950365, 9657850.708597365766764 ], [ 173877.804904488060856, 9657806.88729570992291 ], [ 173968.757773110293783, 9657892.827029764652252 ], [ 174061.056308052473469, 9657950.278046818450093 ], [ 174362.760828716651304, 9658115.698586106300354 ], [ 174413.950316299131373, 9658142.689472682774067 ], [ 174413.41976316520595, 9658142.15891988016665 ], [ 174462.333955924637849, 9658106.499512866139412 ], [ 174462.333955904934555, 9658103.680520292371511 ], [ 174466.092612772306893, 9658103.680520292371511 ], [ 174473.646372544491896, 9658097.805439157411456 ], [ 174482.046897244639695, 9658093.282269423827529 ], [ 174504.320511245226953, 9658076.458617893978953 ], [ 174505.070907715533394, 9658076.458617893978953 ], [ 174546.41756700235419, 9658055.785169268026948 ], [ 174546.752008395735174, 9658055.785169268026948 ], [ 174633.060817381250672, 9658069.85723134689033 ], [ 174645.285390189150348, 9658071.737861217930913 ], [ 174657.724961621192051, 9658073.651688180863857 ], [ 174669.292871871264651, 9658072.687736546620727 ], [ 174681.134510242874967, 9658070.865901527926326 ], [ 174682.901392346830107, 9658069.982497941702604 ], [ 174782.656638691434637, 9657838.475150538608432 ], [ 174861.983459151117131, 9657638.878580633550882 ], [ 174880.996945875667734, 9657654.098512558266521 ], [ 174888.019049458263908, 9657629.130746619775891 ], [ 174887.455509994266322, 9657629.694314736872911 ], [ 174893.657273566059303, 9657602.818954339250922 ], [ 174896.476505059370538, 9657583.08528939448297 ], [ 174896.16326596858562, 9657583.398528479039669 ], [ 174899.295497482031351, 9657550.195847814902663 ], [ 174899.295497376908315, 9657535.16050379909575 ], [ 174900.235161507269368, 9657522.944391384720802 ], [ 174878.864896821876755, 9657517.601825371384621 ], [ 174879.044294741732301, 9657515.525925735011697 ], [ 174927.523191907705041, 9657519.2986412756145 ], [ 174932.341045973967994, 9657452.812936736270785 ], [ 174936.1047802628309, 9657399.17756556160748 ], [ 174937.976642139314208, 9657355.192494451999664 ], [ 174945.411510068952339, 9657304.077510515227914 ], [ 174951.147373458225047, 9657284.001867163926363 ], [ 174951.147373450367013, 9657282.880212251096964 ], [ 174982.974397402053, 9657233.775364521890879 ], [ 174983.256446515384596, 9657233.493387127295136 ], [ 175094.617000068043126, 9657154.886037366464734 ], [ 175175.053581756917993, 9657105.314806155860424 ], [ 175199.459194897004636, 9657094.050291666761041 ], [ 175208.921856261178618, 9657088.372887495905161 ], [ 175210.241511972970329, 9657087.713059656322002 ], [ 175231.705394629127113, 9657081.452732279896736 ], [ 175279.31450603416306, 9657081.452732279896736 ], [ 175532.840636266919319, 9657140.608819622546434 ], [ 175568.417378037731396, 9657143.493565622717142 ], [ 175596.314933000598103, 9657140.607518943026662 ], [ 175656.858643417945132, 9657129.255784049630165 ], [ 175683.692739468882792, 9657121.788846516981721 ], [ 175807.554056161490735, 9657139.552709601819515 ], [ 175755.839890310628107, 9657101.712959948927164 ], [ 175769.331541134219151, 9657097.958731980994344 ], [ 175726.401894752401859, 9656836.564569294452667 ], [ 175726.401894746784819, 9656835.761114759370685 ], [ 175683.175665090180701, 9656433.568351494148374 ], [ 175683.175665002607275, 9656421.044770438224077 ], [ 175674.557172895350959, 9656384.656178927049041 ], [ 175670.019409683998674, 9656369.228431014344096 ], [ 175670.019409578235354, 9656354.104462021961808 ], [ 175664.381424156454159, 9656337.190028626471758 ], [ 175664.381424019054975, 9656317.537503093481064 ], [ 175666.260991294286214, 9656297.803838146850467 ], [ 175666.260991289600497, 9656297.134278694167733 ], [ 175670.941680742951576, 9656274.667397717013955 ], [ 175671.901689800608438, 9656247.779080495238304 ], [ 175670.947938804631121, 9656217.249836634844542 ], [ 175667.081087339873193, 9656192.117762224748731 ], [ 175661.442893702391302, 9656175.203182140365243 ], [ 175659.48456194170285, 9656162.471909649670124 ], [ 175649.299327305139741, 9656145.157374087721109 ], [ 175628.935961140930885, 9656124.793762033805251 ], [ 175614.128662373201223, 9656112.948074046522379 ], [ 175598.619016103300964, 9656106.162434533238411 ], [ 175597.356325439846842, 9656105.531330039724708 ], [ 175588.265514163125772, 9656097.955236794427037 ], [ 175588.265514162194449, 9656097.821708504110575 ], [ 175573.23016959236702, 9656075.268573028966784 ], [ 175573.230169589223806, 9656074.819951314479113 ], [ 175565.286527963733533, 9656055.952793167904019 ], [ 175554.827967964927666, 9656034.085181675851345 ], [ 175542.441868103982415, 9656012.17120174318552 ], [ 175534.670356050948612, 9656000.514181155711412 ], [ 175524.023071976116626, 9655987.930826298892498 ], [ 175523.49852235490107, 9655987.406410068273544 ], [ 175515.041634386143414, 9655970.49311276525259 ], [ 175514.217820359655889, 9655969.668670061975718 ], [ 175507.03763542464003, 9655952.616359278559685 ], [ 175495.616617167688673, 9655927.870377035811543 ], [ 175486.668366247729864, 9655912.95696322247386 ], [ 175473.191276492667384, 9655900.442243378609419 ], [ 175460.094505887973355, 9655885.474336149170995 ], [ 175459.720985063409898, 9655885.101005278527737 ], [ 175455.167040860280395, 9655874.171400707215071 ], [ 175441.445295132260071, 9655855.54921024478972 ], [ 175438.388446160155581, 9655852.492407107725739 ], [ 175435.237498036585748, 9657081.337445851415396 ], [ 175435.213304595818045, 9657081.337396679446101 ], [ 175436.160966736730188, 9656486.178874215111136 ], [ 174745.626334997126833, 9656484.284239169210196 ], [ 174601.548552031046711, 9656513.738519018515944 ], [ 174595.780764491704758, 9656504.221014022827148 ], [ 174577.717533225484658, 9656518.610370060428977 ], [ 174524.150089760456467, 9656529.561333062127233 ], [ 174500.861324704921572, 9656501.135272292420268 ], [ 174500.861324753379449, 9656508.06577917560935 ], [ 173666.386456175823696, 9656508.065779177471995 ], [ 173670.66341144987382, 9656540.652659844607115 ], [ 173689.730222446494736, 9656560.292908988893032 ], [ 173570.720585703995312, 9656559.941862344741821 ], [ 173566.910503379214788, 9656534.883220029994845 ], [ 173567.146711766952649, 9656534.875780694186687 ], [ 173562.245959528081585, 9656508.065779177471995 ], [ 173402.750042926869355, 9656508.065779177471995 ], [ 173325.994213395693805, 9656508.065779177471995 ], [ 172859.201137885189382, 9656508.065779177471995 ], [ 172859.201134541275678, 9656029.805788477882743 ], [ 172804.328306690964382, 9656383.049978107213974 ], [ 172802.69625856494531, 9656384.273962296545506 ], [ 172800.939584880543407, 9656384.175726793706417 ], [ 172800.939589606976369, 9657060.170116042718291 ], [ 172837.879241795511916, 9657047.856839315965772 ], [ 172963.861135072540492, 9656993.327489383518696 ], [ 173070.680817242420744, 9656953.03580573387444 ], [ 173146.234414350881707, 9656936.246038859710097 ], [ 173249.224226936406922, 9656933.437342755496502 ] ], [ [ 174356.944548342202324, 9657253.451872605830431 ], [ 174357.623273159668315, 9657253.791321311146021 ], [ 174433.915055525372736, 9657296.686259802430868 ], [ 174397.859812003589468, 9657282.351006336510181 ], [ 174396.998515068728011, 9657282.351006336510181 ], [ 174339.275194349727826, 9657253.967777870595455 ], [ 174356.944548342202324, 9657253.451872605830431 ] ], [ [ 173549.882240875333082, 9657897.885698214173317 ], [ 173533.907471344515216, 9657914.800370596349239 ], [ 173514.174044998711906, 9657941.111923865973949 ], [ 173514.337211463018321, 9657941.438360553234816 ], [ 173511.696490271773655, 9657944.833765337243676 ], [ 173466.805175109213451, 9657867.449912382289767 ], [ 173531.578117251367075, 9657850.853525480255485 ], [ 173558.727135681430809, 9657889.04096425883472 ], [ 173549.882240875333082, 9657897.885698214173317 ] ] ], [ [ [ 176200.402906366885873, 9656806.307060366496444 ], [ 175925.51677054647007, 9657137.118454718962312 ], [ 175924.562225227506133, 9657138.073000019416213 ], [ 175889.438048835698282, 9657151.296295683830976 ], [ 176708.870976023201365, 9657268.817203057929873 ], [ 176476.351420730876271, 9657076.231631398200989 ], [ 176475.477905582869425, 9657074.484712239354849 ], [ 176476.431532276852522, 9656942.878769509494305 ], [ 176200.402906366885873, 9656806.307060366496444 ] ] ], [ [ [ 173174.300242937839357, 9657077.976942433044314 ], [ 173311.538960722915363, 9657073.538276238366961 ], [ 173268.926653431379236, 9657035.284117108210921 ], [ 173171.077535456075566, 9657058.016810968518257 ], [ 173174.300242937839357, 9657077.976942433044314 ] ] ], [ [ [ 177502.878491300041787, 9656685.442917378619313 ], [ 177501.986139570159139, 9656685.442917378619313 ], [ 177170.07103554380592, 9656595.601094610989094 ], [ 177170.050723194814054, 9656595.793337257578969 ], [ 177121.510816666064784, 9656582.631999850273132 ], [ 177121.511290162190562, 9656582.457082828506827 ], [ 177121.489216210931772, 9656582.451107915490866 ], [ 177121.488548857130809, 9656582.625962052494287 ], [ 177121.090517916192766, 9656582.518038081005216 ], [ 177120.296664266992593, 9656894.913019241765141 ], [ 177118.648285960662179, 9657326.80652191862464 ], [ 177119.197956300427904, 9657327.273385502398014 ], [ 177119.196960950561333, 9657327.665072685107589 ], [ 177119.493914950289764, 9657327.707661043852568 ], [ 177119.49440892713028, 9657327.52517812512815 ], [ 177483.701569714292418, 9657636.865246679633856 ], [ 177634.985416047857143, 9657561.699040934443474 ], [ 177636.206905114231631, 9657561.699040934443474 ], [ 177852.053932112787152, 9657517.570404414087534 ], [ 177853.22683156534913, 9657155.581327885389328 ], [ 177853.274328782892553, 9657133.494150595739484 ], [ 177853.293152196449228, 9657135.112954437732697 ], [ 177854.356718209310202, 9656806.867188800126314 ], [ 177859.167468160681892, 9656542.026075832545757 ], [ 177854.003300175274489, 9656546.27891500480473 ], [ 177847.410046378936386, 9656629.16889276355505 ], [ 177847.521378194127465, 9656638.743371367454529 ], [ 177720.889156562072458, 9656655.902197171002626 ], [ 177720.80468563886825, 9656655.97176137752831 ], [ 177640.948132962686941, 9656666.979055691510439 ], [ 177641.235294511017855, 9656666.695395978167653 ], [ 177502.878491300041787, 9656685.442917378619313 ] ] ], [ [ [ 173401.008430269168457, 9657154.835561316460371 ], [ 173472.535117083083605, 9657121.294709986075759 ], [ 173401.142991172528127, 9657114.976918183267117 ], [ 173401.008430269168457, 9657154.835561316460371 ] ] ], [ [ [ 177020.690754576702602, 9657420.041780455037951 ], [ 177002.593464453530032, 9657421.743721501901746 ], [ 177288.119068035943201, 9657659.368652708828449 ], [ 177328.820902780629694, 9657675.649536667391658 ], [ 177020.690754576702602, 9657420.041780455037951 ] ] ], [ [ [ 174943.461148170084925, 9657350.978914052248001 ], [ 174943.461148202914046, 9657355.677235007286072 ], [ 174942.521484033117304, 9657362.255362305790186 ], [ 174942.521484190801857, 9657384.808019822463393 ], [ 174941.581819974526297, 9657384.808019822463393 ], [ 174939.389274499553721, 9657424.901949809864163 ], [ 174938.762588622659678, 9657425.21525289863348 ], [ 174937.823163578956155, 9657452.466709315776825 ], [ 174936.883021449641092, 9657459.984261872246861 ], [ 174937.641960332286544, 9657459.225419502705336 ], [ 174934.064029038476292, 9657493.813606573268771 ], [ 174935.003693256498082, 9657493.813606573268771 ], [ 174933.494497357110959, 9657515.697716418653727 ], [ 174936.837412562221289, 9657516.028366710990667 ], [ 174919.671221799653722, 9657644.774158583953977 ], [ 174919.671221801749198, 9657645.076633688062429 ], [ 174907.489554538653465, 9657675.305338332429528 ], [ 174913.390461650094949, 9657680.028901444748044 ], [ 174913.390461695002159, 9657686.45313011854887 ], [ 174909.632043783931294, 9657682.693756254389882 ], [ 174888.958475438907044, 9657733.437773397192359 ], [ 174873.923131294432096, 9657771.965678077191114 ], [ 174823.183473134267842, 9657886.599772648885846 ], [ 174801.565880968992133, 9657933.594371344894171 ], [ 174801.56588098211796, 9657935.474058238789439 ], [ 174799.68679155225982, 9657938.292931279167533 ], [ 174790.289671586913755, 9657962.725156161934137 ], [ 174788.41034317901358, 9657965.544148728251457 ], [ 174779.952887408056995, 9657986.217716852203012 ], [ 174780.892551634082338, 9657988.097045224159956 ], [ 174778.073559010023018, 9657990.916276779025793 ], [ 174770.462450955645181, 9658008.67466845177114 ], [ 174790.380290964298183, 9658015.645988224074244 ], [ 174790.891791679110611, 9658015.645988224074244 ], [ 174839.553726718149846, 9658042.272357827052474 ], [ 174864.057165782724041, 9658055.99434807524085 ], [ 174880.429728442104533, 9658056.738521035760641 ], [ 174872.666640300216386, 9658273.39806623570621 ], [ 174890.13686568805133, 9658264.66295375674963 ], [ 174891.596080500108656, 9658264.66295375674963 ], [ 176386.864746537234168, 9658373.477971704676747 ], [ 176388.333962665084982, 9658375.681749107316136 ], [ 176321.386841809406178, 9659434.579169005155563 ], [ 177837.084893561055651, 9659438.363770198076963 ], [ 177841.81279007345438, 9657671.945163827389479 ], [ 177620.896498215326574, 9657714.578144265338778 ], [ 177542.463875197252491, 9657755.265135031193495 ], [ 177528.58256338670617, 9657769.146446522325277 ], [ 177527.642899210157339, 9657774.784670641645789 ], [ 177528.179826780222356, 9657774.784670641645789 ], [ 177522.004906242567813, 9657818.010999834164977 ], [ 177521.065249994018814, 9657818.950679961591959 ], [ 177514.529126567824278, 9657867.969529155641794 ], [ 177513.547458654502407, 9657868.754913400858641 ], [ 177510.893811298825312, 9657891.639413893222809 ], [ 177507.908995682984823, 9657911.041474845260382 ], [ 177514.72145294182701, 9657904.229017728939652 ], [ 177501.331346457940526, 9657953.328155780211091 ], [ 177499.452107689226978, 9657968.362783286720514 ], [ 177470.321472802810604, 9658160.062522694468498 ], [ 177464.123006200679811, 9658207.019300939515233 ], [ 177455.200453188910615, 9658266.505257949233055 ], [ 177454.346225962945027, 9658267.188661439344287 ], [ 177447.455726694082841, 9658318.869597766548395 ], [ 177426.155344904633239, 9658458.88792297616601 ], [ 177426.417794138833415, 9658458.677956914529204 ], [ 177415.323500349739334, 9658529.996259050443769 ], [ 177408.300769260444213, 9658525.606828996911645 ], [ 177408.079685029224493, 9658525.938483444973826 ], [ 177381.989215176989092, 9658509.631940316408873 ], [ 177381.445000458334107, 9658510.176178090274334 ], [ 177350.583362217817921, 9658492.173120308667421 ], [ 177350.978862014482729, 9658491.777603756636381 ], [ 177328.425964787660632, 9658478.621707631275058 ], [ 177328.191058939963114, 9658478.856633387506008 ], [ 177301.174746424920158, 9658462.646818917244673 ], [ 177301.024240302649559, 9658462.872530257329345 ], [ 177270.708349220862146, 9658445.188207484781742 ], [ 177271.104057543794625, 9658444.792482392862439 ], [ 177243.394997075578431, 9658429.275335740298033 ], [ 177243.852839212748222, 9658428.817474205046892 ], [ 177221.299942005221965, 9658415.661697583273053 ], [ 177189.943288297654362, 9658398.327418485656381 ], [ 177190.290066767018288, 9658397.80736100487411 ], [ 177163.582502451172331, 9658382.227901812642813 ], [ 177163.978034694300732, 9658381.832352813333273 ], [ 177141.42513746212353, 9658368.676576176658273 ], [ 177140.881131266010925, 9658369.220605416223407 ], [ 177110.019252074474934, 9658351.217788621783257 ], [ 177110.41478431437281, 9658350.822239624336362 ], [ 177002.893488790665288, 9658288.257810464128852 ], [ 177003.289239487581654, 9658287.862110087648034 ], [ 176980.736342225660337, 9658274.706333434209228 ], [ 176980.501319383329246, 9658274.941356271505356 ], [ 176953.484645977208856, 9658258.731325270608068 ], [ 176953.334301234048326, 9658258.956851944327354 ], [ 176923.018684218637645, 9658241.272689048200846 ], [ 176923.414434921636712, 9658240.876988673582673 ], [ 176899.921873440383933, 9658227.721212016418576 ], [ 176899.700651927298168, 9658228.052959898486733 ], [ 176873.609841428580694, 9658211.746203860267997 ], [ 176842.142124105332186, 9658194.349728845059872 ], [ 176842.599966240959475, 9658193.891867311671376 ], [ 176828.504524961754214, 9658185.43453112244606 ], [ 176832.733024009387009, 9658161.472140040248632 ], [ 176833.202845875814091, 9658161.002306237816811 ], [ 176855.322165620018495, 9658054.309721933677793 ], [ 176855.755742251029005, 9658053.876167362555861 ], [ 176856.736366575030843, 9658047.380201952531934 ], [ 176854.816077964496799, 9658043.53950279019773 ], [ 176837.901644066907465, 9658035.082166621461511 ], [ 176837.703728994645644, 9658035.280056528747082 ], [ 176808.771575554797892, 9658021.92671182192862 ], [ 176780.579258866724558, 9658007.830829674378037 ], [ 176780.381517683970742, 9658008.028579235076904 ], [ 176746.948219684592914, 9657992.597776491194963 ], [ 176747.690055221348302, 9657991.855940969660878 ], [ 176723.257829585083527, 9657980.579492725431919 ], [ 176722.944443420157768, 9657980.892892170697451 ], [ 176690.368147946428508, 9657964.604484526440501 ], [ 176665.93592230201466, 9657953.328155763447285 ], [ 176665.62258582591312, 9657953.64143910817802 ], [ 176633.046240757626947, 9657937.353267084807158 ], [ 176603.470560800022213, 9657923.70276453346014 ], [ 176603.915694020484807, 9657923.257706781849265 ], [ 176579.477253841439961, 9657911.978270754218102 ], [ 176551.292107879678952, 9657897.885698217898607 ], [ 176551.104176407447085, 9657898.073629686608911 ], [ 176522.537560563388979, 9657884.918016854673624 ], [ 176469.760354332509451, 9657846.449104079976678 ], [ 176449.50745304179145, 9657823.945976620540023 ], [ 176449.804309263447067, 9657823.649120405316353 ], [ 176427.828504393430194, 9657800.516741488128901 ], [ 176412.216067431174451, 9657782.302342645823956 ], [ 176411.573181982239475, 9657782.945228081196547 ], [ 176388.426909515983425, 9657757.22693046182394 ], [ 176388.72122932045022, 9657756.932610662654042 ], [ 176366.079246086301282, 9657733.127400094643235 ], [ 176348.019573721627239, 9657713.060928082093596 ], [ 176348.314017241937108, 9657712.766459608450532 ], [ 176325.671414813259616, 9657688.960636056959629 ], [ 176297.572491465776693, 9657658.261531393975019 ], [ 176253.908280665054917, 9657640.403021590784192 ], [ 176225.215239820652641, 9657629.130746582522988 ], [ 176224.931602741562529, 9657629.556238263845444 ], [ 176171.652228475752054, 9657608.457417441532016 ], [ 176161.315443536499515, 9657524.823719725012779 ], [ 176154.93043151195161, 9657482.157632153481245 ], [ 176155.677218949276721, 9657481.597494112327695 ], [ 176149.596748912095791, 9657440.248445246368647 ], [ 176141.581776985898614, 9657374.471474738791585 ], [ 176137.822880960913608, 9657348.159682502970099 ], [ 176134.064224065019516, 9657345.340450944378972 ], [ 176118.715538806776749, 9657347.533598149195313 ], [ 176119.968782864423702, 9657346.280354117974639 ], [ 176073.110540605994174, 9657350.851981975138187 ], [ 176073.92332440710743, 9657350.039249865338206 ], [ 176027.064989138540113, 9657354.610596148297191 ], [ 176027.877627014706377, 9657353.797906618565321 ], [ 175981.139928569027688, 9657358.249237159267068 ], [ 175981.832407398236683, 9657357.556802377104759 ], [ 175935.09462085578707, 9657362.007831357419491 ], [ 175935.786949079745682, 9657361.315459128469229 ], [ 175896.319379121181555, 9657364.134690681472421 ], [ 175895.813478906697128, 9657364.640623053535819 ], [ 175850.273920656443806, 9657367.893586423248053 ], [ 175849.768224772735266, 9657368.399282295256853 ], [ 175804.228701188258128, 9657371.652243189513683 ], [ 175803.722469373315107, 9657372.158474992960691 ], [ 175758.183242744707968, 9657375.411138931289315 ], [ 175757.677230821194826, 9657375.917118676006794 ], [ 175712.137545338599011, 9657379.169795697554946 ], [ 175711.717024601064622, 9657379.590396650135517 ], [ 175620.046867390628904, 9657386.687587179243565 ], [ 175619.626536804134957, 9657387.107917757704854 ], [ 175574.001647927274462, 9657390.446482928469777 ], [ 175573.567944030161016, 9657390.880159242078662 ], [ 175527.016525260376511, 9657394.205139689147472 ], [ 175526.510590403107926, 9657394.711074536666274 ], [ 175480.971066825761227, 9657397.964035427197814 ], [ 175480.43406220342149, 9657398.500971768051386 ], [ 175446.202056918351445, 9657400.783028000965714 ], [ 175443.383064299938269, 9657405.481587937101722 ], [ 175463.11673026176868, 9657455.799091575667262 ], [ 175476.02617408518563, 9657487.485635463148355 ], [ 175485.669388714857632, 9657514.487174684181809 ], [ 175427.803335905307904, 9657530.066452652215958 ], [ 175428.347481030243216, 9657529.522279882803559 ], [ 175379.483269716467476, 9657541.738392135128379 ], [ 175378.592683304857928, 9657542.628933236002922 ], [ 175320.082786523475079, 9657557.542768320068717 ], [ 175291.868348343443358, 9657539.141926279291511 ], [ 175292.090912797750207, 9657538.919399559497833 ], [ 175265.489950316783506, 9657522.29365760833025 ], [ 175265.778880738129374, 9657522.004727194085717 ], [ 175244.165886704198783, 9657507.909286368638277 ], [ 175243.790068809292279, 9657508.285104256123304 ], [ 175217.85433260674472, 9657490.994614012539387 ], [ 175217.588594992965227, 9657491.39316974952817 ], [ 175188.500845400849357, 9657472.423094665631652 ], [ 175188.723546886845725, 9657472.200374299660325 ], [ 175162.190766279061791, 9657455.617527527734637 ], [ 175162.411992738227127, 9657455.285701904445887 ], [ 175140.798759680066723, 9657441.190261051058769 ], [ 175140.509699630667455, 9657441.479345597326756 ], [ 175110.507265151914908, 9657422.727784920483828 ], [ 175110.728309684403939, 9657422.396260289475322 ], [ 175085.133845264732372, 9657405.703923512250185 ], [ 175085.356180845905328, 9657405.481587937101722 ], [ 175062.803283620334696, 9657391.386147117242217 ], [ 175062.537641967472155, 9657391.784609587863088 ], [ 175036.93772194054327, 9657375.08918240852654 ], [ 175007.360704822698608, 9657364.134690683335066 ], [ 175008.30084702509339, 9657367.893586428835988 ], [ 175010.180175489629619, 9657372.59214636310935 ], [ 175015.818160922499374, 9657390.446482928469777 ], [ 175028.825776247686008, 9657426.303043432533741 ], [ 175028.372855584981153, 9657426.755956141278148 ], [ 175029.58292229383369, 9657429.867687998339534 ], [ 175014.580439560173545, 9657423.74423061311245 ], [ 175005.481376640673261, 9657397.964035466313362 ], [ 174992.729885678243591, 9657363.063986269757152 ], [ 174990.446270916901994, 9657358.496466562151909 ], [ 174970.842945206415607, 9657350.424457412213087 ], [ 174946.280379732808797, 9657341.581794187426567 ], [ 174944.400812332751229, 9657343.461361546069384 ], [ 174943.461148170084925, 9657350.978914052248001 ] ], [ [ 174966.953712155693211, 9657728.739213451743126 ], [ 174966.196379471279215, 9657728.156657844781876 ], [ 174967.856826562783681, 9657723.628183266147971 ], [ 174972.324636555975303, 9657727.204579586163163 ], [ 174970.235691064241109, 9657733.199973035603762 ], [ 174966.114248289726675, 9657731.139775805175304 ], [ 174966.953712155693211, 9657728.739213451743126 ] ] ], [ [ [ 173072.478709149581846, 9658463.175625719130039 ], [ 172952.793562386272242, 9658390.898134116083384 ], [ 172800.939599751902279, 9658511.144670106470585 ], [ 172800.939600847661495, 9658667.866909082978964 ], [ 172925.7580571899598, 9658498.939982229843736 ], [ 172927.123837446531979, 9658498.939982229843736 ], [ 172995.783286773541477, 9658583.071807254105806 ], [ 173069.809603084402625, 9658468.136121582239866 ], [ 173072.478709149581846, 9658463.175625719130039 ] ] ], [ [ [ 173084.729817716433899, 9658572.591950392350554 ], [ 173342.316568546899362, 9658856.894269086420536 ], [ 173578.156114847282879, 9658799.171306556090713 ], [ 174128.658794821210904, 9658699.682903556153178 ], [ 174075.611305001017172, 9658340.887554455548525 ], [ 173290.285828494117595, 9658398.604316415265203 ], [ 173123.49878308956977, 9658469.965820563957095 ], [ 173117.317093006306095, 9658478.348704708740115 ], [ 173116.679834309295984, 9658478.621827144175768 ], [ 173065.935577282245504, 9658547.220061328262091 ], [ 173065.935577288793866, 9658548.159725520759821 ], [ 173078.151690153259551, 9658560.375837951898575 ], [ 173086.080731568072224, 9658569.890122726559639 ], [ 173084.729817716433899, 9658572.591950392350554 ] ] ] ] } }
]
}
