{
"type": "FeatureCollection",
"name": "p15_auxiliares_aeis_sem_id",
"crs": { "type": "name", "properties": { "name": "urn:ogc:def:crs:OGC:1.3:CRS84" } },
"features": [
{ "type": "Feature", "properties": { "id": 1, "pagina": 15, "classe": "AEIS - simbolo sem identificacao nominal inequivoca", "rotulo": "AEIS - simbolo sem identificacao nominal inequivoca", "seq_pdf": "339", "metodo": "CONTORNO_PDF", "situacao": "DERIV_PDF", "recortado": 1, "area_m2": 434874.047, "area_ha": 43.487405, "id_layer": "p15_auxiliares_aeis_sem_id", "doc_fonte": "Resposta SECT_autos.pdf", "doc_pagina": 15, "doc_folha": 108, "doc_escala": "1:15.000", "doc_metodo": "Reconstituição Vetorial Afim", "doc_rms_m": 0.68 }, "geometry": { "type": "Polygon", "coordinates": [ [ [ -59.938850831852072, -3.082239994406445 ], [ -59.943386908526399, -3.081099866169602 ], [ -59.943378743665058, -3.078128541439857 ], [ -59.942668533612206, -3.076158704575825 ], [ -59.937118464679322, -3.0761740810743 ], [ -59.936897214762226, -3.076960724129522 ], [ -59.936855421068131, -3.077113612066379 ], [ -59.936730081619046, -3.077554960032321 ], [ -59.936655913417525, -3.077803479223045 ], [ -59.936651453773607, -3.077803491571416 ], [ -59.936525554194262, -3.07809251209107 ], [ -59.936520271990915, -3.078092526717755 ], [ -59.936385791638195, -3.078330629319962 ], [ -59.936379343702768, -3.078330647175137 ], [ -59.936278412549889, -3.078483753482509 ], [ -59.936272142000526, -3.078483770846704 ], [ -59.936167148752844, -3.078618866115454 ], [ -59.936046485897464, -3.078756087163388 ], [ -59.936041088123034, -3.078756102110861 ], [ -59.93584508295082, -3.078932217628631 ], [ -59.936313736776931, -3.079499808752962 ], [ -59.93670484292084, -3.079924804618563 ], [ -59.937090548776538, -3.080310408557932 ], [ -59.937090569505138, -3.080317966496918 ], [ -59.938347262072313, -3.081668319599305 ], [ -59.938850831852072, -3.082239994406445 ] ] ] } },
{ "type": "Feature", "properties": { "id": 2, "pagina": 15, "classe": "AEIS - simbolo sem identificacao nominal inequivoca", "rotulo": "AEIS - simbolo sem identificacao nominal inequivoca", "seq_pdf": "342", "metodo": "CONTORNO_PDF", "situacao": "DERIV_PDF", "recortado": 1, "area_m2": 30446.127, "area_ha": 3.044613, "id_layer": "p15_auxiliares_aeis_sem_id", "doc_fonte": "Resposta SECT_autos.pdf", "doc_pagina": 15, "doc_folha": 108, "doc_escala": "1:15.000", "doc_metodo": "Reconstituição Vetorial Afim", "doc_rms_m": 0.68 }, "geometry": { "type": "Polygon", "coordinates": [ [ [ -59.930597574123396, -3.096799846515157 ], [ -59.929812704706997, -3.096279848165881 ], [ -59.928213565058634, -3.095214561753995 ], [ -59.927486494896847, -3.094727355068516 ], [ -59.927107901111548, -3.094665004076623 ], [ -59.927341284360374, -3.095647594839758 ], [ -59.929432559760457, -3.096828921494005 ], [ -59.930597574123396, -3.096799846515157 ] ] ] } },
{ "type": "Feature", "properties": { "id": 3, "pagina": 15, "classe": "AEIS - simbolo sem identificacao nominal inequivoca", "rotulo": "AEIS - simbolo sem identificacao nominal inequivoca", "seq_pdf": "353", "metodo": "CONTORNO_PDF", "situacao": "DERIV_PDF", "recortado": 1, "area_m2": 113481.455, "area_ha": 11.348146, "id_layer": "p15_auxiliares_aeis_sem_id", "doc_fonte": "Resposta SECT_autos.pdf", "doc_pagina": 15, "doc_folha": 108, "doc_escala": "1:15.000", "doc_metodo": "Reconstituição Vetorial Afim", "doc_rms_m": 0.68 }, "geometry": { "type": "MultiPolygon", "coordinates": [ [ [ [ -59.943373329776236, -3.076156749858479 ], [ -59.942665643823922, -3.076158712589546 ], [ -59.943378761829116, -3.078135154835321 ], [ -59.943373329776236, -3.076156749858479 ] ] ], [ [ [ -59.943372698923227, -3.082857103809268 ], [ -59.943378790585591, -3.082857086875647 ], [ -59.943391734283331, -3.082854683897364 ], [ -59.943386913621509, -3.081101719462089 ], [ -59.938849971604959, -3.082238220243096 ], [ -59.939448071359912, -3.082920345498712 ], [ -59.940041962885189, -3.083649696594225 ], [ -59.940302385591096, -3.083919021098982 ], [ -59.940860243680682, -3.083899945422361 ], [ -59.941005731360868, -3.083908142479456 ], [ -59.941150544090711, -3.083890608478489 ], [ -59.941150572412994, -3.083890608399791 ], [ -59.941226683476472, -3.083911247179714 ], [ -59.941233282857212, -3.083917845551034 ], [ -59.941317836635612, -3.083951572136234 ], [ -59.94132273762564, -3.083956471752199 ], [ -59.941440059738774, -3.084037642187085 ], [ -59.941520865644712, -3.084069875448166 ], [ -59.941526044733777, -3.08407504979116 ], [ -59.941603413505071, -3.084126590720997 ], [ -59.941671930272818, -3.084186525111435 ], [ -59.941757950890434, -3.084238083991617 ], [ -59.941827042194269, -3.084289877874158 ], [ -59.941900647617402, -3.084178225842346 ], [ -59.941906017469542, -3.084172797800322 ], [ -59.941954843371391, -3.084123440707953 ], [ -59.941983141980323, -3.084100552685057 ], [ -59.941986576312758, -3.084100543138976 ], [ -59.942070918546449, -3.084057856666865 ], [ -59.942084569705443, -3.084057818721381 ], [ -59.942224541149919, -3.084066221874903 ], [ -59.942311788218284, -3.084046475712041 ], [ -59.942360700583293, -3.084021720644507 ], [ -59.942383263543263, -3.083987491965141 ], [ -59.942411243353874, -3.083949777592179 ], [ -59.942428853636699, -3.083905149132482 ], [ -59.942454076567969, -3.08386262974269 ], [ -59.942490993254488, -3.08376909840396 ], [ -59.942498120050423, -3.083710495745965 ], [ -59.942503240000988, -3.083705317017457 ], [ -59.942536743140252, -3.08360334831593 ], [ -59.94254094083454, -3.083599105670279 ], [ -59.942580871199723, -3.083538529267117 ], [ -59.9425840318765, -3.083538520481496 ], [ -59.942817826068541, -3.083302187973071 ], [ -59.942929843164258, -3.083154091233728 ], [ -59.942978697958608, -3.083079978088548 ], [ -59.943097906082457, -3.082959476858236 ], [ -59.943097894870462, -3.082955400669029 ], [ -59.943135844085099, -3.082927992750888 ], [ -59.943145781619194, -3.082922962620035 ], [ -59.943234858770651, -3.082898275382473 ], [ -59.943372698923227, -3.082857103809268 ] ] ] ] } }
]
}
