{
"type": "FeatureCollection",
"name": "p15_rvs_sauim_21s",
"crs": { "type": "name", "properties": { "name": "urn:ogc:def:crs:EPSG::31981" } },
"features": [
{ "type": "Feature", "properties": { "id": 1, "pagina": 15, "classe": "RVS Sauim Castanheiras", "rotulo": "RVS Sauim Castanheiras", "seq_pdf": "936", "metodo": "CONTORNO_PDF", "situacao": "DERIV_PDF", "recortado": 1, "area_m2": 954507.216, "area_ha": 95.450722, "documento": "Resposta SECT_autos.pdf", "origem": "RVS Sauim Castanheiras" }, "geometry": { "type": "Polygon", "coordinates": [ [ [ 173849.949441577278776, 9657781.880908673629165 ], [ 173850.624927376280539, 9657781.205422889441252 ], [ 173968.757773110293783, 9657892.827029764652252 ], [ 174061.056308052473469, 9657950.278046818450093 ], [ 174362.760828716651304, 9658115.698586106300354 ], [ 174415.530974870140199, 9658143.522912871092558 ], [ 174504.320511245226953, 9658076.458617893978953 ], [ 174505.070907715533394, 9658076.458617893978953 ], [ 174546.41756700235419, 9658055.785169268026948 ], [ 174546.752008395735174, 9658055.785169268026948 ], [ 174633.060817381250672, 9658069.85723134689033 ], [ 174645.285390189150348, 9658071.737861217930913 ], [ 174657.724961621192051, 9658073.651688180863857 ], [ 174669.292871871264651, 9658072.687736546620727 ], [ 174682.619160638772883, 9658070.637488195672631 ], [ 174782.656638691434637, 9657838.475150538608432 ], [ 174870.162764224834973, 9657618.298388116061687 ], [ 174890.081333761278074, 9657387.811037488281727 ], [ 174793.342066075449111, 9657377.27525882422924 ], [ 174553.974272920313524, 9657344.420767856761813 ], [ 174397.859812003589468, 9657282.351006336510181 ], [ 174396.998515068728011, 9657282.351006336510181 ], [ 174227.316191965073813, 9657198.916233642026782 ], [ 174052.134104480966926, 9657111.325432177633047 ], [ 174051.233175185363507, 9657111.325432177633047 ], [ 173975.597363960026996, 9657069.817644277587533 ], [ 173975.597363955923356, 9657069.231709655374289 ], [ 173761.743905936396914, 9656849.725985681638122 ], [ 173566.940314938081428, 9656649.164890952408314 ], [ 173590.26015248184558, 9656820.176689913496375 ], [ 173590.260152487375308, 9656820.966851782053709 ], [ 173584.623617584933527, 9657090.59217744320631 ], [ 173577.03851501038298, 9657194.884813209995627 ], [ 173618.130340051837265, 9657229.287507597357035 ], [ 173618.646439214382553, 9657229.803344363346696 ], [ 173631.678470626560738, 9657279.139227353036404 ], [ 173689.034732271626126, 9657470.953255746513605 ], [ 173768.086796658259118, 9657666.702002223581076 ], [ 173849.949441577278776, 9657781.880908673629165 ] ] ] } }
]
}
