{
"type": "FeatureCollection",
"name": "p15_camadas_titulo_cosme_21s",
"crs": { "type": "name", "properties": { "name": "urn:ogc:def:crs:EPSG::31981" } },
"features": [
{ "type": "Feature", "properties": { "id": 1, "pagina": 15, "classe": "Titulo Definitivo Cosme Ferreira Filho", "rotulo": "Empresa de Plantacoes I - 30/09/1931", "seq_pdf": "2281", "metodo": "CONTORNO_PDF", "situacao": "DERIV_PDF", "recortado": 1, "area_m2": 4696445.911, "area_ha": 469.644591, "id_layer": "p15_camadas_titulo_cosme", "doc_fonte": "Resposta SECT_autos.pdf", "doc_pagina": 15, "doc_folha": 108, "doc_escala": "1:15.000", "doc_metodo": "Reconstituição Vetorial Afim", "doc_rms_m": 0.68 }, "geometry": { "type": "Polygon", "coordinates": [ [ [ 174872.666640300216386, 9658273.39806623570621 ], [ 174890.13686568805133, 9658264.66295375674963 ], [ 174891.596080500108656, 9658264.66295375674963 ], [ 176386.864746537234168, 9658373.477971704676747 ], [ 176388.333962665084982, 9658375.681749107316136 ], [ 176321.386841809406178, 9659434.579169005155563 ], [ 177837.084893561055651, 9659438.363770198076963 ], [ 177841.81279007345438, 9657671.945163827389479 ], [ 177620.896498215326574, 9657714.578144265338778 ], [ 177471.379629343486158, 9657792.140148812904954 ], [ 177468.712174076703377, 9657791.695610633119941 ], [ 176972.514751971524674, 9657380.077628940343857 ], [ 176814.992119495582301, 9657356.496371362358332 ], [ 176814.333366365957772, 9657356.166994808241725 ], [ 176476.351420730876271, 9657076.231631398200989 ], [ 176475.477905582869425, 9657074.484712239354849 ], [ 176476.431532276852522, 9656942.878769509494305 ], [ 176200.402906366885873, 9656806.307060366496444 ], [ 175925.51677054647007, 9657137.118454718962312 ], [ 175924.562225227506133, 9657138.073000019416213 ], [ 175847.033078306587413, 9657167.260612020269036 ], [ 175844.815226494305534, 9657166.817064233124256 ], [ 175728.808880053518806, 9657081.934111269190907 ], [ 175263.083734928979538, 9657080.98755412735045 ], [ 174978.903898535878398, 9657309.857298918068409 ], [ 175049.354342004371574, 9657505.023757740855217 ], [ 175049.354342012054985, 9657506.124904055148363 ], [ 174883.057253303588368, 9657983.407092733308673 ], [ 174872.666640300216386, 9658273.39806623570621 ] ] ] } },
{ "type": "Feature", "properties": { "id": 2, "pagina": 15, "classe": "Titulo Definitivo Cosme Ferreira Filho", "rotulo": "2o lote - legenda compartilhada I/II", "seq_pdf": "2322", "metodo": "CONTORNO_PDF", "situacao": "DERIV_PDF", "recortado": 1, "area_m2": 642763.312, "area_ha": 64.276331, "id_layer": "p15_camadas_titulo_cosme", "doc_fonte": "Resposta SECT_autos.pdf", "doc_pagina": 15, "doc_folha": 108, "doc_escala": "1:15.000", "doc_metodo": "Reconstituição Vetorial Afim", "doc_rms_m": 0.68 }, "geometry": { "type": "Polygon", "coordinates": [ [ [ 177118.648285960662179, 9657326.80652191862464 ], [ 177483.701569714292418, 9657636.865246679633856 ], [ 177634.985416047857143, 9657561.699040934443474 ], [ 177636.206905114231631, 9657561.699040934443474 ], [ 177852.053932112787152, 9657517.570404414087534 ], [ 177854.904706460598391, 9656637.742921071127057 ], [ 177502.878491300041787, 9656685.442917378619313 ], [ 177501.986139570159139, 9656685.442917378619313 ], [ 177121.489216210931772, 9656582.451107915490866 ], [ 177118.648285960662179, 9657326.80652191862464 ] ] ] } },
{ "type": "Feature", "properties": { "id": 3, "pagina": 15, "classe": "Titulo Definitivo Cosme Ferreira Filho", "rotulo": "1o lote - legenda compartilhada I/II", "seq_pdf": "2396", "metodo": "CONTORNO_PDF", "situacao": "DERIV_PDF", "recortado": 1, "area_m2": 1975600.963, "area_ha": 197.560096, "id_layer": "p15_camadas_titulo_cosme", "doc_fonte": "Resposta SECT_autos.pdf", "doc_pagina": 15, "doc_folha": 108, "doc_escala": "1:15.000", "doc_metodo": "Reconstituição Vetorial Afim", "doc_rms_m": 0.68 }, "geometry": { "type": "Polygon", "coordinates": [ [ [ 174974.600982830743305, 9657729.026751175522804 ], [ 174980.838826739665819, 9657729.026751175522804 ], [ 175054.929766611079685, 9657515.413814697414637 ], [ 174985.43548090866534, 9657318.20032355748117 ], [ 174986.129538647044683, 9657316.465179229155183 ], [ 175273.680606516281841, 9657086.797757603228092 ], [ 175275.790053484844975, 9657086.270395873114467 ], [ 175435.205449853936443, 9657086.270395873114467 ], [ 175436.160966736730188, 9656486.178874215111136 ], [ 174745.626334997126833, 9656484.284239169210196 ], [ 174364.100119595881552, 9656562.280857989564538 ], [ 174363.672254511620849, 9656562.280857989564538 ], [ 173403.018433404387906, 9656559.447185784578323 ], [ 173398.286446243029786, 9657961.121690511703491 ], [ 173808.716699009848526, 9657962.080600926652551 ], [ 174190.567662422457943, 9657104.326188258826733 ], [ 174193.331288287678035, 9657103.635325737297535 ], [ 174974.600982830743305, 9657729.026751175522804 ] ] ] } }
]
}
