{
"type": "FeatureCollection",
"name": "p15_apoio_areas_excluidas_21s",
"crs": { "type": "name", "properties": { "name": "urn:ogc:def:crs:EPSG::31981" } },
"features": [
{ "type": "Feature", "properties": { "id": 1, "pagina": 15, "motivo": "Legenda", "id_layer": "p15_apoio_areas_excluidas", "doc_fonte": "Resposta SECT_autos.pdf", "doc_pagina": 15, "doc_folha": 108, "doc_escala": "1:15.000", "doc_metodo": "Reconstituição Vetorial Afim", "doc_rms_m": 0.68 }, "geometry": { "type": "Polygon", "coordinates": [ [ [ 172859.201137885189382, 9656508.065779177471995 ], [ 174500.861324753379449, 9656508.06577917560935 ], [ 174500.861317361879628, 9655450.900548167526722 ], [ 172859.201130493689561, 9655450.900548169389367 ], [ 172859.201137885189382, 9656508.065779177471995 ] ] ] } },
{ "type": "Feature", "properties": { "id": 2, "pagina": 15, "motivo": "Cartucho", "id_layer": "p15_apoio_areas_excluidas", "doc_fonte": "Resposta SECT_autos.pdf", "doc_pagina": 15, "doc_folha": 108, "doc_escala": "1:15.000", "doc_metodo": "Reconstituição Vetorial Afim", "doc_rms_m": 0.68 }, "geometry": { "type": "Polygon", "coordinates": [ [ [ 178514.330503360397415, 9656255.285826157778502 ], [ 178514.330497664021095, 9655440.563821461051702 ], [ 175867.188685181055916, 9655440.563821462914348 ], [ 175867.18869087746134, 9656255.285826159641147 ], [ 178514.330503360397415, 9656255.285826157778502 ] ] ] } },
{ "type": "Feature", "properties": { "id": 3, "pagina": 15, "motivo": "Escala grafica", "id_layer": "p15_apoio_areas_excluidas", "doc_fonte": "Resposta SECT_autos.pdf", "doc_pagina": 15, "doc_folha": 108, "doc_escala": "1:15.000", "doc_metodo": "Reconstituição Vetorial Afim", "doc_rms_m": 0.68 }, "geometry": { "type": "Polygon", "coordinates": [ [ [ 178519.02901730503072, 9656494.90994518622756 ], [ 178519.029016155254794, 9656330.462020363658667 ], [ 177323.101026561140316, 9656330.462020363658667 ], [ 177323.101027710916242, 9656494.909945188090205 ], [ 178519.02901730503072, 9656494.90994518622756 ] ] ] } }
]
}
