{
"type": "FeatureCollection",
"name": "p15_lim_bairros_21s",
"crs": { "type": "name", "properties": { "name": "urn:ogc:def:crs:EPSG::31981" } },
"features": [
{ "type": "Feature", "properties": { "id": 1, "pagina": 15, "classe": "Limites dos bairros de Manaus", "metodo": "CONTORNO_PDF", "comp_m": 4898.3977662359321, "origem": "Prefeitura de Manaus - GeoManaus" }, "geometry": { "type": "LineString", "coordinates": [ [ 172800.939589769783197, 9657083.45869685895741 ], [ 172832.237940863677068, 9657073.793040186166763 ], [ 172912.984106897987658, 9657041.870265858247876 ], [ 172991.990516816527816, 9657010.831914575770497 ], [ 173077.753986996394815, 9656984.443228948861361 ], [ 173147.491649164905539, 9656976.903905840590596 ], [ 173187.12908455307479, 9656973.129003530368209 ], [ 173229.694618402805645, 9656975.966577410697937 ], [ 173274.112838935456239, 9656984.472306359559298 ], [ 173321.361270024062833, 9657000.536599414423108 ], [ 173365.763764639617875, 9657023.210192522034049 ], [ 173410.154358943982515, 9657053.433467568829656 ], [ 173436.62586953752907, 9657078.014223825186491 ], [ 173463.079344059020514, 9657106.357402855530381 ], [ 173482.925534580368549, 9657134.708930853754282 ], [ 173498.022777221776778, 9657159.242129156365991 ], [ 173513.104950819571968, 9657187.521503148600459 ], [ 173526.32312366887345, 9657214.902208698913455 ], [ 173553.635116261022631, 9657291.186525546014309 ], [ 173601.573003782134037, 9657466.019008724018931 ], [ 173628.900770253705559, 9657556.483516290783882 ], [ 173628.900770259759156, 9657557.350410571321845 ], [ 173645.662456120859133, 9657601.116453861817718 ], [ 173679.644550641853129, 9657674.745122354477644 ], [ 173679.644550648023142, 9657675.624258046969771 ], [ 173708.48687228228664, 9657729.5876679494977 ], [ 173750.649804932065308, 9657789.552635427564383 ], [ 173796.600405390170636, 9657843.005299799144268 ], [ 173834.084495223651174, 9657882.363759558647871 ], [ 173892.957410952512873, 9657932.690059877932072 ], [ 173892.957410958479159, 9657933.543260296806693 ], [ 173931.612157773954095, 9657962.074277652427554 ], [ 173976.633326571813086, 9657993.964112147688866 ], [ 174031.03819511886104, 9658025.856932858005166 ], [ 174218.015734919783426, 9658128.271636880934238 ], [ 174441.62425971715129, 9658251.350294843316078 ], [ 174521.522357128997101, 9658290.32489369250834 ], [ 174447.587490325560793, 9658345.77616623789072 ], [ 174375.964418191695586, 9658407.167420264333487 ], [ 174375.964418196963379, 9658407.919443836435676 ], [ 174355.83509302456514, 9658431.88273998722434 ], [ 174322.124537246767431, 9658481.511969998478889 ], [ 174282.705651894619223, 9658556.595935123041272 ], [ 174157.692602328723297, 9658790.64257544092834 ], [ 174041.991622319648741, 9658977.834217447787523 ], [ 174021.99016901437426, 9659000.692268179729581 ], [ 173985.086485243955394, 9659026.2410550378263 ], [ 173642.524689332029084, 9659230.079471223056316 ], [ 173549.401931748492643, 9659125.554041704162955 ], [ 173509.94623771039187, 9659087.037616709247231 ], [ 173476.927610962477047, 9659051.188886635005474 ], [ 173458.640509047720116, 9659024.672159677371383 ], [ 173457.918489632254932, 9659024.672159677371383 ], [ 173353.926306820154423, 9658920.680160818621516 ], [ 173257.077476573962485, 9658808.786613512784243 ], [ 173183.818062995444052, 9658720.500197649002075 ], [ 173144.738584912614897, 9658680.490054382011294 ], [ 173143.052324843913084, 9658679.927991529926658 ], [ 173095.338103360147215, 9658699.013752449303865 ], [ 173091.60290489369072, 9658694.0333296880126 ], [ 173086.985742375603877, 9658687.56895013153553 ], [ 173086.386166819720529, 9658686.969374597072601 ], [ 173079.447035677178064, 9658683.499698836356401 ], [ 173065.866437202552333, 9658681.688960099592805 ], [ 173050.678098117059562, 9658682.638201089575887 ], [ 173034.175474456627853, 9658677.784510176628828 ], [ 173021.749085470451973, 9658671.093658339232206 ], [ 173010.378476213169051, 9658664.460441675037146 ], [ 172998.080584134208038, 9658655.946822006255388 ], [ 172987.805817427637521, 9658648.473908314481378 ], [ 172977.073178861290216, 9658642.213240593671799 ], [ 172975.522250964946579, 9658642.213240593671799 ], [ 172968.60864445779589, 9658648.262481326237321 ], [ 172960.017851004289696, 9658656.85327459871769 ], [ 172948.063724104198627, 9658663.826472900807858 ], [ 172935.392369322915329, 9658663.826472900807858 ], [ 172923.975331860972801, 9658664.704672167077661 ], [ 172923.297405714343768, 9658665.382598299533129 ], [ 172913.787153305776883, 9658669.70546018332243 ], [ 172913.787153306766413, 9658669.844765361398458 ], [ 172904.264405734138563, 9658688.890018066391349 ], [ 172898.608840767672518, 9658708.685334412381053 ], [ 172891.756686983891996, 9658720.431527948006988 ], [ 172880.275619230233133, 9658730.955758724361658 ], [ 172859.763416814326774, 9658750.535512441769242 ], [ 172849.519331926334416, 9658765.436472978442907 ], [ 172840.953901189961471, 9658776.857006743550301 ], [ 172830.105914961488452, 9658787.704867344349623 ], [ 172811.761078111972893, 9658791.566915541887283 ], [ 172800.939601735241013, 9658794.813379012048244 ] ] } },
{ "type": "Feature", "properties": { "id": 2, "pagina": 15, "classe": "Limites dos bairros de Manaus", "metodo": "CONTORNO_PDF", "comp_m": 1483.0679831594266, "origem": "Prefeitura de Manaus - GeoManaus" }, "geometry": { "type": "LineString", "coordinates": [ [ 172842.215874742629239, 9658776.458830604329705 ], [ 172850.088664407056058, 9658765.087221253663301 ], [ 172859.594390959828161, 9658750.828027291223407 ], [ 172880.436551226302981, 9658730.933315029367805 ], [ 172891.696651264996035, 9658720.611517110839486 ], [ 172892.430717911105603, 9658719.877823671326041 ], [ 172898.619923357793596, 9658709.267307629808784 ], [ 172898.61992335296236, 9658708.578826982527971 ], [ 172904.381800190516515, 9658688.413234960287809 ], [ 172913.147883439, 9658670.880325566977262 ], [ 172922.517108133004513, 9658664.634131792932749 ], [ 172935.248233856109437, 9658664.634131792932749 ], [ 172948.404010848491453, 9658663.694587092846632 ], [ 172948.891180379549041, 9658663.694587092846632 ], [ 172959.501920046575833, 9658657.504914144054055 ], [ 172960.265212643542327, 9658656.741621563211083 ], [ 172968.775033274228917, 9658648.231921339407563 ], [ 172976.494061182893347, 9658641.615812154486775 ], [ 172988.071363420167472, 9658648.983453737571836 ], [ 172997.472105834138347, 9658655.563877582550049 ], [ 173010.643041045696009, 9658664.030770374462008 ], [ 173020.895101527828956, 9658671.487051146104932 ], [ 173033.501513441704446, 9658677.790027914568782 ], [ 173034.248370349610923, 9658677.790027914568782 ], [ 173052.828534208150813, 9658682.951155219227076 ], [ 173052.828534209693316, 9658683.17223116196692 ], [ 173065.952639965631533, 9658681.531665835529566 ], [ 173079.72837969349348, 9658683.499682219699025 ], [ 173086.99287618798553, 9658687.650785239413381 ], [ 173091.906173675961327, 9658694.529651375487447 ], [ 173095.053554063546471, 9658698.463476540520787 ], [ 173096.591947954642819, 9658698.463476540520787 ], [ 173144.443721939605894, 9658680.279812622815371 ], [ 173182.95654335457948, 9658720.718322651460767 ], [ 173257.222395397402579, 9658809.085574667900801 ], [ 173353.957524655328598, 9658920.847027389332652 ], [ 173457.388665382371983, 9659024.278104718774557 ], [ 173476.204947399353841, 9659050.621305298060179 ], [ 173509.918309840752045, 9659087.14399423263967 ], [ 173549.394694323505973, 9659125.680676881223917 ], [ 173642.856017849291675, 9659229.632421009242535 ], [ 173617.023272242891835, 9659251.490989902988076 ], [ 173588.087612358911429, 9659285.093342630192637 ], [ 173569.414552652102429, 9659314.970724418759346 ], [ 173552.600733925093664, 9659347.663719275966287 ], [ 173540.446564562880667, 9659383.192777091637254 ], [ 173531.067319001740543, 9659416.019778653979301 ], [ 173520.730180416809162, 9659454.547133609652519 ], [ 173497.02597600518493, 9659537.666405638679862 ] ] } },
{ "type": "Feature", "properties": { "id": 3, "pagina": 15, "classe": "Limites dos bairros de Manaus", "metodo": "CONTORNO_PDF", "comp_m": 46.595067588607463, "origem": "Prefeitura de Manaus - GeoManaus" }, "geometry": { "type": "LineString", "coordinates": [ [ 172800.939601735095493, 9658794.792114399373531 ], [ 172811.739749734319048, 9658791.552097549661994 ], [ 172829.112202821765095, 9658787.894662611186504 ], [ 172829.676238558313344, 9658787.330591024830937 ], [ 172841.536935190524673, 9658776.458830604329705 ], [ 172842.215874742629239, 9658776.458830604329705 ] ] } },
{ "type": "Feature", "properties": { "id": 4, "pagina": 15, "classe": "Limites dos bairros de Manaus", "metodo": "CONTORNO_PDF", "comp_m": 3083.6833294262515, "origem": "Prefeitura de Manaus - GeoManaus" }, "geometry": { "type": "LineString", "coordinates": [ [ 174043.048451908456627, 9658977.483627956360579 ], [ 174158.014070557313971, 9658790.547075869515538 ], [ 174282.958021570317214, 9658556.62962113879621 ], [ 174321.53819789463887, 9658481.351039696484804 ], [ 174355.484803369909059, 9658432.317214759066701 ], [ 174375.376167959795566, 9658407.690040871500969 ], [ 174446.984111446712632, 9658345.504057846963406 ], [ 174521.55791752890218, 9658290.051723062992096 ], [ 174542.890824861853616, 9658306.535972798243165 ], [ 174543.597588005359285, 9658306.535972798243165 ], [ 174615.332053926191293, 9658340.515531394630671 ], [ 174704.374647598888259, 9658372.383352106437087 ], [ 174811.246093473717337, 9658393.945103043690324 ], [ 174877.856742126517929, 9658399.574307881295681 ], [ 174970.974631655233679, 9658408.039602940902114 ], [ 175057.649037570605287, 9658423.113344514742494 ], [ 175101.054819069453515, 9658437.267455440014601 ], [ 175150.953639009065228, 9658456.097193717956543 ], [ 175248.859321020718198, 9658499.401504337787628 ], [ 175300.695362658618251, 9658531.445854529738426 ], [ 175386.181184074783232, 9658589.386081665754318 ], [ 175386.181184081011452, 9658590.278460673987865 ], [ 175553.456684365781257, 9658694.94242294691503 ], [ 175730.177747661015019, 9658807.743062382563949 ], [ 175784.814774275000673, 9658847.307920139282942 ], [ 175928.730469188420102, 9658977.114097416400909 ], [ 175959.148505022720201, 9659009.494833556935191 ], [ 175882.20182582407142, 9659098.945603188127279 ], [ 175881.738899548887275, 9659098.945603188127279 ], [ 175869.188191797438776, 9659133.011264104396105 ], [ 175869.188191802822985, 9659133.78184113278985 ], [ 175862.628635639470303, 9659168.453891810029745 ], [ 175866.344036362104816, 9659206.535918675363064 ], [ 175874.725434183055768, 9659238.199383273720741 ], [ 175890.801425715588266, 9659276.970713693648577 ], [ 175890.80142572146724, 9659277.81038386747241 ], [ 175922.540356692508794, 9659337.554450472816825 ], [ 176004.344473547447706, 9659511.505661396309733 ], [ 176014.518147788621718, 9659537.666405634954572 ] ] } },
{ "type": "Feature", "properties": { "id": 5, "pagina": 15, "classe": "Limites dos bairros de Manaus", "metodo": "CONTORNO_PDF", "comp_m": 822.71064850366599, "origem": "Prefeitura de Manaus - GeoManaus" }, "geometry": { "type": "LineString", "coordinates": [ [ 173497.056294917478226, 9659537.666405638679862 ], [ 173520.703561019297922, 9659454.440229281783104 ], [ 173531.040724885591771, 9659415.91102852486074 ], [ 173540.45865745426272, 9659382.948623910546303 ], [ 173552.74003775671008, 9659347.993852484971285 ], [ 173569.755519089812879, 9659314.907747389748693 ], [ 173588.673727043176768, 9659284.638951949775219 ], [ 173617.06451248616213, 9659251.516169028356671 ], [ 173642.686020448541967, 9659229.690768973901868 ], [ 173984.823504717001924, 9659026.663831397891045 ], [ 174021.26649620194803, 9659001.434374829754233 ], [ 174022.031593211519066, 9659000.669229190796614 ], [ 174042.319171282579191, 9658977.483627956360579 ], [ 174043.048451908456627, 9658977.483627956360579 ] ] } },
{ "type": "Feature", "properties": { "id": 6, "pagina": 15, "classe": "Limites dos bairros de Manaus", "metodo": "CONTORNO_PDF", "comp_m": 5216.804344484457, "origem": "Prefeitura de Manaus - GeoManaus" }, "geometry": { "type": "LineString", "coordinates": [ [ 174704.979517609783215, 9655440.563821464776993 ], [ 174717.980977714702021, 9655449.231461251154542 ], [ 174780.794189648499014, 9655482.044268066063523 ], [ 174838.241841060225852, 9655507.471814179793 ], [ 174875.06919448915869, 9655533.911890596151352 ], [ 174901.121273839235073, 9655553.451186081394553 ], [ 174928.710090105741983, 9655561.727947648614645 ], [ 174929.117999086447526, 9655561.727947648614645 ], [ 174976.013976583373733, 9655549.535012900829315 ], [ 175026.193677760602441, 9655544.800779115408659 ], [ 175075.926348275388591, 9655551.495786005631089 ], [ 175089.630114501836943, 9655565.19955175369978 ], [ 175108.856426925951382, 9655589.918829292058945 ], [ 175109.121650031185709, 9655589.918829292058945 ], [ 175184.544933164754184, 9655611.603085480630398 ], [ 175243.834785970568191, 9655627.601702434942126 ], [ 175270.519145187630784, 9655638.085431834682822 ], [ 175299.202993029815843, 9655661.032217549160123 ], [ 175324.864574128238019, 9655702.851446889340878 ], [ 175339.000194542692043, 9655744.314557423815131 ], [ 175351.972304068913218, 9655773.038883280009031 ], [ 175352.496705909929005, 9655773.563418503850698 ], [ 175378.808392182254465, 9655789.538122855126858 ], [ 175401.565003508003429, 9655812.294733386486769 ], [ 175425.149137572938344, 9655838.708847437053919 ], [ 175447.761406679172069, 9655868.858458584174514 ], [ 175467.495073090511141, 9655896.109916012734175 ], [ 175484.43226815041271, 9655918.692841917276382 ], [ 175495.764109353243839, 9655935.690843220800161 ], [ 175509.963104437454604, 9655959.355994580313563 ], [ 175515.511591503862292, 9655973.226270955055952 ], [ 175516.297451425081817, 9655974.012330710887909 ], [ 175528.61516733415192, 9655992.014923153445125 ], [ 175540.884238146740245, 9656009.947010608389974 ], [ 175551.305943013227079, 9656028.895410813391209 ], [ 175558.839170668565203, 9656045.845052562654018 ], [ 175562.590090959944064, 9656053.346892831847072 ], [ 175569.180784481810406, 9656067.469533264636993 ], [ 175574.703433758666506, 9656079.435975117608905 ], [ 175581.166391608858248, 9656086.821944048628211 ], [ 175587.669753691065125, 9656096.112595967948437 ], [ 175595.059386000939412, 9656102.578582745045424 ], [ 175595.780628850974608, 9656103.299825569614768 ], [ 175608.738420504610986, 9656108.852996554225683 ], [ 175619.360018111736281, 9656115.612685961648822 ], [ 175634.607478987425566, 9656129.906983129680157 ], [ 175650.740071949257981, 9656148.886617144569755 ], [ 175657.564726414420875, 9656159.610294518992305 ], [ 175662.335927888867445, 9656179.650552991777658 ], [ 175667.052375159459189, 9656198.516820820048451 ], [ 175669.900933173717931, 9656216.555594423785806 ], [ 175670.844944956421386, 9656234.492535663768649 ], [ 175671.793765412527137, 9656247.77650299295783 ], [ 175669.898670210532146, 9656271.466158360242844 ], [ 175668.002992133493535, 9656285.684226401150227 ], [ 175664.253021030075615, 9656303.495039660483599 ], [ 175662.391119872248964, 9656324.907614387571812 ], [ 175662.391119948471896, 9656335.809199817478657 ], [ 175666.125942948507145, 9656347.946602245792747 ], [ 175667.06871058588149, 9656359.263649890199304 ], [ 175671.727503256086493, 9656376.965734185650945 ], [ 175675.493329054967035, 9656392.029515407979488 ], [ 175678.366368036688073, 9656404.477970328181982 ], [ 175678.366368091403274, 9656412.304056596010923 ], [ 175677.387612201244337, 9656423.065396033227444 ], [ 175670.554763370368164, 9656437.707711266353726 ], [ 175659.037017850903794, 9656451.144999409094453 ], [ 175644.064735658990685, 9656465.181543411687016 ], [ 175634.685679386078846, 9656478.312174251303077 ], [ 175633.855161471670726, 9656479.142692148685455 ], [ 175626.539513994095614, 9656493.773754347115755 ], [ 175622.923790131899295, 9656504.621155748143792 ], [ 175622.923790135915624, 9656505.1929667070508 ], [ 175623.863454471429577, 9656522.107639079913497 ], [ 175623.863454475649633, 9656522.713436858728528 ], [ 175628.432062972628046, 9656533.678561523556709 ], [ 175633.209934042824898, 9656547.056211082264781 ], [ 175635.162446550966706, 9656559.749155510216951 ], [ 175633.219528203888331, 9656572.380472403019667 ], [ 175629.344075490051182, 9656585.944187270477414 ], [ 175617.86328575128573, 9656603.165006620809436 ], [ 175608.349799465097021, 9656615.53270792029798 ], [ 175607.51322239486035, 9656616.36949778907001 ], [ 175602.863486828631721, 9656624.738643305376172 ], [ 175590.657940483069979, 9656639.760743699967861 ], [ 175583.240090310864616, 9656653.669035714119673 ], [ 175577.66332055546809, 9656664.822811452671885 ], [ 175574.059340194507968, 9656674.734215646982193 ], [ 175574.059340197680285, 9656675.184514356777072 ], [ 175575.882447727693943, 9656687.03517609089613 ], [ 175581.438112155854469, 9656700.92527848854661 ], [ 175585.229061015124898, 9656710.402047663927078 ], [ 175587.932462488184683, 9656719.414072984829545 ], [ 175588.48133785018581, 9656719.962669214233756 ], [ 175595.950277654250385, 9656726.498466201126575 ], [ 175602.920299512916245, 9656732.59684737958014 ], [ 175603.589485718141077, 9656732.59684737958014 ], [ 175611.54719430411933, 9656736.57595450989902 ], [ 175621.964727544080233, 9656742.258223293349147 ], [ 175629.05963547891588, 9656746.692766159772873 ], [ 175629.723163213406224, 9656746.692766159772873 ], [ 175645.953427595813992, 9656751.466230362653732 ], [ 175669.479292000556597, 9656758.053443480283022 ], [ 175678.490295023453655, 9656761.057026188820601 ], [ 175684.42929485955392, 9656767.985817125067115 ], [ 175689.188606691692257, 9656772.745370859280229 ], [ 175694.128381312417332, 9656779.660954568535089 ], [ 175697.066682500386378, 9656787.496673131361604 ], [ 175701.724828367005102, 9656804.264765422791243 ], [ 175713.729230678756721, 9656825.504496732726693 ], [ 175731.487465536978561, 9656846.066274860873818 ], [ 175741.745106919464888, 9656859.121324967592955 ], [ 175750.115795110847102, 9656866.56175247207284 ], [ 175757.870598904817598, 9656874.316802524030209 ], [ 175763.609232762712054, 9656884.837225461378694 ], [ 175772.109083673538407, 9656898.059322001412511 ], [ 175775.861390251899138, 9656906.501951793208718 ], [ 175781.269578039995395, 9656914.614691639319062 ], [ 175790.190715128672309, 9656922.544394940137863 ], [ 175790.190715132310288, 9656923.062579680234194 ], [ 175800.628866177547025, 9656927.411846017464995 ], [ 175801.382917176437331, 9656928.165896989405155 ], [ 175807.344147680676542, 9656929.017439447343349 ], [ 175818.701501846284373, 9656930.910291636362672 ], [ 175831.065741336147767, 9656933.763652009889483 ], [ 175842.411920084326994, 9656937.545871786773205 ], [ 175857.489251056686044, 9656942.257552551105618 ], [ 175869.722452868620167, 9656946.962445938959718 ], [ 175875.595262057293439, 9656948.920214891433716 ], [ 175949.875514112238307, 9657001.977395849302411 ], [ 175926.863992555619916, 9657029.991454735398293 ], [ 175913.455452422786038, 9657042.442276529967785 ], [ 175890.663582501554629, 9657055.737694673240185 ], [ 175873.61130996645079, 9657064.263710269704461 ], [ 175844.318220849265344, 9657075.602838503196836 ], [ 175821.668311959016137, 9657082.209261763840914 ], [ 175755.872781161539024, 9657100.068051643669605 ], [ 175652.469442346598953, 9657128.268678968772292 ], [ 175603.396118896343978, 9657139.593568697571754 ], [ 175582.5031016691064, 9657140.543229315429926 ], [ 175550.465086267533479, 9657140.543229315429926 ], [ 175529.617289162531961, 9657139.59564601816237 ], [ 175508.761592945142183, 9657135.803394528105855 ], [ 175329.24200406941236, 9657092.568604417145252 ], [ 175278.722495604888536, 9657081.341756518930197 ], [ 175277.85076605307404, 9657081.341756518930197 ], [ 175259.110352029761998, 9657078.530801730230451 ], [ 175242.382111243379768, 9657079.460332237184048 ], [ 175220.715399652632186, 9657080.402092328295112 ], [ 175220.113335419708164, 9657080.402092328295112 ], [ 175195.225660881202202, 9657090.541506351903081 ], [ 175119.268682062422158, 9657135.552880464121699 ], [ 175016.933564528066199, 9657202.211599158123136 ], [ 174989.763373548339587, 9657222.823697762563825 ], [ 174974.908829051651992, 9657234.893103437498212 ], [ 174963.252749211736955, 9657249.238942336291075 ], [ 174963.252749217761448, 9657250.101711429655552 ], [ 174950.09697235020576, 9657268.895712185651064 ], [ 174950.096972355706384, 9657269.682068325579166 ], [ 174943.518844969512429, 9657282.837844956666231 ], [ 174943.518844975362299, 9657283.671491721644998 ], [ 174939.820764276490081, 9657293.53251769952476 ], [ 174910.038861423439812, 9657278.641692973673344 ], [ 174899.097511916043004, 9657277.729933196678758 ], [ 174860.649674518761458, 9657273.041137773543596 ], [ 174859.750565786671359, 9657273.041137773543596 ], [ 174706.384540928323986, 9657260.8095095846802 ], [ 174660.415110785746947, 9657251.428144445642829 ], [ 174659.577570187248057, 9657251.428144445642829 ], [ 174601.214828363532433, 9657245.779890218749642 ], [ 174565.506749188672984, 9657242.021296082064509 ], [ 174516.506966968096094, 9657237.30972339399159 ], [ 174501.224458094482543, 9657233.489217745140195 ], [ 174478.4616137141129, 9657224.953211661428213 ], [ 174447.290689947112696, 9657208.895237900316715 ], [ 174420.774022506200708, 9657192.795695563778281 ], [ 174404.547872854658635, 9657178.478876421228051 ], [ 174388.352555640565697, 9657158.472526522353292 ], [ 174371.345300791028421, 9657126.348327185958624 ], [ 174357.029079696803819, 9657098.670268522575498 ], [ 174357.029079691361403, 9657097.891410123556852 ], [ 174339.506151127046905, 9657073.913012308999896 ], [ 174330.065235635760473, 9657058.807067906484008 ], [ 174311.339475869986927, 9657027.909708376973867 ], [ 174297.393864515586756, 9657011.174502467736602 ], [ 174283.469847763422877, 9656997.250722266733646 ], [ 174266.808092120656511, 9656985.217677125707269 ], [ 174252.063002670998685, 9656977.844898264855146 ], [ 174242.965503220912069, 9656975.11564851179719 ], [ 174223.511059920187108, 9656972.336408751085401 ], [ 174211.540374382864684, 9656972.336408751085401 ], [ 174186.168484621914104, 9656975.155640302225947 ], [ 174172.019041289837332, 9656975.155640302225947 ], [ 174155.181816573633114, 9656976.09101521782577 ], [ 174131.768929997953819, 9656977.963969878852367 ], [ 174097.958626378473127, 9656982.659885061904788 ], [ 174060.237541292590322, 9656986.43184957280755 ], [ 174044.936235447821673, 9656986.43184957280755 ], [ 174028.653426297329133, 9656983.558584686368704 ], [ 174014.368590620171744, 9656978.796892208978534 ], [ 174000.106316247751238, 9656973.091934273019433 ], [ 173982.953490233805496, 9656963.562640644609928 ], [ 173965.735629022907233, 9656950.170863144099712 ], [ 173951.424503079761053, 9656932.043324386700988 ], [ 173943.714608104288345, 9656919.515051901340485 ], [ 173937.990866016916698, 9656900.435184746980667 ], [ 173934.206799366715131, 9656885.300121810287237 ], [ 173931.367222015571315, 9656870.155228812247515 ], [ 173928.547543250781018, 9656848.5367372315377 ], [ 173924.837574900418986, 9656828.13379948399961 ], [ 173918.392079327342799, 9656813.400536289438605 ], [ 173910.670412031147862, 9656799.887987254187465 ], [ 173910.670412026287522, 9656799.194558400660753 ], [ 173899.027673485310515, 9656786.656260073184967 ], [ 173888.117514740384649, 9656776.737888421863317 ], [ 173888.117514735553414, 9656776.045064531266689 ], [ 173863.686233616666868, 9656761.567123888060451 ], [ 173837.411948907974875, 9656745.614982388913631 ], [ 173823.386113343498437, 9656738.134568696841598 ], [ 173804.512496233131969, 9656728.697520438581705 ], [ 173724.508492440014379, 9656675.989131547510624 ], [ 173687.79346058156807, 9656649.629696030169725 ], [ 173656.659667464904487, 9656625.099838089197874 ], [ 173639.54819876543479, 9656607.98788646236062 ], [ 173623.34544974588789, 9656585.114302104339004 ], [ 173617.577402763447026, 9656570.694429775699973 ], [ 173612.79916311748093, 9656552.536634022369981 ], [ 173610.906722708896268, 9656519.425908809527755 ], [ 173610.572786097472999, 9656508.06577917560935 ] ] } },
{ "type": "Feature", "properties": { "id": 7, "pagina": 15, "classe": "Limites dos bairros de Manaus", "metodo": "CONTORNO_PDF", "comp_m": 10.927077302612345, "origem": "Prefeitura de Manaus - GeoManaus" }, "geometry": { "type": "LineString", "coordinates": [ [ 173808.865644506295212, 9655450.900548169389367 ], [ 173812.408679845015286, 9655440.563821464776993 ] ] } },
{ "type": "Feature", "properties": { "id": 8, "pagina": 15, "classe": "Limites dos bairros de Manaus", "metodo": "CONTORNO_PDF", "comp_m": 11.605366972036725, "origem": "Prefeitura de Manaus - GeoManaus" }, "geometry": { "type": "LineString", "coordinates": [ [ 173421.203404486703221, 9655440.563821464776993 ], [ 173415.927362069342053, 9655450.900548169389367 ] ] } },
{ "type": "Feature", "properties": { "id": 9, "pagina": 15, "classe": "Limites dos bairros de Manaus", "metodo": "CONTORNO_PDF", "comp_m": 139.61995486396663, "origem": "Prefeitura de Manaus - GeoManaus" }, "geometry": { "type": "LineString", "coordinates": [ [ 172859.201132250251248, 9655702.130066089332104 ], [ 172844.229077018273529, 9655653.62075580470264 ], [ 172832.103571838437347, 9655626.570604257285595 ], [ 172809.222413796291221, 9655587.214753309264779 ], [ 172808.39791607420193, 9655587.214753309264779 ], [ 172800.93957923509879, 9655576.737585594877601 ] ] } },
{ "type": "Feature", "properties": { "id": 10, "pagina": 15, "classe": "Limites dos bairros de Manaus", "metodo": "CONTORNO_PDF", "comp_m": 659.38213006435478, "origem": "Prefeitura de Manaus - GeoManaus" }, "geometry": { "type": "LineString", "coordinates": [ [ 175298.54872829731903, 9655660.495307106524706 ], [ 175270.419639212224865, 9655638.718097418546677 ], [ 175244.467898281436646, 9655628.522669918835163 ], [ 175184.414685705327429, 9655611.632898274809122 ], [ 175109.587158805079525, 9655589.847135979682207 ], [ 175089.519335780380061, 9655565.956767188385129 ], [ 175075.484821215708507, 9655551.922966906800866 ], [ 175075.022638087451924, 9655551.46066628023982 ], [ 175026.960854083066806, 9655544.991032421588898 ], [ 175026.249041872826638, 9655544.991032421588898 ], [ 174976.698534405091777, 9655549.665429027751088 ], [ 174929.317314492218429, 9655561.984526602551341 ], [ 174901.214011967473198, 9655553.263194710016251 ], [ 174874.638448872952722, 9655534.280374409630895 ], [ 174838.144851243763696, 9655508.079916862770915 ], [ 174780.951837243890623, 9655481.82752738520503 ], [ 174717.846953548491001, 9655448.861750844866037 ], [ 174705.548155636410229, 9655440.563821464776993 ] ] } },
{ "type": "Feature", "properties": { "id": 11, "pagina": 15, "classe": "Limites dos bairros de Manaus", "metodo": "CONTORNO_PDF", "comp_m": 75.542136616226344, "origem": "Prefeitura de Manaus - GeoManaus" }, "geometry": { "type": "LineString", "coordinates": [ [ 178046.633408995578066, 9656255.285826157778502 ], [ 178047.434690353635233, 9656260.895028129220009 ], [ 178042.714046248991508, 9656302.438618557527661 ], [ 178041.185553755611181, 9656330.462020363658667 ] ] } },
{ "type": "Feature", "properties": { "id": 12, "pagina": 15, "classe": "Limites dos bairros de Manaus", "metodo": "CONTORNO_PDF", "comp_m": 1046.5723118075823, "origem": "Prefeitura de Manaus - GeoManaus" }, "geometry": { "type": "LineString", "coordinates": [ [ 178196.613927763828542, 9656494.90994518622756 ], [ 178196.763078916002996, 9656495.124352626502514 ], [ 178199.65909643820487, 9656521.189489990472794 ], [ 178196.831355807807995, 9656557.008978467434645 ], [ 178196.831355810223613, 9656557.354813426733017 ], [ 178211.594724236434558, 9656584.11374026723206 ], [ 178234.19581303751329, 9656620.840388379991055 ], [ 178247.366895407991251, 9656650.945820728316903 ], [ 178268.248704979108879, 9656687.963792005553842 ], [ 178268.248704982310301, 9656688.421055570244789 ], [ 178292.965361934591783, 9656706.729698365554214 ], [ 178314.124515921197599, 9656729.812322041019797 ], [ 178319.827458545274567, 9656754.526038900017738 ], [ 178320.355752445466351, 9656755.582761013880372 ], [ 178347.720893209072528, 9656768.793303061276674 ], [ 178354.546248658152763, 9656787.320010915398598 ], [ 178364.098279633093625, 9656807.378983605653048 ], [ 178364.098279639321845, 9656808.270783945918083 ], [ 178378.857062544935616, 9656835.943559404462576 ], [ 178405.138681896642083, 9656876.304087577387691 ], [ 178421.004823895986192, 9656902.436960617080331 ], [ 178421.858704638900235, 9656903.290841331705451 ], [ 178442.532279147679219, 9656929.60240175947547 ], [ 178455.85261600476224, 9656942.92298011854291 ], [ 178462.999277473718394, 9656958.236660588532686 ], [ 178453.370205114071723, 9656976.53170190192759 ], [ 178453.370205121464096, 9656977.592455681413412 ], [ 178459.866773432178888, 9656997.08310379087925 ], [ 178466.449634594406234, 9657022.473250033333898 ], [ 178475.885463709157193, 9657052.667565733194351 ], [ 178479.704335601825733, 9657083.219752347096801 ], [ 178475.878220183134545, 9657104.264360440894961 ], [ 178465.513771420752164, 9657144.779497180134058 ], [ 178454.238893649133388, 9657182.362502560019493 ], [ 178444.912750901334221, 9657219.666599202901125 ], [ 178444.912751137337182, 9657253.420887432992458 ], [ 178440.214430241612718, 9657280.672343865036964 ], [ 178440.214430244464893, 9657281.082503629848361 ], [ 178449.003230767673813, 9657304.813158011063933 ], [ 178449.811316793813603, 9657304.813158011063933 ], [ 178460.643246941297548, 9657327.461692731827497 ], [ 178469.859995211823843, 9657342.208442509174347 ], [ 178470.422836740064668, 9657342.771284017711878 ], [ 178489.450578308809781, 9657352.737943580374122 ], [ 178490.850154889485566, 9657352.737943580374122 ], [ 178500.64159974627546, 9657341.166318567469716 ], [ 178501.144083963212324, 9657340.663834359496832 ], [ 178503.946991133503616, 9657315.436718486249447 ], [ 178518.031084551388631, 9657297.018952239304781 ], [ 178519.029022921691649, 9657298.230700837448239 ] ] } },
{ "type": "Feature", "properties": { "id": 13, "pagina": 15, "classe": "Limites dos bairros de Manaus", "metodo": "CONTORNO_PDF", "comp_m": 6254.5975369078842, "origem": "Prefeitura de Manaus - GeoManaus" }, "geometry": { "type": "LineString", "coordinates": [ [ 178519.029037257307209, 9659348.575679302215576 ], [ 178424.106074065552093, 9659355.490597225725651 ], [ 178358.054410252225352, 9659349.828991921618581 ], [ 178246.703416361386189, 9659327.181379081681371 ], [ 178138.665886419883464, 9659259.894809810444713 ], [ 178123.177385210001376, 9659214.396939661353827 ], [ 178140.208533516328316, 9659166.14139823243022 ], [ 178140.208533513155999, 9659165.690490495413542 ], [ 178135.510212203487754, 9659133.740593619644642 ], [ 178135.51021219836548, 9659133.006977766752243 ], [ 178116.895641348208301, 9659081.817383732646704 ], [ 178095.385537918686168, 9659044.407850464805961 ], [ 178059.340128695097519, 9658986.18128152564168 ], [ 178058.97086515466799, 9658986.18128152564168 ], [ 178015.202960747585166, 9658960.49124919436872 ], [ 177976.43611197793507, 9658933.071074670180678 ], [ 177927.494162301765755, 9658880.364269444718957 ], [ 177901.08891993004363, 9658856.788058206439018 ], [ 177862.527903173438972, 9658803.178684297949076 ], [ 177861.923860626964597, 9658802.574564961716533 ], [ 177797.997376955201617, 9658769.671390544623137 ], [ 177687.830213801295031, 9658652.912812685593963 ], [ 177598.431482803774998, 9658561.632206616923213 ], [ 177563.405250865354901, 9658507.672936983406544 ], [ 177537.158918125205673, 9658424.246791321784258 ], [ 177536.420966198755195, 9658423.508745580911636 ], [ 177514.561778967618011, 9658390.244908163323998 ], [ 177503.082668183924397, 9658357.72080304287374 ], [ 177504.969706713833148, 9658273.744205253198743 ], [ 177504.969706712348852, 9658273.530874468386173 ], [ 177462.937275561562274, 9658221.223486721515656 ], [ 177449.673899156972766, 9658188.064806282520294 ], [ 177434.492021817626664, 9658151.059886824339628 ], [ 177434.492021544399904, 9658111.980840994045138 ], [ 177443.005905042606173, 9658058.060460060834885 ], [ 177461.961103410867509, 9658007.828534074127674 ], [ 177499.331719178735511, 9657954.575977789238095 ], [ 177499.331719174835598, 9657954.017437361180782 ], [ 177512.487495812412817, 9657902.333636559545994 ], [ 177512.487495803856291, 9657901.106995493173599 ], [ 177500.292069404560607, 9657872.025540322065353 ], [ 177497.449805929878494, 9657817.07295354641974 ], [ 177498.408201745449333, 9657797.9043038636446 ], [ 177502.337992905057035, 9657786.114430747926235 ], [ 177506.589685951592401, 9657779.736620962619781 ], [ 177516.977919997618301, 9657775.58127461373806 ], [ 177533.378038082475541, 9657776.545958550646901 ], [ 177557.75155852176249, 9657777.483603345230222 ], [ 177558.099391601164825, 9657777.483603345230222 ], [ 177566.810490232426673, 9657772.256988596171141 ], [ 177567.26239167197491, 9657771.805087165907025 ], [ 177570.76852553509525, 9657762.162773281335831 ], [ 177571.68043463176582, 9657745.74771217443049 ], [ 177568.827525300497655, 9657726.727592488750815 ], [ 177572.771802894480061, 9657712.921868616715074 ], [ 177580.374708357441705, 9657699.617146791890264 ], [ 177592.527386953646783, 9657674.377005083486438 ], [ 177600.819276194088161, 9657653.185684429481626 ], [ 177600.819276190450182, 9657652.668728053569794 ], [ 177598.987980497884564, 9657612.378600046038628 ], [ 177597.99944626679644, 9657611.719577247276902 ], [ 177543.536028386966791, 9657640.336135670542717 ], [ 177468.216239887638949, 9657672.346817521378398 ], [ 177423.818654032598715, 9657687.460955360904336 ], [ 177382.056810884707374, 9657694.104895746335387 ], [ 177350.587684708880261, 9657691.243955941870809 ], [ 177322.950073299609357, 9657682.666824955493212 ], [ 177298.219595692411531, 9657669.35071207024157 ], [ 177268.926305290748132, 9657647.616733137518167 ], [ 177154.239204847806832, 9657551.73097238689661 ], [ 177052.033385972725227, 9657466.559058420360088 ], [ 177052.033385966235073, 9657465.629542117938399 ], [ 176907.112209651997546, 9657346.887361528351903 ], [ 176787.757711406273302, 9657249.148729916661978 ], [ 176696.59345157656935, 9657172.0817602109164 ], [ 176615.778152293380117, 9657103.483107347041368 ], [ 176518.055468825536082, 9657020.79437318444252 ], [ 176443.770552036701702, 9656958.733764562755823 ], [ 176277.429985505179502, 9656798.971608949825168 ], [ 176235.128072510880884, 9656762.310207271948457 ], [ 176234.306190178962424, 9656761.488115943968296 ], [ 176217.874429980904097, 9656751.446446344256401 ], [ 176197.770538560405839, 9656746.877306303009391 ], [ 176168.280369576852536, 9656747.798837438225746 ], [ 176151.087351173860952, 9656754.133313117548823 ], [ 176125.101398655941011, 9656777.334946352988482 ], [ 176124.290373055031523, 9656778.14597193710506 ], [ 175950.290761887124972, 9657002.26487784460187 ], [ 175874.586083415837493, 9656948.883242640644312 ], [ 175874.58608341254876, 9656948.415159108117223 ], [ 175869.346373041888, 9656946.918153434991837 ], [ 175858.047158761444734, 9656942.21010772138834 ], [ 175843.104008327674819, 9656937.540284281596541 ], [ 175830.960407147591468, 9656933.803773449733853 ], [ 175818.874262719298713, 9656931.014772403985262 ], [ 175807.681562102108728, 9656929.149401424452662 ], [ 175800.805447622435167, 9656928.167135071009398 ], [ 175789.009292953065597, 9656922.269057922065258 ], [ 175781.098917600640561, 9656915.347196824848652 ], [ 175775.164906491991132, 9656906.446306262165308 ], [ 175772.340554474882083, 9656897.973011193796992 ], [ 175764.01626972516533, 9656885.024150442332029 ], [ 175757.123037184210261, 9656874.192464927211404 ], [ 175757.123037179349922, 9656873.498498696833849 ], [ 175750.232948318152921, 9656866.608191037550569 ], [ 175741.685913735855138, 9656859.011015065014362 ], [ 175731.265115112502826, 9656845.748071433976293 ], [ 175714.264345852949191, 9656825.913681214675307 ], [ 175701.824372375645908, 9656804.861924670636654 ], [ 175697.06868131441297, 9656787.741582890972495 ], [ 175694.340976423234679, 9656779.558006137609482 ], [ 175690.356124284036923, 9656773.18183758854866 ], [ 175689.696304189186776, 9656773.18183758854866 ], [ 175684.412011339300079, 9656767.897813690826297 ], [ 175678.124590786639601, 9656761.610164923593402 ], [ 175669.208457902044756, 9656758.043666530400515 ], [ 175645.806938573048683, 9656751.491269880905747 ], [ 175629.556377667729976, 9656746.711664687842131 ], [ 175621.856544416630641, 9656741.899422043934464 ], [ 175611.6953792332788, 9656736.356754921376705 ], [ 175604.024284130166052, 9656733.480277234688401 ], [ 175595.289080613147235, 9656726.686422264203429 ], [ 175588.229667064471869, 9656720.635203460231423 ], [ 175585.157792877958855, 9656710.395362945273519 ], [ 175585.157792872312712, 9656709.586336497217417 ], [ 175581.555928610934643, 9656701.482199512422085 ], [ 175575.823412689496763, 9656687.15127482265234 ], [ 175573.822173146327259, 9656675.143074959516525 ], [ 175577.811943185457494, 9656664.171207448467612 ], [ 175583.518126203882275, 9656653.710275154560804 ], [ 175591.118210029904731, 9656639.45915175229311 ], [ 175602.072465132921934, 9656625.766971537843347 ], [ 175602.072465127013857, 9656624.923115322366357 ], [ 175608.109706341987476, 9656615.866741854697466 ], [ 175618.047234632307664, 9656604.122474014759064 ], [ 175618.047234627098078, 9656603.378202503547072 ], [ 175628.561812448693672, 9656585.21701286546886 ], [ 175633.131207882950548, 9656572.422891683876514 ], [ 175634.940054892125772, 9656559.760042289271951 ], [ 175633.082578649860807, 9656547.686447601765394 ], [ 175633.082578644651221, 9656546.939755192026496 ], [ 175628.517930100177182, 9656534.158925609663129 ], [ 175623.707536417292431, 9656522.614323820918798 ], [ 175622.727700397168519, 9656504.976530585438013 ], [ 175626.660370452154893, 9656493.178020417690277 ], [ 175634.303663158789277, 9656478.847272001206875 ], [ 175643.902441395592177, 9656464.448860790580511 ], [ 175659.033430772542488, 9656451.209185248240829 ], [ 175670.976261397154303, 9656437.429301859810948 ], [ 175677.248707825521706, 9656423.988638382405043 ], [ 175677.248707821418066, 9656423.401920955628157 ], [ 175678.188132987706922, 9656413.065136896446347 ], [ 175678.188132930692518, 9656404.910431867465377 ], [ 175675.420625383907463, 9656391.994928203523159 ], [ 175671.676244731992483, 9656377.017644489184022 ], [ 175666.934467218990903, 9656359.946763971820474 ], [ 175665.972258732566843, 9656348.399284576997161 ], [ 175665.972258727008011, 9656347.604450926184654 ], [ 175663.173338390653953, 9656335.477141184732318 ], [ 175662.205118416633923, 9656324.823520639911294 ], [ 175664.111730942415306, 9656303.852963585406542 ], [ 175667.879033076867927, 9656285.957320239394903 ], [ 175669.741082677268423, 9656271.991474332287908 ], [ 175671.610243331961101, 9656247.691433548927307 ], [ 175671.610243241244461, 9656234.717398645356297 ], [ 175669.730914681917056, 9656216.863062079995871 ], [ 175669.730914675688837, 9656215.975098803639412 ], [ 175666.948425420850981, 9656198.352196361869574 ], [ 175662.270341869589174, 9656178.70429416000843 ], [ 175657.708806378155714, 9656160.458385225385427 ], [ 175656.957130852970295, 9656159.706518556922674 ], [ 175651.281876873865258, 9656149.30188668705523 ], [ 175634.553608145564795, 9656129.785495094954967 ], [ 175619.755756555881817, 9656114.987408814951777 ], [ 175608.809074267919641, 9656108.602250324562192 ], [ 175595.47570230733254, 9656102.888155838474631 ], [ 175587.575862057768973, 9656095.975513331592083 ], [ 175580.869914466835326, 9656087.353337394073606 ], [ 175575.093835174600827, 9656079.652061833068728 ], [ 175569.390708193706814, 9656067.295609531924129 ], [ 175561.838652780686971, 9656053.135266130790114 ], [ 175559.010396437166492, 9656045.592770038172603 ], [ 175550.617418909620028, 9656028.807052845135331 ], [ 175540.346391562256031, 9656010.132846996188164 ], [ 175528.185200644162251, 9655992.358543206006289 ], [ 175515.832195338443853, 9655974.304374592378736 ], [ 175510.595643949636724, 9655960.339572317898273 ], [ 175509.90908406523522, 9655960.339572317898273 ], [ 175495.223355078429449, 9655935.862777329981327 ], [ 175484.938285898097092, 9655918.097528848797083 ], [ 175468.108390870998846, 9655895.65790743008256 ], [ 175447.434814137086505, 9655869.346344171091914 ], [ 175424.468753208144335, 9655838.724444022402167 ], [ 175424.468753202236257, 9655837.881038079038262 ], [ 175401.521888562536333, 9655812.180662648752332 ], [ 175379.179048222256824, 9655789.838059838861227 ], [ 175352.555363396939356, 9655773.673783922567964 ], [ 175339.09469700983027, 9655744.829080874100327 ], [ 175325.04073975191568, 9655702.667211163789034 ], [ 175298.548728301102528, 9655661.03649658896029 ], [ 175298.54872829731903, 9655660.495307106524706 ] ] } },
{ "type": "Feature", "properties": { "id": 14, "pagina": 15, "classe": "Limites dos bairros de Manaus", "metodo": "CONTORNO_PDF", "comp_m": 139.09051183968029, "origem": "Prefeitura de Manaus - GeoManaus" }, "geometry": { "type": "LineString", "coordinates": [ [ 172800.939579229918309, 9655575.996827291324735 ], [ 172808.229007254500175, 9655586.063133658841252 ], [ 172832.766480058024172, 9655626.644189378246665 ], [ 172845.084894423984224, 9655654.124098658561707 ], [ 172859.201132243586471, 9655701.177025690674782 ] ] } },
{ "type": "Feature", "properties": { "id": 15, "pagina": 15, "classe": "Limites dos bairros de Manaus", "metodo": "CONTORNO_PDF", "comp_m": 11.605371208130558, "origem": "Prefeitura de Manaus - GeoManaus" }, "geometry": { "type": "LineString", "coordinates": [ [ 173416.248943344893632, 9655450.900548169389367 ], [ 173421.524995080108056, 9655440.563821464776993 ] ] } },
{ "type": "Feature", "properties": { "id": 16, "pagina": 15, "classe": "Limites dos bairros de Manaus", "metodo": "CONTORNO_PDF", "comp_m": 10.925169997113686, "origem": "Prefeitura de Manaus - GeoManaus" }, "geometry": { "type": "LineString", "coordinates": [ [ 173812.191005297732772, 9655440.563821464776993 ], [ 173808.653856657940196, 9655450.900548169389367 ] ] } },
{ "type": "Feature", "properties": { "id": 17, "pagina": 15, "classe": "Limites dos bairros de Manaus", "metodo": "CONTORNO_PDF", "comp_m": 7387.2447046218122, "origem": "Prefeitura de Manaus - GeoManaus" }, "geometry": { "type": "LineString", "coordinates": [ [ 173610.732314400345786, 9656508.06577917560935 ], [ 173611.061654608609388, 9656519.258152870461345 ], [ 173612.928435382986208, 9656552.861625937744975 ], [ 173617.536612242896808, 9656570.373634625226259 ], [ 173623.971929237915901, 9656585.082328790798783 ], [ 173640.193817400344415, 9656607.983859920874238 ], [ 173640.193817405379377, 9656608.702378684654832 ], [ 173657.388994203764014, 9656624.992363914847374 ], [ 173687.356525216193404, 9656650.277378039434552 ], [ 173723.424573655705899, 9656676.172784343361855 ], [ 173724.317628632066771, 9656676.172784343361855 ], [ 173803.252768944512354, 9656727.856226675212383 ], [ 173804.110487494326662, 9656727.856226675212383 ], [ 173823.339012632903177, 9656738.431866265833378 ], [ 173837.448697855463251, 9656745.95677631162107 ], [ 173863.836858633643715, 9656761.03589604049921 ], [ 173888.450500861101318, 9656777.129523416981101 ], [ 173898.965762298408663, 9656786.688895870000124 ], [ 173911.43191962337005, 9656800.113950377330184 ], [ 173918.148882241657702, 9656813.547387005761266 ], [ 173924.846399646165082, 9656827.89865324832499 ], [ 173928.66607845373801, 9656848.91052863560617 ], [ 173930.540024313522736, 9656869.519642725586891 ], [ 173934.320668270054739, 9656884.642698459327221 ], [ 173934.320668276632205, 9656885.582366406917572 ], [ 173938.001792813214706, 9656900.307565877214074 ], [ 173944.48361013358226, 9656919.752545926719904 ], [ 173951.820587386173429, 9656931.67536674067378 ], [ 173966.270685985684395, 9656949.978562975302339 ], [ 173966.270685990079073, 9656950.605219526216388 ], [ 173984.124784167273901, 9656963.760996157303452 ], [ 173984.124784172716318, 9656964.536178268492222 ], [ 173999.893059519410599, 9656973.296281453222036 ], [ 174014.756148869229946, 9656978.869998849928379 ], [ 174028.678496002627071, 9656983.510623725131154 ], [ 174044.339003780973144, 9656986.274394255131483 ], [ 174060.066810533317039, 9656986.274394255131483 ], [ 174097.491734276060015, 9656983.467394184321165 ], [ 174131.319215997034917, 9656977.829480715095997 ], [ 174155.859699313354213, 9656975.941825138404965 ], [ 174172.850484359514667, 9656974.997946007177234 ], [ 174186.88705151740578, 9656974.997946007177234 ], [ 174211.31927706109127, 9656972.178953433409333 ], [ 174223.796337968233274, 9656972.178953433409333 ], [ 174242.906155822944129, 9656975.045280233025551 ], [ 174251.611511132534361, 9656977.946901259943843 ], [ 174266.922805149923079, 9656984.64586597494781 ], [ 174284.137878148874734, 9656997.078757645562291 ], [ 174297.46929685244686, 9657010.410175882279873 ], [ 174311.717345926270355, 9657027.507979089394212 ], [ 174330.581571626884397, 9657058.633566476404667 ], [ 174339.942359329143073, 9657073.611540414392948 ], [ 174357.859106660383986, 9657099.071776501834393 ], [ 174371.060098207526607, 9657126.415898516774178 ], [ 174389.136791675991844, 9657158.764008302241564 ], [ 174389.136791681259638, 9657159.51846625097096 ], [ 174404.076527777273441, 9657177.973775509744883 ], [ 174404.820294398989063, 9657177.973775509744883 ], [ 174421.224297139240662, 9657192.447952821850777 ], [ 174447.326722990808776, 9657208.295701315626502 ], [ 174478.549468294542748, 9657224.380371395498514 ], [ 174479.404903885588283, 9657225.235372062772512 ], [ 174501.450569145090412, 9657233.502554684877396 ], [ 174516.140388158150017, 9657237.175009328871965 ], [ 174516.931323516007978, 9657237.175009328871965 ], [ 174565.90193693243782, 9657241.883537793532014 ], [ 174600.670057833136525, 9657245.6423374209553 ], [ 174659.959759588498855, 9657251.28898691944778 ], [ 174706.929923746414715, 9657260.683115035295486 ], [ 174860.026262507890351, 9657272.892995687201619 ], [ 174898.557419645105256, 9657277.592220276594162 ], [ 174910.150447261665249, 9657278.558244463056326 ], [ 174939.826664063788485, 9657292.468889582902193 ], [ 174940.920845991320675, 9657292.104162283241749 ], [ 174943.493708480062196, 9657283.52751780115068 ], [ 174950.188156784803141, 9657270.138621378690004 ], [ 174962.518542317819083, 9657250.22051071934402 ], [ 174974.923756060801679, 9657234.952667644247413 ], [ 174989.210820293432334, 9657222.570480985566974 ], [ 175017.507990707235876, 9657201.819558983668685 ], [ 175119.084035324020078, 9657135.042362045496702 ], [ 175195.35554623225471, 9657090.786323336884379 ], [ 175220.232485125190578, 9657080.261287018656731 ], [ 175243.127139913180145, 9657079.30739363655448 ], [ 175259.290879220556235, 9657078.356613915413618 ], [ 175278.357159404316917, 9657081.21644676104188 ], [ 175329.185694338812027, 9657092.511676413938403 ], [ 175508.631361288862536, 9657135.729141315445304 ], [ 175529.163007938826922, 9657139.46199526078999 ], [ 175549.658962755696848, 9657141.325199211016297 ], [ 175582.36931994612678, 9657141.325199211016297 ], [ 175603.042410669993842, 9657139.445870827883482 ], [ 175603.846674912638264, 9657139.445870827883482 ], [ 175652.453664522065083, 9657128.228891808539629 ], [ 175755.784032467287034, 9657100.047731079161167 ], [ 175821.546652448014356, 9657082.197938986122608 ], [ 175844.000404179125326, 9657075.649205816909671 ], [ 175873.39674113021465, 9657064.269628828391433 ], [ 175874.239133624942042, 9657064.269628828391433 ], [ 175891.153806412476115, 9657055.812412129715085 ], [ 175891.972329712851206, 9657055.812412129715085 ], [ 175913.585562525928253, 9657041.716971307992935 ], [ 175914.336342581285862, 9657041.716971307992935 ], [ 175926.829830260190647, 9657030.115616485476494 ], [ 175950.220228334364947, 9657002.047091759741306 ], [ 176125.083627328509465, 9656777.357160687446594 ], [ 176150.926135613146471, 9656753.428840667009354 ], [ 176168.500878520047991, 9656748.547105714678764 ], [ 176198.144609087874414, 9656746.63470115698874 ], [ 176217.531789217115147, 9656751.481311153620481 ], [ 176234.855600965878693, 9656762.068125450983644 ], [ 176277.300609039317351, 9656799.796966921538115 ], [ 176443.079698995337822, 9656958.083512609824538 ], [ 176443.951216053654207, 9656958.083512609824538 ], [ 176517.801622753671836, 9657020.572075378149748 ], [ 176615.531703785905847, 9657103.266866825520992 ], [ 176696.345823882264085, 9657171.864685485139489 ], [ 176787.483730109583121, 9657248.90921176224947 ], [ 176906.817047984572127, 9657346.63089027069509 ], [ 177052.481915368698537, 9657466.921760911121964 ], [ 177153.970402940787608, 9657552.435329793021083 ], [ 177269.32472054133541, 9657647.933679539710283 ], [ 177269.324720547330799, 9657648.78940892778337 ], [ 177298.454205920686945, 9657669.726254787296057 ], [ 177323.542315693339333, 9657682.734886383637786 ], [ 177350.423860062583117, 9657691.077466899529099 ], [ 177381.919656326470431, 9657693.856618527323008 ], [ 177423.179400481225457, 9657687.292319182306528 ], [ 177423.947858553001424, 9657687.292319182306528 ], [ 177468.113988488388713, 9657672.256975190714002 ], [ 177468.978172989649465, 9657672.256975190714002 ], [ 177543.714398853771854, 9657640.494305692613125 ], [ 177599.00406619135174, 9657611.862193102017045 ], [ 177601.059114738891367, 9657652.964725097641349 ], [ 177592.412586842197925, 9657674.101659288629889 ], [ 177580.139808894513408, 9657699.590240500867367 ], [ 177572.848690057027852, 9657712.350393628701568 ], [ 177572.848690061859088, 9657713.041405059397221 ], [ 177569.09003328482504, 9657726.197420669719577 ], [ 177569.090033288433915, 9657726.712267003953457 ], [ 177571.917720655445009, 9657745.564233858138323 ], [ 177570.947083761973772, 9657762.065803114324808 ], [ 177566.828403928346233, 9657772.361455246806145 ], [ 177558.245654569473118, 9657777.725605262443423 ], [ 177533.184727002255386, 9657776.761761171743274 ], [ 177517.247951425088104, 9657775.824331859126687 ], [ 177516.715143118606647, 9657775.824331859126687 ], [ 177506.813035805447726, 9657779.42493156902492 ], [ 177505.5715644795564, 9657780.0456672180444 ], [ 177502.371006531087914, 9657785.646948780864477 ], [ 177502.371006536239292, 9657786.382306274026632 ], [ 177498.612349746050313, 9657797.658754523843527 ], [ 177498.61234975073603, 9657798.326681697741151 ], [ 177497.675199959834572, 9657817.070394629612565 ], [ 177500.471547664667014, 9657872.067475784569979 ], [ 177512.80965993978316, 9657901.490213004872203 ], [ 177499.404323688184377, 9657954.156347416341305 ], [ 177461.967880443204194, 9658008.870490878820419 ], [ 177461.361853364040144, 9658008.870490878820419 ], [ 177443.114874092338141, 9658058.138053745031357 ], [ 177434.712317421712214, 9658111.353495007380843 ], [ 177434.712317700410495, 9658151.215076057240367 ], [ 177449.597253436077153, 9658187.497489741072059 ], [ 177463.842864842823474, 9658221.687124654650688 ], [ 177463.842864847305464, 9658222.32833974994719 ], [ 177505.205842880444834, 9658274.031821323558688 ], [ 177503.31067474608426, 9658357.422616459429264 ], [ 177503.310674750129692, 9658358.000748874619603 ], [ 177514.324858987121843, 9658389.207680528983474 ], [ 177515.090323870448628, 9658389.973145386204123 ], [ 177536.96787866766681, 9658423.26493332721293 ], [ 177563.279846687510144, 9658507.839504595845938 ], [ 177598.730467132787453, 9658561.948306776583195 ], [ 177687.879841215006309, 9658652.97430687956512 ], [ 177797.251603821816389, 9658768.889894558116794 ], [ 177797.829147885902785, 9658768.889894558116794 ], [ 177862.583854460855946, 9658803.171907357871532 ], [ 177899.85462822401314, 9658856.282189253717661 ], [ 177900.520279163989471, 9658856.282189253717661 ], [ 177927.464171646453906, 9658880.339340170845389 ], [ 177976.25191182733397, 9658932.880132999271154 ], [ 178014.543776796519523, 9658959.964346796274185 ], [ 178058.113709831231972, 9658985.53823796659708 ], [ 178095.03422748943558, 9659044.232442878186703 ], [ 178116.757579829834867, 9659081.067563101649284 ], [ 178135.679523223079741, 9659134.048472758382559 ], [ 178140.480573236389318, 9659165.736682567745447 ], [ 178123.514395863312529, 9659213.808077389374375 ], [ 178123.514395871839952, 9659215.027227714657784 ], [ 178138.300182600738481, 9659259.384997006505728 ], [ 178138.750618839199888, 9659259.835461869835854 ], [ 178246.144027774280403, 9659327.073126971721649 ], [ 178246.722563963470748, 9659327.073126971721649 ], [ 178357.60772133761202, 9659350.565687660127878 ], [ 178358.410614088992588, 9659350.565687660127878 ], [ 178424.117018514225492, 9659355.259040493518114 ], [ 178519.029037255386356, 9659348.298807471990585 ] ] } },
{ "type": "Feature", "properties": { "id": 18, "pagina": 15, "classe": "Limites dos bairros de Manaus", "metodo": "CONTORNO_PDF", "comp_m": 4627.9178334283415, "origem": "Prefeitura de Manaus - GeoManaus" }, "geometry": { "type": "LineString", "coordinates": [ [ 176014.021117405121913, 9659537.666405634954572 ], [ 176003.508714723604498, 9659511.204228904098272 ], [ 175921.793356799054891, 9659338.381006509065628 ], [ 175890.757653295528144, 9659277.249922089278698 ], [ 175874.706999085581629, 9659237.595525320619345 ], [ 175866.175449742760975, 9659206.312797699123621 ], [ 175862.371178318775492, 9659168.270933704450727 ], [ 175869.035032228101045, 9659133.999598288908601 ], [ 175882.369890790694626, 9659097.804844098165631 ], [ 175958.239860692585353, 9659009.758234694600105 ], [ 175958.239860683475854, 9659008.459169490262866 ], [ 175928.765102502366062, 9658977.142196111381054 ], [ 175784.175757335411618, 9658847.575280830264091 ], [ 175731.208838967635529, 9658807.617554308846593 ], [ 175730.358003699831897, 9658807.617554308846593 ], [ 175553.208028311375529, 9658695.485270300880075 ], [ 175385.914918627211591, 9658589.2824103590101 ], [ 175300.448378634464461, 9658531.354967268183827 ], [ 175300.448378628469072, 9658530.496652310714126 ], [ 175248.891451200994197, 9658500.115101527422667 ], [ 175151.317473739938578, 9658456.019225841388106 ], [ 175101.61453380677267, 9658437.263166030868888 ], [ 175058.730071879923344, 9658423.279247097671032 ], [ 175057.934136437368579, 9658423.279247097671032 ], [ 174971.393795306212269, 9658408.228737825527787 ], [ 174877.509040261647897, 9658399.779095787554979 ], [ 174811.621758813300403, 9658394.131621520966291 ], [ 174704.244903542421525, 9658372.467902174219489 ], [ 174614.741164970473619, 9658340.435040412470698 ], [ 174544.019820222165436, 9658306.488738443702459 ], [ 174520.495053479477065, 9658289.825445640832186 ], [ 174520.495053474442102, 9658289.104930242523551 ], [ 174441.695100632758113, 9658251.095492489635944 ], [ 174218.000565777998418, 9658128.909608779475093 ], [ 174030.962873534561368, 9658026.46169513091445 ], [ 173976.365838399739005, 9657993.515217727050185 ], [ 173932.112103601597482, 9657962.443595254793763 ], [ 173892.569856137997704, 9657932.316067004576325 ], [ 173834.188820961950114, 9657882.409591771662235 ], [ 173796.488597292162012, 9657842.824693880975246 ], [ 173751.293507465830771, 9657789.155077682808042 ], [ 173708.894021128944587, 9657729.796086590737104 ], [ 173678.728362509194994, 9657675.121042331680655 ], [ 173645.780225243157474, 9657601.693029452115297 ], [ 173628.820672352099791, 9657556.468435751274228 ], [ 173601.54335742580588, 9657466.170462107285857 ], [ 173553.630762881075498, 9657291.430224003270268 ], [ 173526.448835528106429, 9657214.570582047104836 ], [ 173512.409260075888596, 9657187.428292585536838 ], [ 173498.351761457102839, 9657159.312104810029268 ], [ 173482.462579912767978, 9657134.076906146481633 ], [ 173462.828969763213536, 9657106.963951027020812 ], [ 173436.647322449134663, 9657077.97699236497283 ], [ 173410.508942503161961, 9657053.705572564154863 ], [ 173366.3123103917751, 9657023.614356409758329 ], [ 173365.461989386792993, 9657022.764035435393453 ], [ 173321.998294793389505, 9657000.569829124957323 ], [ 173321.207461933488958, 9657000.569829124957323 ], [ 173273.476009088830324, 9656984.341067671775818 ], [ 173272.656230278604198, 9656983.521288890391588 ], [ 173229.211330117192119, 9656976.126497510820627 ], [ 173187.183028999454109, 9656973.324500007554889 ], [ 173146.949526202661218, 9656977.067256471142173 ], [ 173078.259810555638978, 9656984.594820940867066 ], [ 173077.510116963007022, 9656984.594820940867066 ], [ 172992.353082111629192, 9657010.796765157952905 ], [ 172913.486669982172316, 9657041.78006593324244 ], [ 172831.666960313828895, 9657073.75552336871624 ], [ 172800.939589769288432, 9657083.386590972542763 ] ] } }
]
}
