{
"type": "FeatureCollection",
"name": "p15_auxiliares_aeis_sem_id_21s",
"crs": { "type": "name", "properties": { "name": "urn:ogc:def:crs:EPSG::31981" } },
"features": [
{ "type": "Feature", "properties": { "id": 1, "pagina": 15, "classe": "AEIS - simbolo sem identificacao nominal inequivoca", "rotulo": "AEIS - simbolo sem identificacao nominal inequivoca", "seq_pdf": "339", "metodo": "CONTORNO_PDF", "situacao": "DERIV_PDF", "recortado": 1, "area_m2": 434874.047, "area_ha": 43.487405, "id_layer": "p15_auxiliares_aeis_sem_id", "doc_fonte": "Resposta SECT_autos.pdf", "doc_pagina": 15, "doc_folha": 108, "doc_escala": "1:15.000", "doc_metodo": "Reconstituição Vetorial Afim", "doc_rms_m": 0.68 }, "geometry": { "type": "Polygon", "coordinates": [ [ [ 173305.98026903293794, 9658865.766644697636366 ], [ 172800.939603103877744, 9658990.561107255518436 ], [ 172800.939605403254973, 9659319.428047580644488 ], [ 172879.35764364793431, 9659537.666405638679862 ], [ 173496.875586222449783, 9659537.666405638679862 ], [ 173521.7320247143507, 9659450.66951322555542 ], [ 173526.428669943561545, 9659433.760873766615987 ], [ 173540.508699756464921, 9659384.951444681733847 ], [ 173548.83654665001086, 9659357.468385186046362 ], [ 173549.332738304627128, 9659357.468385186046362 ], [ 173563.428657254815334, 9659325.518548054620624 ], [ 173564.01636879707803, 9659325.518548054620624 ], [ 173579.051474046573276, 9659299.206875301897526 ], [ 173579.76888768968638, 9659299.206875301897526 ], [ 173591.045336135866819, 9659282.292202929034829 ], [ 173591.743013189785415, 9659282.292202929034829 ], [ 173603.46592358261114, 9659267.372215516865253 ], [ 173616.932905688910978, 9659252.221753925085068 ], [ 173617.53347533592023, 9659252.221753925085068 ], [ 173639.39501779776765, 9659232.789598183706403 ], [ 173587.424935689603444, 9659169.825705409049988 ], [ 173544.039491646602983, 9659122.66778259165585 ], [ 173501.24290892740828, 9659079.871317153796554 ], [ 173501.24290892155841, 9659079.034807376563549 ], [ 173361.83358703769045, 9658929.193632403388619 ], [ 173305.98026903293794, 9658865.766644697636366 ] ] ] } },
{ "type": "Feature", "properties": { "id": 2, "pagina": 15, "classe": "AEIS - simbolo sem identificacao nominal inequivoca", "rotulo": "AEIS - simbolo sem identificacao nominal inequivoca", "seq_pdf": "342", "metodo": "CONTORNO_PDF", "situacao": "DERIV_PDF", "recortado": 1, "area_m2": 30446.127, "area_ha": 3.044613, "id_layer": "p15_auxiliares_aeis_sem_id", "doc_fonte": "Resposta SECT_autos.pdf", "doc_pagina": 15, "doc_folha": 108, "doc_escala": "1:15.000", "doc_metodo": "Reconstituição Vetorial Afim", "doc_rms_m": 0.68 }, "geometry": { "type": "Polygon", "coordinates": [ [ [ 174228.693232577759773, 9657256.840482605621219 ], [ 174315.85801760861068, 9657314.634376307949424 ], [ 174493.451118498167489, 9657433.029773036018014 ], [ 174574.195386763400165, 9657487.176157847046852 ], [ 174616.298330344288843, 9657494.193314906209707 ], [ 174590.632601269433508, 9657385.370619455352426 ], [ 174358.320607808651403, 9657253.980930527672172 ], [ 174228.693232577759773, 9657256.840482605621219 ] ] ] } },
{ "type": "Feature", "properties": { "id": 3, "pagina": 15, "classe": "AEIS - simbolo sem identificacao nominal inequivoca", "rotulo": "AEIS - simbolo sem identificacao nominal inequivoca", "seq_pdf": "353", "metodo": "CONTORNO_PDF", "situacao": "DERIV_PDF", "recortado": 1, "area_m2": 113481.455, "area_ha": 11.348146, "id_layer": "p15_auxiliares_aeis_sem_id", "doc_fonte": "Resposta SECT_autos.pdf", "doc_pagina": 15, "doc_folha": 108, "doc_escala": "1:15.000", "doc_metodo": "Reconstituição Vetorial Afim", "doc_rms_m": 0.68 }, "geometry": { "type": "MultiPolygon", "coordinates": [ [ [ [ 172800.9396069291397, 9659537.666405638679862 ], [ 172879.679171292722458, 9659537.666405638679862 ], [ 172800.939605398132699, 9659318.696075392886996 ], [ 172800.9396069291397, 9659537.666405638679862 ] ] ], [ [ [ 172803.058253044582671, 9658796.075468776747584 ], [ 172802.380477831087774, 9658796.075468776747584 ], [ 172800.939601745922118, 9658796.337446618825197 ], [ 172800.939603102451656, 9658990.355984387919307 ], [ 173306.075439396372531, 9658865.963271444663405 ], [ 173239.738398005021736, 9658790.282609336078167 ], [ 173173.884107103891438, 9658709.376209398731589 ], [ 173144.991449246212142, 9658679.487559836357832 ], [ 173082.917471250402741, 9658681.427309930324554 ], [ 173066.732792003138456, 9658680.475326968356967 ], [ 173050.615335106267594, 9658682.371441584080458 ], [ 173050.612183901335811, 9658682.371441584080458 ], [ 173042.150260058086133, 9658680.063750950619578 ], [ 173041.418021134391893, 9658679.331418938934803 ], [ 173032.020751362142619, 9658675.572582840919495 ], [ 173031.476958422339521, 9658675.028789920732379 ], [ 173018.448347543133423, 9658666.008825838565826 ], [ 173009.467615584755549, 9658662.416418965905905 ], [ 173008.892965086008189, 9658661.842133669182658 ], [ 173000.300562358053867, 9658656.113824905827641 ], [ 172992.695616766635794, 9658649.45925597473979 ], [ 172983.140602305880748, 9658643.726296082139015 ], [ 172975.469242979976116, 9658637.972532903775573 ], [ 172967.245614817977184, 9658650.307452108711004 ], [ 172966.646495144930668, 9658650.906571770086884 ], [ 172961.198940440168371, 9658656.35435726493597 ], [ 172958.043386148958234, 9658658.878880895674229 ], [ 172957.661273741483456, 9658658.878880895674229 ], [ 172948.264153644384351, 9658663.577440828084946 ], [ 172946.745291397266556, 9658663.577440828084946 ], [ 172931.174406641774112, 9658662.604322431609035 ], [ 172921.461107663082657, 9658664.762970497831702 ], [ 172916.011458626104286, 9658667.487794950604439 ], [ 172913.490589214779902, 9658671.269259279593825 ], [ 172910.365964819065994, 9658675.434851234778762 ], [ 172908.392955551767955, 9658680.368880081921816 ], [ 172905.573595429304987, 9658685.067136464640498 ], [ 172901.437555244774558, 9658695.407762762159109 ], [ 172900.626680114190094, 9658701.891672192141414 ], [ 172900.055440557654947, 9658702.463275119662285 ], [ 172896.296615625062259, 9658713.738794002681971 ], [ 172895.828274359722855, 9658714.207075703889132 ], [ 172891.367012708447874, 9658720.899346265941858 ], [ 172891.015347538923379, 9658720.899346265941858 ], [ 172864.930659545469098, 9658746.98454400524497 ], [ 172852.422109112987528, 9658763.341333031654358 ], [ 172846.963752999610733, 9658771.529098423197865 ], [ 172833.663556842220714, 9658784.82942439429462 ], [ 172833.663556845363928, 9658785.280577914789319 ], [ 172829.432867948606145, 9658788.30239419080317 ], [ 172828.325659747322788, 9658788.856068674474955 ], [ 172818.407211941084825, 9658791.561032073572278 ], [ 172803.058253044582671, 9658796.075468776747584 ] ] ] ] } }
]
}
