{
"type": "FeatureCollection",
"name": "p15_terras_dest_21s",
"crs": { "type": "name", "properties": { "name": "urn:ogc:def:crs:EPSG::31981" } },
"features": [
{ "type": "Feature", "properties": { "id": 1, "pagina": 15, "classe": "Terras Destacadas do Patrimonio Publico Estadual", "rotulo": "Terras Destacadas do Patrimonio Publico Estadual", "seq_pdf": "2160", "metodo": "Reconstituição Vetorial", "situacao": "DERIV_PDF", "recortado": 1, "area_m2": 496563.694, "area_ha": 49.656369, "documento": "Resposta SECT_autos.pdf", "origem": "Terras Destacadas do Patrimônio Estadual" }, "geometry": { "type": "Polygon", "coordinates": [ [ [ 177857.742720260022907, 9657517.773509697988629 ], [ 178194.368940813845256, 9657424.005799878388643 ], [ 178194.70107640788774, 9657424.005799878388643 ], [ 178345.053564693487715, 9657435.282248126342893 ], [ 178345.442507698695408, 9657435.282248126342893 ], [ 178504.312687406607438, 9657499.793275929987431 ], [ 178513.212170838494785, 9657375.202510925009847 ], [ 178426.282610313210171, 9657270.320423625409603 ], [ 178425.773632229014765, 9657268.793489448726177 ], [ 178447.427421225816943, 9656994.826832631602883 ], [ 178251.097136500291526, 9656705.050469940528274 ], [ 178250.288714993395843, 9656704.242048462852836 ], [ 178139.816181499802042, 9656497.460720201954246 ], [ 178127.426658357784618, 9656494.90994518622756 ], [ 177906.095858632441377, 9656494.90994518622756 ], [ 177854.105163056170568, 9656544.99830118380487 ], [ 177847.410046378936386, 9656629.16889276355505 ], [ 177857.742720260022907, 9657517.773509697988629 ] ] ] } },
{ "type": "Feature", "properties": { "id": 2, "pagina": 15, "classe": "Terras Destacadas do Patrimonio Publico Estadual", "rotulo": "Terras Destacadas do Patrimonio Publico Estadual", "seq_pdf": "2161", "metodo": "Reconstituição Vetorial", "situacao": "DERIV_PDF", "recortado": 1, "area_m2": 404324.694, "area_ha": 40.432469, "documento": "Resposta SECT_autos.pdf", "origem": "Terras Destacadas do Patrimônio Estadual" }, "geometry": { "type": "Polygon", "coordinates": [ [ [ 173401.092553202062845, 9657070.641874188557267 ], [ 173402.750042926869355, 9656508.065779177471995 ], [ 172859.201137885189382, 9656508.065779177471995 ], [ 172859.201130637025926, 9655471.4021066557616 ], [ 172800.939578497549519, 9655471.248767018318176 ], [ 172800.939589815883664, 9657090.05242183059454 ], [ 173401.092553202062845, 9657070.641874188557267 ] ] ] } },
{ "type": "Feature", "properties": { "id": 3, "pagina": 15, "classe": "Terras Destacadas do Patrimonio Publico Estadual", "rotulo": "Terras Destacadas do Patrimonio Publico Estadual", "seq_pdf": "2162", "metodo": "Reconstituição Vetorial", "situacao": "DERIV_PDF", "recortado": 1, "area_m2": 1911309.12, "area_ha": 191.130912, "documento": "Resposta SECT_autos.pdf", "origem": "Terras Destacadas do Patrimônio Estadual" }, "geometry": { "type": "Polygon", "coordinates": [ [ [ 177119.493914950289764, 9657327.707661043852568 ], [ 177122.39693480648566, 9656255.285826159641147 ], [ 175867.18869087746134, 9656255.285826159641147 ], [ 175867.188685320434161, 9655460.497573148459196 ], [ 175438.997924681199947, 9655614.800567241385579 ], [ 175435.225146930548362, 9657086.15428027138114 ], [ 177119.493914950289764, 9657327.707661043852568 ] ] ] } }
]
}
