{
"type": "FeatureCollection",
"name": "p15_apoio_areas_excluidas",
"crs": { "type": "name", "properties": { "name": "urn:ogc:def:crs:OGC:1.3:CRS84" } },
"features": [
{ "type": "Feature", "properties": { "id": 1, "pagina": 15, "motivo": "Legenda", "id_layer": "p15_apoio_areas_excluidas", "doc_fonte": "Resposta SECT_autos.pdf", "doc_pagina": 15, "doc_folha": 108, "doc_escala": "1:15.000", "doc_metodo": "Reconstituição Vetorial Afim", "doc_rms_m": 0.68 }, "geometry": { "type": "Polygon", "coordinates": [ [ [ -59.94292514797668, -3.103530760668971 ], [ -59.928169955009785, -3.103571941429663 ], [ -59.928196310186728, -3.113123593267161 ], [ -59.942951635492037, -3.113082285527836 ], [ -59.94292514797668, -3.103530760668971 ] ] ] } },
{ "type": "Feature", "properties": { "id": 2, "pagina": 15, "motivo": "Cartucho", "id_layer": "p15_apoio_areas_excluidas", "doc_fonte": "Resposta SECT_autos.pdf", "doc_pagina": 15, "doc_folha": 108, "doc_escala": "1:15.000", "doc_metodo": "Reconstituição Vetorial Afim", "doc_rms_m": 0.68 }, "geometry": { "type": "Polygon", "coordinates": [ [ [ -59.89210240609021, -3.105955729847468 ], [ -59.892122475488911, -3.113317106519314 ], [ -59.915915797606011, -3.113251210216025 ], [ -59.915895563666183, -3.105889989648452 ], [ -59.89210240609021, -3.105955729847468 ] ] ] } },
{ "type": "Feature", "properties": { "id": 3, "pagina": 15, "motivo": "Escala grafica", "id_layer": "p15_apoio_areas_excluidas", "doc_fonte": "Resposta SECT_autos.pdf", "doc_pagina": 15, "doc_folha": 108, "doc_escala": "1:15.000", "doc_metodo": "Reconstituição Vetorial Afim", "doc_rms_m": 0.68 }, "geometry": { "type": "Polygon", "coordinates": [ [ [ -59.892054280671424, -3.103790734967714 ], [ -59.892058324849437, -3.105276595528578 ], [ -59.902807674121497, -3.105246968762526 ], [ -59.902803614963304, -3.103761122404583 ], [ -59.892054280671424, -3.103790734967714 ] ] ] } }
]
}
