{
"type": "FeatureCollection",
"name": "p16_apoio_recorte_analise_21s",
"crs": { "type": "name", "properties": { "name": "urn:ogc:def:crs:EPSG::31981" } },
"features": [
{ "type": "Feature", "properties": { "id": 1, "pagina": 16, "id_layer": "p16_apoio_recorte_analise", "doc_fonte": "Resposta SECT_autos.pdf", "doc_pagina": 16, "doc_folha": 109, "doc_escala": "1:2.000", "doc_metodo": "Reconstituição Vetorial Afim", "doc_rms_m": 0.12 }, "geometry": { "type": "Polygon", "coordinates": [ [ [ 172787.209305499796756, 9661233.442472929134965 ], [ 172785.455403036583448, 9661233.442472917959094 ], [ 172785.458125190722058, 9661342.061872681602836 ], [ 172432.547893842653139, 9661342.061870472505689 ], [ 172432.545171688514529, 9661233.442470708861947 ], [ 172024.888127738697222, 9661233.442468158900738 ], [ 172024.901817002886673, 9661779.671514252200723 ], [ 172787.222994763986208, 9661779.671519024297595 ], [ 172787.209305499796756, 9661233.442472929134965 ] ], [ [ 172785.335562318010489, 9661450.430708659812808 ], [ 172513.230123025132343, 9661450.430706957355142 ], [ 172513.22745424657478, 9661343.941099345684052 ], [ 172785.332893539452925, 9661343.941101050004363 ], [ 172785.335562318010489, 9661450.430708659812808 ] ], [ [ 172033.658551625791006, 9661269.81597732193768 ], [ 172033.657850417308509, 9661241.836354929953814 ], [ 172157.892608228285098, 9661241.836355708539486 ], [ 172157.893309436767595, 9661269.815978100523353 ], [ 172033.658551625791006, 9661269.81597732193768 ] ] ] } }
]
}
