{
"type": "FeatureCollection",
"name": "p16_aeis",
"crs": { "type": "name", "properties": { "name": "urn:ogc:def:crs:OGC:1.3:CRS84" } },
"features": [
{ "type": "Feature", "properties": { "id": 1, "pagina": 16, "classe": "Area de Especial Interesse Social - AEIS", "rotulo": "Area de Especial Interesse Social - AEIS", "seq_pdf": "487", "metodo": "CONTORNO_PDF", "situacao": "DERIV_PDF", "recortado": 1, "area_m2": 160641.448, "area_ha": 16.064145, "documento": "Resposta SECT_autos.pdf", "origem": "AEIS São José Operário" }, "geometry": { "type": "Polygon", "coordinates": [ [ [ -59.945152013560666, -3.058648823797346 ], [ -59.945415259635496, -3.058389481351847 ], [ -59.94541623328346, -3.058389478664848 ], [ -59.945584138562857, -3.0582380922649 ], [ -59.945640425999024, -3.058188018810299 ], [ -59.945640892236177, -3.058187547504196 ], [ -59.945777952374883, -3.0581266029728 ], [ -59.946182606147758, -3.057987494473315 ], [ -59.946621373703479, -3.057847044888129 ], [ -59.947238137293269, -3.057626755530886 ], [ -59.947684902778207, -3.057419356059696 ], [ -59.948016686523587, -3.057252001106529 ], [ -59.94826180466152, -3.057127942013612 ], [ -59.94826320544675, -3.057127232959659 ], [ -59.948526871965235, -3.057087010290109 ], [ -59.948687212220662, -3.05705590195398 ], [ -59.949000247979349, -3.056946259391836 ], [ -59.949161290935272, -3.056895177053399 ], [ -59.949162083114842, -3.056895174865468 ], [ -59.949450969079898, -3.056837623033533 ], [ -59.949664220189682, -3.056776868352912 ], [ -59.949949195786267, -3.056652504122047 ], [ -59.950172871037488, -3.056546130024183 ], [ -59.950173768095837, -3.056545223148908 ], [ -59.950294252130831, -3.056502551676033 ], [ -59.950292537453635, -3.055880905005574 ], [ -59.943441191971772, -3.055899806830899 ], [ -59.943453090334614, -3.060220829283741 ], [ -59.943468813815215, -3.060206344898598 ], [ -59.943467841823569, -3.059853583465898 ], [ -59.943864469258592, -3.059852489009526 ], [ -59.943883741148156, -3.059835456803785 ], [ -59.943468920990739, -3.059836601458914 ], [ -59.943466270517007, -3.058874463768268 ], [ -59.944936520866946, -3.058870407306078 ], [ -59.945150935870345, -3.058649913203797 ], [ -59.945152013560666, -3.058648823797346 ] ] ] } },
{ "type": "Feature", "properties": { "id": 2, "pagina": 16, "classe": "Area de Especial Interesse Social - AEIS", "rotulo": "Area de Especial Interesse Social - AEIS", "seq_pdf": "600", "metodo": "CONTORNO_PDF", "situacao": "DERIV_PDF", "recortado": 1, "area_m2": 37685.81, "area_ha": 3.768581, "documento": "Resposta SECT_autos.pdf", "origem": "AEIS São José Operário" }, "geometry": { "type": "Polygon", "coordinates": [ [ [ -59.947916704243674, -3.060166581147407 ], [ -59.946775924898198, -3.060825835580345 ], [ -59.95030615961273, -3.060816074991081 ], [ -59.950301506350904, -3.059131136989232 ], [ -59.949012827562832, -3.059497076759212 ], [ -59.949071302030653, -3.059623135091606 ], [ -59.949070028252308, -3.059626146260497 ], [ -59.948626614518083, -3.059778355467579 ], [ -59.947916704243674, -3.060166581147407 ] ], [ [ -59.949109876742114, -3.060490746973646 ], [ -59.950226435930119, -3.060487658999946 ], [ -59.950227134197469, -3.060740454410325 ], [ -59.949110574748495, -3.060743542639564 ], [ -59.949109876742114, -3.060490746973646 ] ] ] } }
]
}
