{
"type": "FeatureCollection",
"name": "p16_camadas_lim_bairros",
"crs": { "type": "name", "properties": { "name": "urn:ogc:def:crs:OGC:1.3:CRS84" } },
"features": [
{ "type": "Feature", "properties": { "id": 1, "pagina": 16, "classe": "Limites dos bairros de Manaus", "metodo": "CONTORNO_PDF", "comp_m": 424.02083583699778, "id_layer": "p16_camadas_lim_bairros", "doc_fonte": "Resposta SECT_autos.pdf", "doc_pagina": 16, "doc_folha": 109, "doc_escala": "1:2.000", "doc_metodo": "Reconstituição Vetorial Afim", "doc_rms_m": 0.12 }, "geometry": { "type": "LineString", "coordinates": [ [ -59.94826377761791, -3.057126939600838 ], [ -59.948263779131565, -3.05712748857792 ], [ -59.948122498218019, -3.057195547949848 ], [ -59.948121433097519, -3.057195550890865 ], [ -59.947889184739793, -3.057321580185841 ], [ -59.947748576299119, -3.057388776102938 ], [ -59.947313316636127, -3.057599432095594 ], [ -59.94702073917513, -3.057707820677058 ], [ -59.946621361836819, -3.057847035857395 ], [ -59.946018427287449, -3.058041115452145 ], [ -59.945640166213494, -3.058188312921167 ], [ -59.945639505804827, -3.058188314743743 ], [ -59.945315651053562, -3.058479450900702 ], [ -59.944938697082087, -3.058870401300342 ] ] } },
{ "type": "Feature", "properties": { "id": 2, "pagina": 16, "classe": "Limites dos bairros de Manaus", "metodo": "CONTORNO_PDF", "comp_m": 2.8560744883825211, "id_layer": "p16_camadas_lim_bairros", "doc_fonte": "Resposta SECT_autos.pdf", "doc_pagina": 16, "doc_folha": 109, "doc_escala": "1:2.000", "doc_metodo": "Reconstituição Vetorial Afim", "doc_rms_m": 0.12 }, "geometry": { "type": "LineString", "coordinates": [ [ -59.943884065686866, -3.059835455908187 ], [ -59.943864782239444, -3.059852488145824 ] ] } },
{ "type": "Feature", "properties": { "id": 3, "pagina": 16, "classe": "Limites dos bairros de Manaus", "metodo": "CONTORNO_PDF", "comp_m": 2.382674681514358, "id_layer": "p16_camadas_lim_bairros", "doc_fonte": "Resposta SECT_autos.pdf", "doc_pagina": 16, "doc_folha": 109, "doc_escala": "1:2.000", "doc_metodo": "Reconstituição Vetorial Afim", "doc_rms_m": 0.12 }, "geometry": { "type": "LineString", "coordinates": [ [ -59.943468808134959, -3.060204283501206 ], [ -59.943453085014717, -3.06021889866198 ] ] } },
{ "type": "Feature", "properties": { "id": 4, "pagina": 16, "classe": "Limites dos bairros de Manaus", "metodo": "CONTORNO_PDF", "comp_m": 237.52998095904957, "id_layer": "p16_camadas_lim_bairros", "doc_fonte": "Resposta SECT_autos.pdf", "doc_pagina": 16, "doc_folha": 109, "doc_escala": "1:2.000", "doc_metodo": "Reconstituição Vetorial Afim", "doc_rms_m": 0.12 }, "geometry": { "type": "LineString", "coordinates": [ [ -59.95029425125059, -3.056502232582655 ], [ -59.950134330724936, -3.056559321211782 ], [ -59.949948897369204, -3.056652606308079 ], [ -59.949699052414537, -3.056766579761247 ], [ -59.949501970409827, -3.056823777853054 ], [ -59.949352195524312, -3.056862710708074 ], [ -59.949163779946801, -3.056894815334702 ], [ -59.949162780530948, -3.056895825750256 ], [ -59.94896988431465, -3.05695651496777 ], [ -59.948687417619944, -3.057055817465581 ], [ -59.948462113683902, -3.057099497808222 ], [ -59.94826377761791, -3.057126939600838 ] ] } },
{ "type": "Feature", "properties": { "id": 5, "pagina": 16, "classe": "Limites dos bairros de Manaus", "metodo": "CONTORNO_PDF", "comp_m": 2.381338207289593, "id_layer": "p16_camadas_lim_bairros", "doc_fonte": "Resposta SECT_autos.pdf", "doc_pagina": 16, "doc_folha": 109, "doc_escala": "1:2.000", "doc_metodo": "Reconstituição Vetorial Afim", "doc_rms_m": 0.12 }, "geometry": { "type": "LineString", "coordinates": [ [ -59.943453085132752, -3.06021894149671 ], [ -59.943468808302171, -3.060204344181583 ] ] } },
{ "type": "Feature", "properties": { "id": 6, "pagina": 16, "classe": "Limites dos bairros de Manaus", "metodo": "CONTORNO_PDF", "comp_m": 2.8563411444480939, "id_layer": "p16_camadas_lim_bairros", "doc_fonte": "Resposta SECT_autos.pdf", "doc_pagina": 16, "doc_folha": 109, "doc_escala": "1:2.000", "doc_metodo": "Reconstituição Vetorial Afim", "doc_rms_m": 0.12 }, "geometry": { "type": "LineString", "coordinates": [ [ -59.943864953923494, -3.059852487672045 ], [ -59.943884240553338, -3.059835455425626 ] ] } },
{ "type": "Feature", "properties": { "id": 7, "pagina": 16, "classe": "Limites dos bairros de Manaus", "metodo": "CONTORNO_PDF", "comp_m": 661.43684478594287, "id_layer": "p16_camadas_lim_bairros", "doc_fonte": "Resposta SECT_autos.pdf", "doc_pagina": 16, "doc_folha": 109, "doc_escala": "1:2.000", "doc_metodo": "Reconstituição Vetorial Afim", "doc_rms_m": 0.12 }, "geometry": { "type": "LineString", "coordinates": [ [ -59.944938815992863, -3.058870400972181 ], [ -59.945315786177225, -3.058479433547771 ], [ -59.945640756788961, -3.05818729403898 ], [ -59.946018003965037, -3.058041190360876 ], [ -59.946621015951202, -3.057847085604627 ], [ -59.947020299479171, -3.057707903322906 ], [ -59.947313747402362, -3.057599605794993 ], [ -59.947748810913524, -3.057387912029105 ], [ -59.947889327346111, -3.057320759938078 ], [ -59.948122050232463, -3.057195606550613 ], [ -59.948261847249739, -3.057128261872938 ], [ -59.948462481064531, -3.057099367968686 ], [ -59.948687330746502, -3.057055775693613 ], [ -59.948969547101974, -3.056956561203815 ], [ -59.949162103733997, -3.056895979149717 ], [ -59.949352349450614, -3.056863751607869 ], [ -59.949501862669834, -3.056823754610969 ], [ -59.949698563937716, -3.056766667090445 ], [ -59.949949143891743, -3.056652868711782 ], [ -59.950134753683038, -3.056559495000994 ], [ -59.950294252145625, -3.056502557040401 ] ] } }
]
}
