{
"type": "FeatureCollection",
"name": "p16_lim_bairros_21s",
"crs": { "type": "name", "properties": { "name": "urn:ogc:def:crs:EPSG::31981" } },
"features": [
{ "type": "Feature", "properties": { "id": 1, "pagina": 16, "classe": "Limites dos bairros de Manaus", "metodo": "CONTORNO_PDF", "comp_m": 424.02083583699778, "origem": "Prefeitura de Manaus - GeoManaus" }, "geometry": { "type": "LineString", "coordinates": [ [ 172251.011144513176987, 9661642.380582228302956 ], [ 172251.01114299040637, 9661642.319821065291762 ], [ 172266.751464398461394, 9661634.830197947099805 ], [ 172266.869975990441162, 9661634.830197947099805 ], [ 172292.749411852681078, 9661620.952273864299059 ], [ 172308.414638622314669, 9661613.558011990040541 ], [ 172356.907825506408699, 9661590.375659603625536 ], [ 172389.494377208990045, 9661578.468638341873884 ], [ 172433.973355949798133, 9661563.182365763932467 ], [ 172501.117728540062672, 9661541.885897386819124 ], [ 172543.249573945242446, 9661525.709683820605278 ], [ 172543.323054678359767, 9661525.709683820605278 ], [ 172579.445108593499754, 9661493.585778879001737 ], [ 172621.505530373571673, 9661450.430707633495331 ] ] } },
{ "type": "Feature", "properties": { "id": 2, "pagina": 16, "classe": "Limites dos bairros de Manaus", "metodo": "CONTORNO_PDF", "comp_m": 2.8560744883825211, "origem": "Prefeitura de Manaus - GeoManaus" }, "geometry": { "type": "LineString", "coordinates": [ [ 172739.141743919841247, 9661343.941100761294365 ], [ 172741.292479204479605, 9661342.061872404068708 ] ] } },
{ "type": "Feature", "properties": { "id": 3, "pagina": 16, "classe": "Limites dos bairros de Manaus", "metodo": "CONTORNO_PDF", "comp_m": 2.382674681514358, "origem": "Prefeitura de Manaus - GeoManaus" }, "geometry": { "type": "LineString", "coordinates": [ [ 172785.457152418559417, 9661303.246316440403461 ], [ 172787.211014462896856, 9661301.633521795272827 ] ] } },
{ "type": "Feature", "properties": { "id": 4, "pagina": 16, "classe": "Limites dos bairros de Manaus", "metodo": "CONTORNO_PDF", "comp_m": 237.52998095904957, "origem": "Prefeitura de Manaus - GeoManaus" }, "geometry": { "type": "LineString", "coordinates": [ [ 172024.900093553238548, 9661710.902423167601228 ], [ 172042.711068743112264, 9661704.632748816162348 ], [ 172063.371741267532343, 9661694.364648437127471 ], [ 172091.205473257083213, 9661681.826453480869532 ], [ 172113.151246662135236, 9661675.556022418662906 ], [ 172129.827823005878599, 9661671.292723191902041 ], [ 172150.801683934580069, 9661667.796982800588012 ], [ 172150.91319138254039, 9661667.685455579310656 ], [ 172172.394278194464277, 9661661.027342099696398 ], [ 172203.853171244874829, 9661650.122891141101718 ], [ 172228.934920789732132, 9661645.357219150289893 ], [ 172251.011144513176987, 9661642.380582228302956 ] ] } },
{ "type": "Feature", "properties": { "id": 5, "pagina": 16, "classe": "Limites dos bairros de Manaus", "metodo": "CONTORNO_PDF", "comp_m": 2.381338207289593, "origem": "Prefeitura de Manaus - GeoManaus" }, "geometry": { "type": "LineString", "coordinates": [ [ 172787.211014344065916, 9661301.628780838102102 ], [ 172785.457152250251966, 9661303.239600323140621 ] ] } },
{ "type": "Feature", "properties": { "id": 6, "pagina": 16, "classe": "Limites dos bairros de Manaus", "metodo": "CONTORNO_PDF", "comp_m": 2.8563411444480939, "origem": "Prefeitura de Manaus - GeoManaus" }, "geometry": { "type": "LineString", "coordinates": [ [ 172741.273376744211419, 9661342.061872404068708 ], [ 172739.122287365578813, 9661343.941100761294365 ] ] } },
{ "type": "Feature", "properties": { "id": 7, "pagina": 16, "classe": "Limites dos bairros de Manaus", "metodo": "CONTORNO_PDF", "comp_m": 661.43684478594287, "origem": "Prefeitura de Manaus - GeoManaus" }, "geometry": { "type": "LineString", "coordinates": [ [ 172621.492299718345748, 9661450.430707633495331 ], [ 172579.430068834481062, 9661493.587658220902085 ], [ 172543.183554156828905, 9661525.822272891178727 ], [ 172501.164852171117673, 9661541.877735830843449 ], [ 172434.011855977412779, 9661563.176965430378914 ], [ 172389.543325054110028, 9661578.459625469520688 ], [ 172356.859949125326239, 9661590.356302969157696 ], [ 172308.388271585892653, 9661613.65357581153512 ], [ 172292.733295408921549, 9661621.043015152215958 ], [ 172266.801327353168745, 9661634.823848932981491 ], [ 172251.226329069992062, 9661642.234823307022452 ], [ 172228.89400466970983, 9661645.371477488428354 ], [ 172203.862824528943747, 9661650.127541011199355 ], [ 172172.431812278518919, 9661661.022327775135636 ], [ 172150.988541972386884, 9661667.668684225529432 ], [ 172129.811012896854663, 9661671.17746939137578 ], [ 172113.163227309996728, 9661675.558627789840102 ], [ 172091.259850317466771, 9661681.816937228664756 ], [ 172063.344391668535536, 9661694.335530217736959 ], [ 172042.664061029849108, 9661704.613384498283267 ], [ 172024.900092653260799, 9661710.866511894389987 ] ] } }
]
}
