{
"type": "FeatureCollection",
"name": "p16_sobreposicoes_uniao_sobrepos_21s",
"crs": { "type": "name", "properties": { "name": "urn:ogc:def:crs:EPSG::31981" } },
"features": [
{ "type": "Feature", "properties": { "id": 1, "pagina": 16, "area_m2": 152230.8654370608, "area_ha": 15.22308654370608, "id_layer": "p16_sobreposicoes_uniao_sobrepos", "doc_fonte": "Resposta SECT_autos.pdf", "doc_pagina": 16, "doc_folha": 109, "doc_escala": "1:2.000", "doc_metodo": "Reconstituição Vetorial Afim", "doc_rms_m": 0.12 }, "geometry": { "type": "MultiPolygon", "coordinates": [ [ [ [ 172327.467411961406469, 9661284.973676353693008 ], [ 172327.437618563824799, 9661284.933319732546806 ], [ 172263.043895591166802, 9661320.926362454891205 ], [ 172290.552717946993653, 9661306.059678645804524 ], [ 172327.467411961406469, 9661284.973676353693008 ] ] ], [ [ [ 172211.446567155158846, 9661348.8112772423774 ], [ 172215.675740638980642, 9661346.525691034272313 ], [ 172209.551948953914689, 9661349.328203478828073 ], [ 172182.993056044913828, 9661357.471513502299786 ], [ 172180.004287738236599, 9661359.451180221512914 ], [ 172211.446567155158846, 9661348.8112772423774 ] ] ], [ [ [ 172149.794444709899835, 9661369.749148838222027 ], [ 172155.775072201824514, 9661383.350687338039279 ], [ 172156.747860204690369, 9661383.078788306564093 ], [ 172150.671353979036212, 9661369.498595256358385 ], [ 172149.794444709899835, 9661369.749148838222027 ] ] ], [ [ [ 172107.238714248436736, 9661396.916838128119707 ], [ 172121.234405849914765, 9661393.004973482340574 ], [ 172121.982782980863703, 9661379.1452905125916 ], [ 172106.824162888049614, 9661384.28186197951436 ], [ 172107.238714248436736, 9661396.916838128119707 ] ] ], [ [ [ 172338.485243230621563, 9661585.581948464736342 ], [ 172302.639939204818802, 9661585.108735606074333 ], [ 172279.058078239148017, 9661589.335795199498534 ], [ 172286.298814189358382, 9661603.835714429616928 ], [ 172338.485243230621563, 9661585.581948464736342 ] ] ], [ [ [ 172040.484966282208916, 9661779.67151434905827 ], [ 172274.156040791713167, 9661779.671515811234713 ], [ 172249.872376254876144, 9661731.946351796388626 ], [ 172250.277085733046988, 9661732.690803874284029 ], [ 172299.636343093210598, 9661708.761964855715632 ], [ 172299.886880973528605, 9661708.386118546128273 ], [ 172290.615774469828466, 9661689.468557998538017 ], [ 172240.629200335795758, 9661713.780556181445718 ], [ 172215.57317488786066, 9661664.537456061691046 ], [ 172186.383697675104486, 9661681.701069571077824 ], [ 172117.106009951268788, 9661739.330743916332722 ], [ 172096.43521683808649, 9661749.353301463648677 ], [ 172040.484966282208916, 9661779.67151434905827 ] ] ], [ [ [ 172334.430036357633071, 9661779.671516189351678 ], [ 172328.076059111161157, 9661766.642197383567691 ], [ 172318.429109679971589, 9661746.847663434222341 ], [ 172271.199606687994674, 9661769.774244310334325 ], [ 172276.563378694059793, 9661779.671515827998519 ], [ 172301.290506487595849, 9661779.671515982598066 ], [ 172301.29751574061811, 9661779.671515982598066 ], [ 172310.029295015177922, 9661779.671516036614776 ], [ 172334.430036357633071, 9661779.671516189351678 ] ] ], [ [ [ 172408.292455538583454, 9661233.44247055798769 ], [ 172323.428500601730775, 9661279.420885903760791 ], [ 172327.507673960266402, 9661284.950678341090679 ], [ 172417.681700360146351, 9661233.44247061572969 ], [ 172408.292455538583454, 9661233.44247055798769 ] ] ], [ [ [ 172787.211241874698317, 9661310.707707474008203 ], [ 172787.211009107733844, 9661301.419840160757303 ], [ 172785.457146700675366, 9661303.018160527572036 ], [ 172785.457374196470482, 9661312.095698056742549 ], [ 172787.211241874698317, 9661310.707707474008203 ] ] ], [ [ [ 172747.592056282301201, 9661342.061872443184257 ], [ 172741.327303081343416, 9661342.061872404068708 ], [ 172739.177853785018669, 9661343.941100761294365 ], [ 172745.217459573177621, 9661343.941100798547268 ], [ 172747.592056282301201, 9661342.061872443184257 ] ] ], [ [ [ 172400.227011176611995, 9661383.530171195045114 ], [ 172400.227032778144348, 9661383.5301572997123 ], [ 172400.186558056651847, 9661383.475332301110029 ], [ 172400.227011176611995, 9661383.530171195045114 ] ] ], [ [ [ 172341.895451220683753, 9661584.389126121997833 ], [ 172362.146848127711564, 9661565.314190143719316 ], [ 172383.687762731307885, 9661569.771013952791691 ], [ 172504.175255898269825, 9661527.626905946061015 ], [ 172409.331501698325155, 9661415.897114623337984 ], [ 172238.395355149172246, 9661506.189934188500047 ], [ 172247.650749309308594, 9661526.441120425239205 ], [ 172279.040161100332625, 9661589.299915274605155 ], [ 172286.98016485752305, 9661587.864936480298638 ], [ 172302.639939204411348, 9661585.108719674870372 ], [ 172338.485245675081387, 9661585.581947609782219 ], [ 172341.895451220683753, 9661584.389126121997833 ] ] ], [ [ [ 172433.972038353065727, 9661563.181362619623542 ], [ 172403.577791455405531, 9661573.886268815025687 ], [ 172409.377170591178583, 9661575.08616266772151 ], [ 172473.22410398023203, 9661561.472530269995332 ], [ 172409.377170591586037, 9661575.086178597062826 ], [ 172403.577762964618159, 9661573.886278849095106 ], [ 172365.28095515948371, 9661587.374480631202459 ], [ 172315.5085685623053, 9661610.192886540666223 ], [ 172291.300035692926031, 9661622.256566030904651 ], [ 172365.271099220146425, 9661779.671516383066773 ], [ 172440.591687858308433, 9661779.671516854315996 ], [ 172722.160864790232154, 9661779.671518616378307 ], [ 172652.296205145888962, 9661716.780008424073458 ], [ 172787.218282934249146, 9661591.660079061985016 ], [ 172787.212851335672894, 9661374.928423125296831 ], [ 172787.211241875716951, 9661310.70774888433516 ], [ 172785.457374197576428, 9661312.095742471516132 ], [ 172785.458125190722058, 9661342.061872681602836 ], [ 172747.592194355645915, 9661342.061872443184257 ], [ 172745.217602785764029, 9661343.941100798547268 ], [ 172785.332893539452925, 9661343.941101050004363 ], [ 172785.335562318010489, 9661450.430708659812808 ], [ 172621.747667836840264, 9661450.430707635357976 ], [ 172597.823875590373063, 9661474.769399451091886 ], [ 172597.703635789628606, 9661474.889645282179117 ], [ 172568.334857602487318, 9661503.513144122436643 ], [ 172568.226524170080665, 9661503.513144120573997 ], [ 172549.49859904445475, 9661520.217240268364549 ], [ 172543.220579620683566, 9661525.742156539112329 ], [ 172543.168560675112531, 9661525.794178092852235 ], [ 172527.90008489479078, 9661532.497628604993224 ], [ 172527.280616917531006, 9661532.707566399127245 ], [ 172544.551336187403649, 9661511.944110685959458 ], [ 172530.519772626255872, 9661495.782735150307417 ], [ 172423.403902241465403, 9661368.622439172118902 ], [ 172475.395493516960414, 9661432.765926910564303 ], [ 172544.5300678050844, 9661511.919760005548596 ], [ 172527.251616037770873, 9661532.717394800856709 ], [ 172482.834110786119709, 9661547.770494246855378 ], [ 172433.972038353065727, 9661563.181362619623542 ] ], [ [ 172509.850219993852079, 9661553.662992104887962 ], [ 172509.865777248080121, 9661553.644288636744022 ], [ 172509.850242613931186, 9661553.662987282499671 ], [ 172509.850219993852079, 9661553.662992104887962 ] ] ], [ [ [ 172383.687734116596403, 9661569.771023960784078 ], [ 172362.146848128089914, 9661565.314206073060632 ], [ 172341.895452838798519, 9661584.389125555753708 ], [ 172383.687734116596403, 9661569.771023960784078 ] ] ] ] } }
]
}
