{
"type": "FeatureCollection",
"name": "p16_apoio_moldura",
"crs": { "type": "name", "properties": { "name": "urn:ogc:def:crs:OGC:1.3:CRS84" } },
"features": [
{ "type": "Feature", "properties": { "id": 1, "pagina": 16, "id_layer": "p16_apoio_moldura", "doc_fonte": "Resposta SECT_autos.pdf", "doc_pagina": 16, "doc_folha": 109, "doc_escala": "1:2.000", "doc_metodo": "Reconstituição Vetorial Afim", "doc_rms_m": 0.12 }, "geometry": { "type": "Polygon", "coordinates": [ [ [ -59.943441191971772, -3.055899806830899 ], [ -59.943454782893653, -3.060835007399031 ], [ -59.95030615961273, -3.060816074991081 ], [ -59.950292537453635, -3.055880905005574 ], [ -59.943441191971772, -3.055899806830899 ] ] ] } }
]
}
