{
"type": "FeatureCollection",
"name": "p16_devoluta",
"crs": { "type": "name", "properties": { "name": "urn:ogc:def:crs:OGC:1.3:CRS84" } },
"features": [
{ "type": "Feature", "properties": { "id": 1, "pagina": 16, "classe": "Terra Devoluta - Processo C39419 - Tancredo Neves", "rotulo": "Terra Devoluta - Processo C39419 - Tancredo Neves", "seq_pdf": "4,6,8,10,12", "metodo": "PREENCH_PDF", "situacao": "DERIV_PDF", "recortado": 1, "area_m2": 89401.352, "area_ha": 8.940135, "documento": "Resposta SECT_autos.pdf", "origem": "Terra Devoluta - Processo C39419 - Tancredo Neves" }, "geometry": { "type": "MultiPolygon", "coordinates": [ [ [ [ -59.950296062499511, -3.057158754162556 ], [ -59.950295116988073, -3.056816053097194 ], [ -59.950269251285597, -3.056827261429943 ], [ -59.950291331418065, -3.057076224756575 ], [ -59.950291562526608, -3.05715998672061 ], [ -59.950296062499511, -3.057158754162556 ] ] ], [ [ [ -59.950189804297992, -3.058231072276681 ], [ -59.950197676178533, -3.05822765458313 ], [ -59.950211006273456, -3.058161965968107 ], [ -59.950239042282611, -3.058121138983061 ], [ -59.950282897600538, -3.058100643307687 ], [ -59.950298648290989, -3.058095780206892 ], [ -59.950296147099841, -3.057189415728721 ], [ -59.950291645706443, -3.057190548608961 ], [ -59.950259537130414, -3.057387592778242 ], [ -59.950222693298507, -3.057500887580018 ], [ -59.950198197951686, -3.057600564953951 ], [ -59.950185014637299, -3.057719453790722 ], [ -59.950182660984673, -3.05809073284374 ], [ -59.950189804297992, -3.058231072276681 ] ] ], [ [ [ -59.948687655445895, -3.057365901131802 ], [ -59.948366974700463, -3.057443758064527 ], [ -59.94829728187387, -3.05748583197795 ], [ -59.948287085823459, -3.057463221440785 ], [ -59.948213946635953, -3.057480402405379 ], [ -59.948226410081531, -3.057508666249056 ], [ -59.948307977364678, -3.057689549826375 ], [ -59.948423513125157, -3.057939387362894 ], [ -59.948586628675542, -3.058294362640936 ], [ -59.948796189499852, -3.05875108374827 ], [ -59.949172320144349, -3.05958993582268 ], [ -59.94918019516625, -3.059587650286564 ], [ -59.949052160874238, -3.059297098046377 ], [ -59.949313045215177, -3.059175260821544 ], [ -59.949086335775135, -3.058624637713762 ], [ -59.949480121314778, -3.058517147837543 ], [ -59.949429919960679, -3.059502065239708 ], [ -59.949566030912791, -3.059455279732576 ], [ -59.949561146127714, -3.059317198037176 ], [ -59.949564236358142, -3.059213051937208 ], [ -59.949581951306811, -3.059104337878676 ], [ -59.9495871658224, -3.058953776690233 ], [ -59.949592423521743, -3.058819062609292 ], [ -59.949587501327507, -3.058667397844724 ], [ -59.949539721035713, -3.05848981677709 ], [ -59.949626324614655, -3.05845561978671 ], [ -59.949630787582549, -3.05844089239773 ], [ -59.949641857122124, -3.058371814064629 ], [ -59.949650517551497, -3.0582461459396 ], [ -59.949643377999777, -3.058106938595453 ], [ -59.949641755497211, -3.057926966201649 ], [ -59.949643654366355, -3.057799052996746 ], [ -59.949645587602653, -3.057683590985566 ], [ -59.949666486726656, -3.057504688391981 ], [ -59.949703218217572, -3.057350644638499 ], [ -59.949734488302596, -3.057257739961042 ], [ -59.949752200838937, -3.057147893924458 ], [ -59.94975207593788, -3.057102617227272 ], [ -59.949745123294136, -3.057031324934586 ], [ -59.948687655445895, -3.057365901131802 ] ] ], [ [ [ -59.946842126176399, -3.057738874684964 ], [ -59.945939653481432, -3.057934925687099 ], [ -59.945628806258767, -3.058312717458951 ], [ -59.945755313848011, -3.058458387766299 ], [ -59.946721163915214, -3.059604632329451 ], [ -59.946929091865329, -3.059469358131921 ], [ -59.947585722879857, -3.060358374029893 ], [ -59.948510937360567, -3.059835128774221 ], [ -59.948643629619461, -3.059773637975521 ], [ -59.948882126314516, -3.059699403421161 ], [ -59.948968664415027, -3.059641435555734 ], [ -59.948035258452833, -3.057603144421969 ], [ -59.947941852554614, -3.057620381203329 ], [ -59.947801178607499, -3.057645672271281 ], [ -59.947460005807621, -3.05764208646996 ], [ -59.947266849561338, -3.057825992672175 ], [ -59.946842126176399, -3.057738874684964 ] ] ] ] } }
]
}
