{
"type": "FeatureCollection",
"name": "p16_camadas_aeis_21s",
"crs": { "type": "name", "properties": { "name": "urn:ogc:def:crs:EPSG::31981" } },
"features": [
{ "type": "Feature", "properties": { "id": 1, "pagina": 16, "classe": "Area de Especial Interesse Social - AEIS", "rotulo": "Area de Especial Interesse Social - AEIS", "seq_pdf": "487", "metodo": "CONTORNO_PDF", "situacao": "DERIV_PDF", "recortado": 1, "area_m2": 160641.448, "area_ha": 16.064145, "id_layer": "p16_camadas_aeis", "doc_fonte": "Resposta SECT_autos.pdf", "doc_pagina": 16, "doc_folha": 109, "doc_escala": "1:2.000", "doc_metodo": "Reconstituição Vetorial Afim", "doc_rms_m": 0.12 }, "geometry": { "type": "Polygon", "coordinates": [ [ [ 172597.703635789628606, 9661474.889645282179117 ], [ 172568.334857602487318, 9661503.513144122436643 ], [ 172568.226524170080665, 9661503.513144120573997 ], [ 172549.49859904445475, 9661520.217240268364549 ], [ 172543.220579620683566, 9661525.742156539112329 ], [ 172543.168560675112531, 9661525.794178092852235 ], [ 172527.90008489479078, 9661532.497628604993224 ], [ 172482.834110786119709, 9661547.770494246855378 ], [ 172433.972038353065727, 9661563.181362619623542 ], [ 172365.28095515948371, 9661587.374480631202459 ], [ 172315.5085685623053, 9661610.192886540666223 ], [ 172278.541769884264795, 9661628.614308996126056 ], [ 172251.230970410775626, 9661642.270238304510713 ], [ 172251.074896368110785, 9661642.348288184031844 ], [ 172221.725786995404633, 9661646.719543432816863 ], [ 172203.876050710648997, 9661650.113602755591273 ], [ 172169.012741419166559, 9661662.15314700268209 ], [ 172151.078734281327343, 9661667.757708659395576 ], [ 172150.990591600333573, 9661667.757708659395576 ], [ 172118.830131983122556, 9661674.039230117574334 ], [ 172095.084218823729316, 9661680.698361519724131 ], [ 172063.33850672308472, 9661694.375867148861289 ], [ 172038.41885603684932, 9661706.080965954810381 ], [ 172038.318768713157624, 9661706.181064661592245 ], [ 172024.900092668132856, 9661710.867105627432466 ], [ 172024.901817002886673, 9661779.671514252200723 ], [ 172787.222994763986208, 9661779.671519024297595 ], [ 172787.211009107733844, 9661301.419840160757303 ], [ 172785.457146700675366, 9661303.018160527572036 ], [ 172785.458125190722058, 9661342.061872681602836 ], [ 172741.327303081343416, 9661342.061872404068708 ], [ 172739.177853785018669, 9661343.941100761294365 ], [ 172785.332893539452925, 9661343.941101050004363 ], [ 172785.335562318010489, 9661450.430708659812808 ], [ 172621.747667836840264, 9661450.430707635357976 ], [ 172597.823875590373063, 9661474.769399451091886 ], [ 172597.703635789628606, 9661474.889645282179117 ] ] ] } },
{ "type": "Feature", "properties": { "id": 2, "pagina": 16, "classe": "Area de Especial Interesse Social - AEIS", "rotulo": "Area de Especial Interesse Social - AEIS", "seq_pdf": "600", "metodo": "CONTORNO_PDF", "situacao": "DERIV_PDF", "recortado": 1, "area_m2": 37685.81, "area_ha": 3.768581, "id_layer": "p16_camadas_aeis", "doc_fonte": "Resposta SECT_autos.pdf", "doc_pagina": 16, "doc_folha": 109, "doc_escala": "1:2.000", "doc_metodo": "Reconstituição Vetorial Afim", "doc_rms_m": 0.12 }, "geometry": { "type": "Polygon", "coordinates": [ [ [ 172290.552717946993653, 9661306.059678645804524 ], [ 172417.681700360146351, 9661233.44247061572969 ], [ 172024.888127738697222, 9661233.442468158900738 ], [ 172024.89280145050725, 9661419.93292579986155 ], [ 172168.389022050687345, 9661379.825026309117675 ], [ 172161.921229457162553, 9661365.855009136721492 ], [ 172162.06387270783307, 9661365.522122878581285 ], [ 172211.446567155158846, 9661348.8112772423774 ], [ 172290.552717946993653, 9661306.059678645804524 ] ], [ [ 172157.893309436767595, 9661269.815978100523353 ], [ 172033.658551625791006, 9661269.81597732193768 ], [ 172033.657850417308509, 9661241.836354929953814 ], [ 172157.892608228285098, 9661241.836355708539486 ], [ 172157.893309436767595, 9661269.815978100523353 ] ] ] } }
]
}
